{"type": "FeatureCollection", "features": [{"type": "Feature", "properties": {"bid": "367", "zone_id": "DRAFT_Z13", "heritage_proxy": true, "proxy_name": "Tianzifang conservative protection proxy", "evidence_class": "official_extent_plus_conservative_research_assumption", "official_extent": "E Sinan Rd; W Ruijin 2nd Rd; S Taikang Rd; N Jianguo Middle Rd", "source_document": "Huangpu Government Regulation [2023] No. 3", "review_status": "building_level_official_list_not_yet_matched"}, "geometry": {"type": "Polygon", "coordinates": [[[121.46447600393446, 31.209753630085803], [121.4646865953747, 31.209790176746484], [121.46469460252241, 31.209769365256477], [121.4647534883793, 31.209779637127497], [121.46476449733996, 31.209751895745843], [121.46451099044681, 31.209706422617145], [121.4645159958118, 31.20969254101374], [121.4643603006748, 31.20966318286401], [121.46432926527143, 31.209751447630026], [121.46446199529646, 31.20978630312362], [121.46447600393446, 31.209753630085803]]]}}, {"type": "Feature", "properties": {"bid": "370", "zone_id": "DRAFT_Z13", "heritage_proxy": true, "proxy_name": "Tianzifang conservative protection proxy", "evidence_class": "official_extent_plus_conservative_research_assumption", "official_extent": "E Sinan Rd; W Ruijin 2nd Rd; S Taikang Rd; N Jianguo Middle Rd", "source_document": "Huangpu Government Regulation [2023] No. 3", "review_status": "building_level_official_list_not_yet_matched"}, "geometry": {"type": "Polygon", "coordinates": [[[121.46496695364318, 31.20993616581939], [121.46498397630491, 31.20988457197234], [121.46493108356549, 31.209870432288195], [121.464913062685, 31.20992200449837], [121.46496695364318, 31.20993616581939]]]}}, {"type": "Feature", "properties": {"bid": "389", "zone_id": "DRAFT_Z13", "heritage_proxy": true, "proxy_name": "Tianzifang conservative protection proxy", "evidence_class": "official_extent_plus_conservative_research_assumption", "official_extent": "E Sinan Rd; W Ruijin 2nd Rd; S Taikang Rd; N Jianguo Middle Rd", "source_document": "Huangpu Government Regulation [2023] No. 3", "review_status": "building_level_official_list_not_yet_matched"}, "geometry": {"type": "Polygon", "coordinates": [[[121.46426810534243, 31.20981302199831], [121.4644008862395, 31.209858619007488], [121.4644172096335, 31.209823503900353], [121.46428442878889, 31.20977790689942], [121.46426810534243, 31.20981302199831]]]}}, {"type": "Feature", "properties": {"bid": "415", "zone_id": "DRAFT_Z13", "heritage_proxy": true, "proxy_name": "Tianzifang conservative protection proxy", "evidence_class": "official_extent_plus_conservative_research_assumption", "official_extent": "E Sinan Rd; W Ruijin 2nd Rd; S Taikang Rd; N Jianguo Middle Rd", "source_document": "Huangpu Government Regulation [2023] No. 3", "review_status": "building_level_official_list_not_yet_matched"}, "geometry": {"type": "Polygon", "coordinates": [[[121.46437085423692, 31.210083117447144], [121.46438682061684, 31.21008846012256], [121.46441283899355, 31.21002506904211], [121.46427313560127, 31.20997607269862], [121.46422010981053, 31.210093840377738], [121.4643478568761, 31.210120592303213], [121.46437085423692, 31.210083117447144]]]}}, {"type": "Feature", "properties": {"bid": "417", "zone_id": "DRAFT_Z13", "heritage_proxy": true, "proxy_name": "Tianzifang conservative protection proxy", "evidence_class": "official_extent_plus_conservative_research_assumption", "official_extent": "E Sinan Rd; W Ruijin 2nd Rd; S Taikang Rd; N Jianguo Middle Rd", "source_document": "Huangpu Government Regulation [2023] No. 3", "review_status": "building_level_official_list_not_yet_matched"}, "geometry": {"type": "Polygon", "coordinates": [[[121.46370801090723, 31.2100997453984], [121.46386268066762, 31.21015505358701], [121.46385568008098, 31.21016789306674], [121.46395546670283, 31.21020402838933], [121.46396047086624, 31.210191145772974], [121.46399539610854, 31.210203893329957], [121.4640284157947, 31.21012666264107], [121.46371009636219, 31.210011852023683], [121.46368808012164, 31.210066337695302], [121.4637170180331, 31.210076956173168], [121.46370801090723, 31.2100997453984]]]}}, {"type": "Feature", "properties": {"bid": "502", "zone_id": "DRAFT_Z17", "heritage_proxy": true, "proxy_name": "Tianzifang conservative protection proxy", "evidence_class": "official_extent_plus_conservative_research_assumption", "official_extent": "E Sinan Rd; W Ruijin 2nd Rd; S Taikang Rd; N Jianguo Middle Rd", "source_document": "Huangpu Government Regulation [2023] No. 3", "review_status": "building_level_official_list_not_yet_matched"}, "geometry": {"type": "Polygon", "coordinates": [[[121.46570451351238, 31.210086101589475], [121.46571452229968, 31.21006033738485], [121.46576142672427, 31.210074348093364], [121.46575041968242, 31.210100090591826], [121.4658542061834, 31.2101333254987], [121.46586821103425, 31.210104650279167], [121.46590812996565, 31.210116510536295], [121.46589912445255, 31.21013730004916], [121.4659500222001, 31.210151397619185], [121.46596803224669, 31.210110817870262], [121.46604587595505, 31.210132496398735], [121.4660328581698, 31.210172185402655], [121.46612967912517, 31.21018428347986], [121.46622148285132, 31.210222254200293], [121.46625446294503, 31.21018599702841], [121.46632130334399, 31.21023042000428], [121.46629632143733, 31.21025485948001], [121.46634819301961, 31.210293960523654], [121.46633120633271, 31.21030958010533], [121.4663601319354, 31.21033419211909], [121.46633414372752, 31.210366604176667], [121.46632017401988, 31.210360304692518], [121.46629419291526, 31.210385721768986], [121.46635705058657, 31.21042006513982], [121.46641295370478, 31.210421280270054], [121.46647992954045, 31.210331799455773], [121.46647104492125, 31.21023267548918], [121.46562274259928, 31.210000382548174], [121.4655576847655, 31.2101688492803], [121.4656075847313, 31.210181925728705], [121.46563764328006, 31.21007265612729], [121.46570451351238, 31.210086101589475]]]}}, {"type": "Feature", "properties": {"bid": "503", "zone_id": "DRAFT_Z17", "heritage_proxy": true, "proxy_name": "Tianzifang conservative protection proxy", "evidence_class": "official_extent_plus_conservative_research_assumption", "official_extent": "E Sinan Rd; W Ruijin 2nd Rd; S Taikang Rd; N Jianguo Middle Rd", "source_document": "Huangpu Government Regulation [2023] No. 3", "review_status": "building_level_official_list_not_yet_matched"}, "geometry": {"type": "Polygon", "coordinates": [[[121.46567850348981, 31.210140497631983], [121.4657593391762, 31.21016423977982], [121.46575033070121, 31.210188027143374], [121.46591798819884, 31.210239638925035], [121.46593400365772, 31.210197017184775], [121.46601284657596, 31.210217718161168], [121.46599583283559, 31.210260318206103], [121.46617048773022, 31.21030408758464], [121.46620346668169, 31.210268829699082], [121.4662633221951, 31.210310103013278], [121.46623134247137, 31.21034438336233], [121.46629419291526, 31.210385721768986], [121.46632017401988, 31.210360304692518], [121.46633414372752, 31.210366604176667], [121.4663601319354, 31.21033419211909], [121.46633120633271, 31.21030958010533], [121.46634819301961, 31.210293960523654], [121.46629632143733, 31.21025485948001], [121.46632130334399, 31.21023042000428], [121.46625446294503, 31.21018599702841], [121.46622148285132, 31.210222254200293], [121.46612967912517, 31.21018428347986], [121.4660328581698, 31.210172185402655], [121.46604587595505, 31.210132496398735], [121.46596803224669, 31.210110817870262], [121.4659500222001, 31.210151397619185], [121.46589912445255, 31.21013730004916], [121.46590812996565, 31.210116510536295], [121.46586821103425, 31.210104650279167], [121.4658542061834, 31.2101333254987], [121.46575041968242, 31.210100090591826], [121.46576142672427, 31.210074348093364], [121.46571452229968, 31.21006033738485], [121.46570451351238, 31.210086101589475], [121.46563764328006, 31.21007265612729], [121.4656075847313, 31.210181925728705], [121.46565548222827, 31.21020095448789], [121.46567850348981, 31.210140497631983]]]}}, {"type": "Feature", "properties": {"bid": "504", "zone_id": "DRAFT_Z17", "heritage_proxy": true, "proxy_name": "Tianzifang conservative protection proxy", "evidence_class": "official_extent_plus_conservative_research_assumption", "official_extent": "E Sinan Rd; W Ruijin 2nd Rd; S Taikang Rd; N Jianguo Middle Rd", "source_document": "Huangpu Government Regulation [2023] No. 3", "review_status": "building_level_official_list_not_yet_matched"}, "geometry": {"type": "Polygon", "coordinates": [[[121.46598682433694, 31.21028410557994], [121.46601284657596, 31.210217718161168], [121.46593400365772, 31.210197017184775], [121.46591798819884, 31.210239638925035], [121.46590997897532, 31.210262448719448], [121.46598682433694, 31.21028410557994]]]}}, {"type": "Feature", "properties": {"bid": "505", "zone_id": "DRAFT_Z17", "heritage_proxy": true, "proxy_name": "Tianzifang conservative protection proxy", "evidence_class": "official_extent_plus_conservative_research_assumption", "official_extent": "E Sinan Rd; W Ruijin 2nd Rd; S Taikang Rd; N Jianguo Middle Rd", "source_document": "Huangpu Government Regulation [2023] No. 3", "review_status": "building_level_official_list_not_yet_matched"}, "geometry": {"type": "Polygon", "coordinates": [[[121.46622034848178, 31.21035713528311], [121.4662633221951, 31.210310103013278], [121.46620346668169, 31.210268829699082], [121.46617048773022, 31.21030408758464], [121.46616049403066, 31.210314862634615], [121.46622034848178, 31.21035713528311]]]}}, {"type": "Feature", "properties": {"bid": "512", "zone_id": "DRAFT_Z17", "heritage_proxy": true, "proxy_name": "Tianzifang conservative protection proxy", "evidence_class": "official_extent_plus_conservative_research_assumption", "official_extent": "E Sinan Rd; W Ruijin 2nd Rd; S Taikang Rd; N Jianguo Middle Rd", "source_document": "Huangpu Government Regulation [2023] No. 3", "review_status": "building_level_official_list_not_yet_matched"}, "geometry": {"type": "Polygon", "coordinates": [[[121.4659896046437, 31.210485737410103], [121.46636414759435, 31.21064517189814], [121.46640320006767, 31.210577400479185], [121.46602865739236, 31.21041796606388], [121.4659896046437, 31.210485737410103]]]}}, {"type": "Feature", "properties": {"bid": "531", "zone_id": "DRAFT_Z13", "heritage_proxy": true, "proxy_name": "Tianzifang conservative protection proxy", "evidence_class": "official_extent_plus_conservative_research_assumption", "official_extent": "E Sinan Rd; W Ruijin 2nd Rd; S Taikang Rd; N Jianguo Middle Rd", "source_document": "Huangpu Government Regulation [2023] No. 3", "review_status": "building_level_official_list_not_yet_matched"}, "geometry": {"type": "Polygon", "coordinates": [[[121.46496695364318, 31.20993616581939], [121.464913062685, 31.20992200449837], [121.46489402944712, 31.209987544958388], [121.46499981598343, 31.210014825010703], [121.46504488440519, 31.2098699062285], [121.46493909783952, 31.20984262596192], [121.46493108356549, 31.209870432288195], [121.46498397630491, 31.20988457197234], [121.46496695364318, 31.20993616581939]]]}}, {"type": "Feature", "properties": {"bid": "532", "zone_id": "DRAFT_Z13", "heritage_proxy": true, "proxy_name": "Tianzifang conservative protection proxy", "evidence_class": "official_extent_plus_conservative_research_assumption", "official_extent": "E Sinan Rd; W Ruijin 2nd Rd; S Taikang Rd; N Jianguo Middle Rd", "source_document": "Huangpu Government Regulation [2023] No. 3", "review_status": "building_level_official_list_not_yet_matched"}, "geometry": {"type": "Polygon", "coordinates": [[[121.46479619344132, 31.209995413620003], [121.46488301654415, 31.210019283412514], [121.46493108356549, 31.209870432288195], [121.46484226298206, 31.209847518213337], [121.46479619344132, 31.209995413620003]]]}}, {"type": "Feature", "properties": {"bid": "533", "zone_id": "DRAFT_Z13", "heritage_proxy": true, "proxy_name": "Tianzifang conservative protection proxy", "evidence_class": "official_extent_plus_conservative_research_assumption", "official_extent": "E Sinan Rd; W Ruijin 2nd Rd; S Taikang Rd; N Jianguo Middle Rd", "source_document": "Huangpu Government Regulation [2023] No. 3", "review_status": "building_level_official_list_not_yet_matched"}, "geometry": {"type": "Polygon", "coordinates": [[[121.46467647591578, 31.20992486253379], [121.4645896603115, 31.2098939989309], [121.46456864493437, 31.20994550655803], [121.46460257319166, 31.209957234995436], [121.46457755588939, 31.210017649498187], [121.46453265230843, 31.210000686521767], [121.4645186458589, 31.210031360995], [121.46462042864857, 31.2100685447686], [121.46467647591578, 31.20992486253379]]]}}, {"type": "Feature", "properties": {"bid": "534", "zone_id": "DRAFT_Z13", "heritage_proxy": true, "proxy_name": "Tianzifang conservative protection proxy", "evidence_class": "official_extent_plus_conservative_research_assumption", "official_extent": "E Sinan Rd; W Ruijin 2nd Rd; S Taikang Rd; N Jianguo Middle Rd", "source_document": "Huangpu Government Regulation [2023] No. 3", "review_status": "building_level_official_list_not_yet_matched"}, "geometry": {"type": "Polygon", "coordinates": [[[121.46538819993168, 31.209952314017876], [121.4651776285448, 31.2098927762579], [121.46513856157857, 31.210025833591597], [121.46535013215636, 31.210084393535166], [121.46538819993168, 31.209952314017876]]]}}, {"type": "Feature", "properties": {"bid": "535", "zone_id": "DRAFT_Z13", "heritage_proxy": true, "proxy_name": "Tianzifang conservative protection proxy", "evidence_class": "official_extent_plus_conservative_research_assumption", "official_extent": "E Sinan Rd; W Ruijin 2nd Rd; S Taikang Rd; N Jianguo Middle Rd", "source_document": "Huangpu Government Regulation [2023] No. 3", "review_status": "building_level_official_list_not_yet_matched"}, "geometry": {"type": "Polygon", "coordinates": [[[121.46461144468016, 31.21006834982535], [121.46451065911026, 31.210032187048398], [121.46455969751958, 31.209909337648075], [121.46450880265571, 31.209894243378933], [121.46447768556153, 31.210063449458808], [121.46459443146603, 31.21011095060298], [121.46461144468016, 31.21006834982535]]]}}, {"type": "Feature", "properties": {"bid": "536", "zone_id": "DRAFT_Z17", "heritage_proxy": true, "proxy_name": "Tianzifang conservative protection proxy", "evidence_class": "official_extent_plus_conservative_research_assumption", "official_extent": "E Sinan Rd; W Ruijin 2nd Rd; S Taikang Rd; N Jianguo Middle Rd", "source_document": "Huangpu Government Regulation [2023] No. 3", "review_status": "building_level_official_list_not_yet_matched"}, "geometry": {"type": "Polygon", "coordinates": [[[121.4657593391762, 31.21016423977982], [121.46567850348981, 31.210140497631983], [121.46565548222827, 31.21020095448789], [121.46573731613171, 31.210224718328732], [121.4657593391762, 31.21016423977982]]]}}, {"type": "Feature", "properties": {"bid": "537", "zone_id": "DRAFT_Z13", "heritage_proxy": true, "proxy_name": "Tianzifang conservative protection proxy", "evidence_class": "official_extent_plus_conservative_research_assumption", "official_extent": "E Sinan Rd; W Ruijin 2nd Rd; S Taikang Rd; N Jianguo Middle Rd", "source_document": "Huangpu Government Regulation [2023] No. 3", "review_status": "building_level_official_list_not_yet_matched"}, "geometry": {"type": "Polygon", "coordinates": [[[121.4649308543643, 31.210096269131835], [121.46476320348403, 31.21004266383972], [121.46469010202907, 31.210269917045313], [121.46485775190523, 31.21032452097876], [121.4649308543643, 31.210096269131835]]]}}, {"type": "Feature", "properties": {"bid": "538", "zone_id": "DRAFT_Z13", "heritage_proxy": true, "proxy_name": "Tianzifang conservative protection proxy", "evidence_class": "official_extent_plus_conservative_research_assumption", "official_extent": "E Sinan Rd; W Ruijin 2nd Rd; S Taikang Rd; N Jianguo Middle Rd", "source_document": "Huangpu Government Regulation [2023] No. 3", "review_status": "building_level_official_list_not_yet_matched"}, "geometry": {"type": "Polygon", "coordinates": [[[121.46530308978936, 31.21020728443847], [121.46507754311165, 31.210149420479688], [121.46503448712214, 31.210279393627847], [121.46526103194378, 31.210337278944852], [121.46530308978936, 31.21020728443847]]]}}, {"type": "Feature", "properties": {"bid": "539", "zone_id": "DRAFT_Z13", "heritage_proxy": true, "proxy_name": "Tianzifang conservative protection proxy", "evidence_class": "official_extent_plus_conservative_research_assumption", "official_extent": "E Sinan Rd; W Ruijin 2nd Rd; S Taikang Rd; N Jianguo Middle Rd", "source_document": "Huangpu Government Regulation [2023] No. 3", "review_status": "building_level_official_list_not_yet_matched"}, "geometry": {"type": "Polygon", "coordinates": [[[121.4646700762072, 31.210330439843283], [121.46483872430976, 31.210385065267978], [121.46485775190523, 31.21032452097876], [121.46469010202907, 31.210269917045313], [121.4646700762072, 31.210330439843283]]]}}, {"type": "Feature", "properties": {"bid": "540", "zone_id": "DRAFT_Z13", "heritage_proxy": true, "proxy_name": "Tianzifang conservative protection proxy", "evidence_class": "official_extent_plus_conservative_research_assumption", "official_extent": "E Sinan Rd; W Ruijin 2nd Rd; S Taikang Rd; N Jianguo Middle Rd", "source_document": "Huangpu Government Regulation [2023] No. 3", "review_status": "building_level_official_list_not_yet_matched"}, "geometry": {"type": "Polygon", "coordinates": [[[121.46497144996762, 31.210425921113305], [121.46490458395658, 31.210409479356187], [121.46487854782994, 31.21049085680232], [121.464945414833, 31.21050629919505], [121.46497144996762, 31.210425921113305]]]}}, {"type": "Feature", "properties": {"bid": "543", "zone_id": "DRAFT_Z13", "heritage_proxy": true, "proxy_name": "Tianzifang conservative protection proxy", "evidence_class": "official_extent_plus_conservative_research_assumption", "official_extent": "E Sinan Rd; W Ruijin 2nd Rd; S Taikang Rd; N Jianguo Middle Rd", "source_document": "Huangpu Government Regulation [2023] No. 3", "review_status": "building_level_official_list_not_yet_matched"}, "geometry": {"type": "Polygon", "coordinates": [[[121.46384569193663, 31.210173672820645], [121.46371895481785, 31.21013595679176], [121.4636879074692, 31.210237214464765], [121.46381364643015, 31.210274908482113], [121.46384569193663, 31.210173672820645]]]}}, {"type": "Feature", "properties": {"bid": "544", "zone_id": "DRAFT_Z13", "heritage_proxy": true, "proxy_name": "Tianzifang conservative protection proxy", "evidence_class": "official_extent_plus_conservative_research_assumption", "official_extent": "E Sinan Rd; W Ruijin 2nd Rd; S Taikang Rd; N Jianguo Middle Rd", "source_document": "Huangpu Government Regulation [2023] No. 3", "review_status": "building_level_official_list_not_yet_matched"}, "geometry": {"type": "Polygon", "coordinates": [[[121.46429679961761, 31.210266382861168], [121.46451535338043, 31.21032608346081], [121.4645443943524, 31.21023477766733], [121.46421011150665, 31.210109612555122], [121.46418107346325, 31.21019792123439], [121.46430680291712, 31.210245614343933], [121.46429679961761, 31.210266382861168]]]}}, {"type": "Feature", "properties": {"bid": "546", "zone_id": "DRAFT_Z12", "heritage_proxy": true, "proxy_name": "Tianzifang conservative protection proxy", "evidence_class": "official_extent_plus_conservative_research_assumption", "official_extent": "E Sinan Rd; W Ruijin 2nd Rd; S Taikang Rd; N Jianguo Middle Rd", "source_document": "Huangpu Government Regulation [2023] No. 3", "review_status": "building_level_official_list_not_yet_matched"}, "geometry": {"type": "Polygon", "coordinates": [[[121.46396939526493, 31.210250297719256], [121.46388856347755, 31.210225564627585], [121.46382748461065, 31.21041111289071], [121.4639083164509, 31.21043584548483], [121.46396939526493, 31.210250297719256]]]}}, {"type": "Feature", "properties": {"bid": "547", "zone_id": "DRAFT_Z13", "heritage_proxy": true, "proxy_name": "Tianzifang conservative protection proxy", "evidence_class": "official_extent_plus_conservative_research_assumption", "official_extent": "E Sinan Rd; W Ruijin 2nd Rd; S Taikang Rd; N Jianguo Middle Rd", "source_document": "Huangpu Government Regulation [2023] No. 3", "review_status": "building_level_official_list_not_yet_matched"}, "geometry": {"type": "Polygon", "coordinates": [[[121.46372065324785, 31.210431786894727], [121.46370268952103, 31.21042740139087], [121.46374071986645, 31.210330291821425], [121.46369381415549, 31.210319284885596], [121.46368279767375, 31.210355021674275], [121.4636418802121, 31.210345143745947], [121.46365489411959, 31.210308450765012], [121.46360998485079, 31.210297487437845], [121.46357092715131, 31.210423555173286], [121.4637096418694, 31.210462527268756], [121.46372065324785, 31.210431786894727]]]}}, {"type": "Feature", "properties": {"bid": "548", "zone_id": "DRAFT_Z13", "heritage_proxy": true, "proxy_name": "Tianzifang conservative protection proxy", "evidence_class": "official_extent_plus_conservative_research_assumption", "official_extent": "E Sinan Rd; W Ruijin 2nd Rd; S Taikang Rd; N Jianguo Middle Rd", "source_document": "Huangpu Government Regulation [2023] No. 3", "review_status": "building_level_official_list_not_yet_matched"}, "geometry": {"type": "Polygon", "coordinates": [[[121.46413804856229, 31.210297918695577], [121.46408416226664, 31.210279763509227], [121.46402107003121, 31.21048225516198], [121.4640689721125, 31.210495283942745], [121.46413804856229, 31.210297918695577]]]}}, {"type": "Feature", "properties": {"bid": "549", "zone_id": "DRAFT_Z13", "heritage_proxy": true, "proxy_name": "Tianzifang conservative protection proxy", "evidence_class": "official_extent_plus_conservative_research_assumption", "official_extent": "E Sinan Rd; W Ruijin 2nd Rd; S Taikang Rd; N Jianguo Middle Rd", "source_document": "Huangpu Government Regulation [2023] No. 3", "review_status": "building_level_official_list_not_yet_matched"}, "geometry": {"type": "Polygon", "coordinates": [[[121.46450299510738, 31.210405968112486], [121.46444079614712, 31.210365836159834], [121.46439410317737, 31.210419295326584], [121.46445630216694, 31.210459427299213], [121.46450299510738, 31.210405968112486]]]}}, {"type": "Feature", "properties": {"bid": "561", "zone_id": "DRAFT_Z13", "heritage_proxy": true, "proxy_name": "Tianzifang conservative protection proxy", "evidence_class": "official_extent_plus_conservative_research_assumption", "official_extent": "E Sinan Rd; W Ruijin 2nd Rd; S Taikang Rd; N Jianguo Middle Rd", "source_document": "Huangpu Government Regulation [2023] No. 3", "review_status": "building_level_official_list_not_yet_matched"}, "geometry": {"type": "Polygon", "coordinates": [[[121.46445531973906, 31.210464683723842], [121.46424177413839, 31.210388104518472], [121.46421673450756, 31.210471503386877], [121.46443627847418, 31.210539218532006], [121.46445531973906, 31.210464683723842]]]}}, {"type": "Feature", "properties": {"bid": "562", "zone_id": "DRAFT_Z12", "heritage_proxy": true, "proxy_name": "Tianzifang conservative protection proxy", "evidence_class": "official_extent_plus_conservative_research_assumption", "official_extent": "E Sinan Rd; W Ruijin 2nd Rd; S Taikang Rd; N Jianguo Middle Rd", "source_document": "Huangpu Government Regulation [2023] No. 3", "review_status": "building_level_official_list_not_yet_matched"}, "geometry": {"type": "Polygon", "coordinates": [[[121.46371459682882, 31.21049860928803], [121.46367567674815, 31.210487775059107], [121.46366766804749, 31.210510585962645], [121.46359381973798, 31.210490003652012], [121.46360282765488, 31.21046621496225], [121.46356390860683, 31.210454381978753], [121.46355189103473, 31.210493095261814], [121.46356785833937, 31.210497437321514], [121.46356185006893, 31.210516294321398], [121.46354488455597, 31.210511930716624], [121.46353487245644, 31.21054169361548], [121.46368057069957, 31.210584813271055], [121.46371459682882, 31.21049860928803]]]}}, {"type": "Feature", "properties": {"bid": "563", "zone_id": "DRAFT_Z12", "heritage_proxy": true, "proxy_name": "Tianzifang conservative protection proxy", "evidence_class": "official_extent_plus_conservative_research_assumption", "official_extent": "E Sinan Rd; W Ruijin 2nd Rd; S Taikang Rd; N Jianguo Middle Rd", "source_document": "Huangpu Government Regulation [2023] No. 3", "review_status": "building_level_official_list_not_yet_matched"}, "geometry": {"type": "Polygon", "coordinates": [[[121.46368465660863, 31.210491966341817], [121.46360581024862, 31.210478271031832], [121.4635887646275, 31.210553849880046], [121.46366861020853, 31.210566567323895], [121.46368465660863, 31.210491966341817]]]}}, {"type": "Feature", "properties": {"bid": "564", "zone_id": "DRAFT_Z12", "heritage_proxy": true, "proxy_name": "Tianzifang conservative protection proxy", "evidence_class": "official_extent_plus_conservative_research_assumption", "official_extent": "E Sinan Rd; W Ruijin 2nd Rd; S Taikang Rd; N Jianguo Middle Rd", "source_document": "Huangpu Government Regulation [2023] No. 3", "review_status": "building_level_official_list_not_yet_matched"}, "geometry": {"type": "Polygon", "coordinates": [[[121.463918217347, 31.21051700327678], [121.46373656842333, 31.2104880919112], [121.46372152221717, 31.210560715807105], [121.46390317315992, 31.21058762831825], [121.463918217347, 31.21051700327678]]]}}, {"type": "Feature", "properties": {"bid": "565", "zone_id": "DRAFT_Z12", "heritage_proxy": true, "proxy_name": "Tianzifang conservative protection proxy", "evidence_class": "official_extent_plus_conservative_research_assumption", "official_extent": "E Sinan Rd; W Ruijin 2nd Rd; S Taikang Rd; N Jianguo Middle Rd", "source_document": "Huangpu Government Regulation [2023] No. 3", "review_status": "building_level_official_list_not_yet_matched"}, "geometry": {"type": "Polygon", "coordinates": [[[121.46386123538491, 31.210599711967006], [121.46384526804263, 31.210595369355925], [121.46385327270958, 31.21057655573042], [121.4638682418424, 31.210580876760734], [121.4638842532039, 31.210541250998862], [121.46384433485865, 31.210530394427742], [121.4638353279604, 31.210553183592587], [121.4637644751815, 31.210531665297708], [121.46377348208556, 31.21050887606481], [121.46373356378024, 31.210498019989707], [121.4637195508176, 31.210535690601212], [121.46373352172431, 31.210539989825975], [121.46372651525724, 31.21055882513315], [121.46371154614157, 31.210554504342497], [121.463700536852, 31.21058324618963], [121.46385022711024, 31.210627454354025], [121.46386123538491, 31.210599711967006]]]}}, {"type": "Feature", "properties": {"bid": "566", "zone_id": "DRAFT_Z13", "heritage_proxy": true, "proxy_name": "Tianzifang conservative protection proxy", "evidence_class": "official_extent_plus_conservative_research_assumption", "official_extent": "E Sinan Rd; W Ruijin 2nd Rd; S Taikang Rd; N Jianguo Middle Rd", "source_document": "Huangpu Government Regulation [2023] No. 3", "review_status": "building_level_official_list_not_yet_matched"}, "geometry": {"type": "Polygon", "coordinates": [[[121.46444224374329, 31.2105633311831], [121.46416082760403, 31.210477287288768], [121.46411380851634, 31.210579197107844], [121.46439422545268, 31.210666217551708], [121.46444224374329, 31.2105633311831]]]}}, {"type": "Feature", "properties": {"bid": "567", "zone_id": "DRAFT_Z12", "heritage_proxy": true, "proxy_name": "Tianzifang conservative protection proxy", "evidence_class": "official_extent_plus_conservative_research_assumption", "official_extent": "E Sinan Rd; W Ruijin 2nd Rd; S Taikang Rd; N Jianguo Middle Rd", "source_document": "Huangpu Government Regulation [2023] No. 3", "review_status": "building_level_official_list_not_yet_matched"}, "geometry": {"type": "Polygon", "coordinates": [[[121.46393009083056, 31.210622187103404], [121.46391611889658, 31.210618886854437], [121.46392412755733, 31.210596076157678], [121.46393809749169, 31.210601374982495], [121.46395610226377, 31.21056479038724], [121.46388924024575, 31.210545356107787], [121.4638582087854, 31.210631624225975], [121.46391708414775, 31.210651884779388], [121.46393009083056, 31.210622187103404]]]}}, {"type": "Feature", "properties": {"bid": "569", "zone_id": "DRAFT_Z13", "heritage_proxy": true, "proxy_name": "Tianzifang conservative protection proxy", "evidence_class": "official_extent_plus_conservative_research_assumption", "official_extent": "E Sinan Rd; W Ruijin 2nd Rd; S Taikang Rd; N Jianguo Middle Rd", "source_document": "Huangpu Government Regulation [2023] No. 3", "review_status": "building_level_official_list_not_yet_matched"}, "geometry": {"type": "Polygon", "coordinates": [[[121.46428939299564, 31.210683931052927], [121.46436623751926, 31.210703584303356], [121.46440729419395, 31.21057456494708], [121.46410989576009, 31.210499168079995], [121.46407087643911, 31.21058726110925], [121.46429839987422, 31.21066114226874], [121.46428939299564, 31.210683931052927]]]}}, {"type": "Feature", "properties": {"bid": "573", "zone_id": "DRAFT_Z13", "heritage_proxy": true, "proxy_name": "Tianzifang conservative protection proxy", "evidence_class": "official_extent_plus_conservative_research_assumption", "official_extent": "E Sinan Rd; W Ruijin 2nd Rd; S Taikang Rd; N Jianguo Middle Rd", "source_document": "Huangpu Government Regulation [2023] No. 3", "review_status": "building_level_official_list_not_yet_matched"}, "geometry": {"type": "Polygon", "coordinates": [[[121.46522694032377, 31.210487432791183], [121.4650463079264, 31.21043654088715], [121.46501325211568, 31.210549743390683], [121.46519288525872, 31.21060161267218], [121.46522694032377, 31.210487432791183]]]}}, {"type": "Feature", "properties": {"bid": "574", "zone_id": "DRAFT_Z13", "heritage_proxy": true, "proxy_name": "Tianzifang conservative protection proxy", "evidence_class": "official_extent_plus_conservative_research_assumption", "official_extent": "E Sinan Rd; W Ruijin 2nd Rd; S Taikang Rd; N Jianguo Middle Rd", "source_document": "Huangpu Government Regulation [2023] No. 3", "review_status": "building_level_official_list_not_yet_matched"}, "geometry": {"type": "Polygon", "coordinates": [[[121.46488744669568, 31.2105759908415], [121.46460405710855, 31.21046491235928], [121.46455500821186, 31.21059975344616], [121.46483640041879, 31.210711787084392], [121.46488744669568, 31.2105759908415]]]}}, {"type": "Feature", "properties": {"bid": "575", "zone_id": "DRAFT_Z13", "heritage_proxy": true, "proxy_name": "Tianzifang conservative protection proxy", "evidence_class": "official_extent_plus_conservative_research_assumption", "official_extent": "E Sinan Rd; W Ruijin 2nd Rd; S Taikang Rd; N Jianguo Middle Rd", "source_document": "Huangpu Government Regulation [2023] No. 3", "review_status": "building_level_official_list_not_yet_matched"}, "geometry": {"type": "Polygon", "coordinates": [[[121.46559806333573, 31.21071634577572], [121.4656340779858, 31.210639183021897], [121.46559815524586, 31.210624411779346], [121.46557715617757, 31.210659930201864], [121.46551728572537, 31.21063464534535], [121.46552328716417, 31.210622784162528], [121.46548836278612, 31.2106080346951], [121.46542738930634, 31.210687652910053], [121.46549922154054, 31.210730185871913], [121.46552322320622, 31.210686738240838], [121.46559806333573, 31.21071634577572]]]}}, {"type": "Feature", "properties": {"bid": "576", "zone_id": "DRAFT_Z13", "heritage_proxy": true, "proxy_name": "Tianzifang conservative protection proxy", "evidence_class": "official_extent_plus_conservative_research_assumption", "official_extent": "E Sinan Rd; W Ruijin 2nd Rd; S Taikang Rd; N Jianguo Middle Rd", "source_document": "Huangpu Government Regulation [2023] No. 3", "review_status": "building_level_official_list_not_yet_matched"}, "geometry": {"type": "Polygon", "coordinates": [[[121.46485732122721, 31.210754212147314], [121.46446715013214, 31.210612837225767], [121.46442316870277, 31.210671841671513], [121.46485225643187, 31.21082805075184], [121.46485732122721, 31.210754212147314]]]}}, {"type": "Feature", "properties": {"bid": "577", "zone_id": "DRAFT_Z13", "heritage_proxy": true, "proxy_name": "Tianzifang conservative protection proxy", "evidence_class": "official_extent_plus_conservative_research_assumption", "official_extent": "E Sinan Rd; W Ruijin 2nd Rd; S Taikang Rd; N Jianguo Middle Rd", "source_document": "Huangpu Government Regulation [2023] No. 3", "review_status": "building_level_official_list_not_yet_matched"}, "geometry": {"type": "Polygon", "coordinates": [[[121.46501902172189, 31.210769715661844], [121.46510983456164, 31.210797670443302], [121.46509383602711, 31.21082430410104], [121.46522457334036, 31.210858123268626], [121.46525658742702, 31.210787868300716], [121.46497717100385, 31.210693858753935], [121.46492916944703, 31.210779755720417], [121.4650050176666, 31.210798391313745], [121.46501902172189, 31.210769715661844]]]}}, {"type": "Feature", "properties": {"bid": "578", "zone_id": "DRAFT_Z13", "heritage_proxy": true, "proxy_name": "Tianzifang conservative protection proxy", "evidence_class": "official_extent_plus_conservative_research_assumption", "official_extent": "E Sinan Rd; W Ruijin 2nd Rd; S Taikang Rd; N Jianguo Middle Rd", "source_document": "Huangpu Government Regulation [2023] No. 3", "review_status": "building_level_official_list_not_yet_matched"}, "geometry": {"type": "Polygon", "coordinates": [[[121.46568682525968, 31.210800218552713], [121.46569582440804, 31.2107854246334], [121.46586047257905, 31.210851960703568], [121.46584447869283, 31.210873597673466], [121.46592131223646, 31.210907246029414], [121.46592434377396, 31.210870337634095], [121.46599421956067, 31.210873855531013], [121.46599018876852, 31.210911741507008], [121.4660131526174, 31.210908243574927], [121.46601114021064, 31.21092418871348], [121.46606005279898, 31.210927250794892], [121.46606307141555, 31.210903333086375], [121.46607804528378, 31.210903658647617], [121.46608309425552, 31.210845808700014], [121.46600324465125, 31.210833080236977], [121.46600625236056, 31.2108201546638], [121.46593536833689, 31.210826607901026], [121.46585854079616, 31.210786963862226], [121.46581461880294, 31.210785009574632], [121.46579865579155, 31.210775668752827], [121.46581964693361, 31.210748144618943], [121.46576975945493, 31.210722077322544], [121.46576076624787, 31.210730875530775], [121.46574280378844, 31.210724489158792], [121.46574980349214, 31.210712649692823], [121.46572385906495, 31.210702092560776], [121.46570686892336, 31.210721709253225], [121.46566096962317, 31.21070072523815], [121.46564197305055, 31.21073029136693], [121.46561303198267, 31.21072166772541], [121.46558803403833, 31.210763095057697], [121.46568682525968, 31.210800218552713]]]}}, {"type": "Feature", "properties": {"bid": "579", "zone_id": "DRAFT_Z13", "heritage_proxy": true, "proxy_name": "Tianzifang conservative protection proxy", "evidence_class": "official_extent_plus_conservative_research_assumption", "official_extent": "E Sinan Rd; W Ruijin 2nd Rd; S Taikang Rd; N Jianguo Middle Rd", "source_document": "Huangpu Government Regulation [2023] No. 3", "review_status": "building_level_official_list_not_yet_matched"}, "geometry": {"type": "Polygon", "coordinates": [[[121.46567482839885, 31.21081794521536], [121.46574468071175, 31.210844446567762], [121.46576567774412, 31.210810926711368], [121.46569582440804, 31.2107854246334], [121.46567482839885, 31.21081794521536]]]}}, {"type": "Feature", "properties": {"bid": "580", "zone_id": "DRAFT_Z13", "heritage_proxy": true, "proxy_name": "Tianzifang conservative protection proxy", "evidence_class": "official_extent_plus_conservative_research_assumption", "official_extent": "E Sinan Rd; W Ruijin 2nd Rd; S Taikang Rd; N Jianguo Middle Rd", "source_document": "Huangpu Government Regulation [2023] No. 3", "review_status": "building_level_official_list_not_yet_matched"}, "geometry": {"type": "Polygon", "coordinates": [[[121.46477037038098, 31.210858250666945], [121.46447898900989, 31.210752996623057], [121.46441597507487, 31.210878541831622], [121.4647083536522, 31.210984815632564], [121.46477037038098, 31.210858250666945]]]}}, {"type": "Feature", "properties": {"bid": "581", "zone_id": "DRAFT_Z13", "heritage_proxy": true, "proxy_name": "Tianzifang conservative protection proxy", "evidence_class": "official_extent_plus_conservative_research_assumption", "official_extent": "E Sinan Rd; W Ruijin 2nd Rd; S Taikang Rd; N Jianguo Middle Rd", "source_document": "Huangpu Government Regulation [2023] No. 3", "review_status": "building_level_official_list_not_yet_matched"}, "geometry": {"type": "Polygon", "coordinates": [[[121.46561303198267, 31.21072166772541], [121.46557410852552, 31.21071282707856], [121.46554101813446, 31.210861004153454], [121.46557988792507, 31.21092380613044], [121.46568662852042, 31.210998076815823], [121.46580437804732, 31.211044606434026], [121.46584336525937, 31.21098949295458], [121.46568869147804, 31.210931168153245], [121.46574468071175, 31.210844446567762], [121.46567482839885, 31.21081794521536], [121.46568682525968, 31.210800218552713], [121.46558803403833, 31.210763095057697], [121.46561303198267, 31.21072166772541]]]}}, {"type": "Feature", "properties": {"bid": "582", "zone_id": "DRAFT_Z13", "heritage_proxy": true, "proxy_name": "Tianzifang conservative protection proxy", "evidence_class": "official_extent_plus_conservative_research_assumption", "official_extent": "E Sinan Rd; W Ruijin 2nd Rd; S Taikang Rd; N Jianguo Middle Rd", "source_document": "Huangpu Government Regulation [2023] No. 3", "review_status": "building_level_official_list_not_yet_matched"}, "geometry": {"type": "Polygon", "coordinates": [[[121.46599421956067, 31.210873855531013], [121.46592434377396, 31.210870337634095], [121.46592131223646, 31.210907246029414], [121.46599018876852, 31.210911741507008], [121.46599421956067, 31.210873855531013]]]}}, {"type": "Feature", "properties": {"bid": "583", "zone_id": "DRAFT_Z12", "heritage_proxy": true, "proxy_name": "Tianzifang conservative protection proxy", "evidence_class": "official_extent_plus_conservative_research_assumption", "official_extent": "E Sinan Rd; W Ruijin 2nd Rd; S Taikang Rd; N Jianguo Middle Rd", "source_document": "Huangpu Government Regulation [2023] No. 3", "review_status": "building_level_official_list_not_yet_matched"}, "geometry": {"type": "Polygon", "coordinates": [[[121.46401089290885, 31.210676899092505], [121.46359873369522, 31.210567056172692], [121.46355068894356, 31.21069692730781], [121.46396185110599, 31.210805747196613], [121.46401089290885, 31.210676899092505]]]}}, {"type": "Feature", "properties": {"bid": "584", "zone_id": "DRAFT_Z12", "heritage_proxy": true, "proxy_name": "Tianzifang conservative protection proxy", "evidence_class": "official_extent_plus_conservative_research_assumption", "official_extent": "E Sinan Rd; W Ruijin 2nd Rd; S Taikang Rd; N Jianguo Middle Rd", "source_document": "Huangpu Government Regulation [2023] No. 3", "review_status": "building_level_official_list_not_yet_matched"}, "geometry": {"type": "Polygon", "coordinates": [[[121.4643462622605, 31.210714143600967], [121.46430534745367, 31.210701265036224], [121.46429534138566, 31.21072503146899], [121.46412170528424, 31.210668306205378], [121.46413171036124, 31.210645538907833], [121.46409179389468, 31.21063268275503], [121.4640357534812, 31.210772371255988], [121.46428724119562, 31.210839775995055], [121.4643462622605, 31.210714143600967]]]}}, {"type": "Feature", "properties": {"bid": "586", "zone_id": "DRAFT_Z12", "heritage_proxy": true, "proxy_name": "Tianzifang conservative protection proxy", "evidence_class": "official_extent_plus_conservative_research_assumption", "official_extent": "E Sinan Rd; W Ruijin 2nd Rd; S Taikang Rd; N Jianguo Middle Rd", "source_document": "Huangpu Government Regulation [2023] No. 3", "review_status": "building_level_official_list_not_yet_matched"}, "geometry": {"type": "Polygon", "coordinates": [[[121.46432129195284, 31.210728591874613], [121.46408876032194, 31.210671589928552], [121.46405071369885, 31.21078568612842], [121.46428324535964, 31.21084268730783], [121.46432129195284, 31.210728591874613]]]}}, {"type": "Feature", "properties": {"bid": "587", "zone_id": "DRAFT_Z12", "heritage_proxy": true, "proxy_name": "Tianzifang conservative protection proxy", "evidence_class": "official_extent_plus_conservative_research_assumption", "official_extent": "E Sinan Rd; W Ruijin 2nd Rd; S Taikang Rd; N Jianguo Middle Rd", "source_document": "Huangpu Government Regulation [2023] No. 3", "review_status": "building_level_official_list_not_yet_matched"}, "geometry": {"type": "Polygon", "coordinates": [[[121.46401569579723, 31.210865871725222], [121.46369835288829, 31.21077106822702], [121.46367033345906, 31.210840414037534], [121.46398667724112, 31.210936194282617], [121.46401569579723, 31.210865871725222]]]}}, {"type": "Feature", "properties": {"bid": "588", "zone_id": "DRAFT_Z12", "heritage_proxy": true, "proxy_name": "Tianzifang conservative protection proxy", "evidence_class": "official_extent_plus_conservative_research_assumption", "official_extent": "E Sinan Rd; W Ruijin 2nd Rd; S Taikang Rd; N Jianguo Middle Rd", "source_document": "Huangpu Government Regulation [2023] No. 3", "review_status": "building_level_official_list_not_yet_matched"}, "geometry": {"type": "Polygon", "coordinates": [[[121.46393868689574, 31.211012102220305], [121.4636143881644, 31.210885173278655], [121.46362939006758, 31.21085651752429], [121.46345676489068, 31.210787834846936], [121.46339476581488, 31.210897419831955], [121.46389168900022, 31.211094027752665], [121.46393868689574, 31.211012102220305]]]}}, {"type": "Feature", "properties": {"bid": "589", "zone_id": "DRAFT_Z12", "heritage_proxy": true, "proxy_name": "Tianzifang conservative protection proxy", "evidence_class": "official_extent_plus_conservative_research_assumption", "official_extent": "E Sinan Rd; W Ruijin 2nd Rd; S Taikang Rd; N Jianguo Middle Rd", "source_document": "Huangpu Government Regulation [2023] No. 3", "review_status": "building_level_official_list_not_yet_matched"}, "geometry": {"type": "Polygon", "coordinates": [[[121.46425820165439, 31.210931082771033], [121.46410851846885, 31.210878873976583], [121.46408048027297, 31.210967205016512], [121.46422916628877, 31.211018392539522], [121.46425820165439, 31.210931082771033]]]}}, {"type": "Feature", "properties": {"bid": "590", "zone_id": "DRAFT_Z12", "heritage_proxy": true, "proxy_name": "Tianzifang conservative protection proxy", "evidence_class": "official_extent_plus_conservative_research_assumption", "official_extent": "E Sinan Rd; W Ruijin 2nd Rd; S Taikang Rd; N Jianguo Middle Rd", "source_document": "Huangpu Government Regulation [2023] No. 3", "review_status": "building_level_official_list_not_yet_matched"}, "geometry": {"type": "Polygon", "coordinates": [[[121.46421816022519, 31.2110441360345], [121.46407146963008, 31.2109939911706], [121.46405444858874, 31.211045586560765], [121.4642011411894, 31.21109373263585], [121.46421816022519, 31.2110441360345]]]}}, {"type": "Feature", "properties": {"bid": "591", "zone_id": "DRAFT_Z12", "heritage_proxy": true, "proxy_name": "Tianzifang conservative protection proxy", "evidence_class": "official_extent_plus_conservative_research_assumption", "official_extent": "E Sinan Rd; W Ruijin 2nd Rd; S Taikang Rd; N Jianguo Middle Rd", "source_document": "Huangpu Government Regulation [2023] No. 3", "review_status": "building_level_official_list_not_yet_matched"}, "geometry": {"type": "Polygon", "coordinates": [[[121.46398560077147, 31.211015116188783], [121.46394656089139, 31.211125194315677], [121.46398846892521, 31.211143089580332], [121.46403250576327, 31.211027123949798], [121.46398560077147, 31.211015116188783]]]}}, {"type": "Feature", "properties": {"bid": "592", "zone_id": "DRAFT_Z13", "heritage_proxy": true, "proxy_name": "Tianzifang conservative protection proxy", "evidence_class": "official_extent_plus_conservative_research_assumption", "official_extent": "E Sinan Rd; W Ruijin 2nd Rd; S Taikang Rd; N Jianguo Middle Rd", "source_document": "Huangpu Government Regulation [2023] No. 3", "review_status": "building_level_official_list_not_yet_matched"}, "geometry": {"type": "Polygon", "coordinates": [[[121.46586047257905, 31.210851960703568], [121.46576567774412, 31.210810926711368], [121.46568869147804, 31.210931168153245], [121.46599803793173, 31.21104981643038], [121.46612101516372, 31.21085962413275], [121.46608309425552, 31.210845808700014], [121.46607804528378, 31.210903658647617], [121.46606307141555, 31.210903333086375], [121.46606005279898, 31.210927250794892], [121.46601114021064, 31.21092418871348], [121.4660131526174, 31.210908243574927], [121.46592131223646, 31.210907246029414], [121.46584447869283, 31.210873597673466], [121.46586047257905, 31.210851960703568]]]}}, {"type": "Feature", "properties": {"bid": "593", "zone_id": "DRAFT_Z13", "heritage_proxy": true, "proxy_name": "Tianzifang conservative protection proxy", "evidence_class": "official_extent_plus_conservative_research_assumption", "official_extent": "E Sinan Rd; W Ruijin 2nd Rd; S Taikang Rd; N Jianguo Middle Rd", "source_document": "Huangpu Government Regulation [2023] No. 3", "review_status": "building_level_official_list_not_yet_matched"}, "geometry": {"type": "Polygon", "coordinates": [[[121.46517357912423, 31.210941956166725], [121.46493608934895, 31.210847858766666], [121.46487707694884, 31.210964495308474], [121.46511456566397, 31.211059591410837], [121.46517357912423, 31.210941956166725]]]}}, {"type": "Feature", "properties": {"bid": "594", "zone_id": "DRAFT_Z13", "heritage_proxy": true, "proxy_name": "Tianzifang conservative protection proxy", "evidence_class": "official_extent_plus_conservative_research_assumption", "official_extent": "E Sinan Rd; W Ruijin 2nd Rd; S Taikang Rd; N Jianguo Middle Rd", "source_document": "Huangpu Government Regulation [2023] No. 3", "review_status": "building_level_official_list_not_yet_matched"}, "geometry": {"type": "Polygon", "coordinates": [[[121.46485491234823, 31.211076727699115], [121.46488325470044, 31.211005130069825], [121.46482077721444, 31.210986860275703], [121.46479243481123, 31.211058457900034], [121.46485491234823, 31.211076727699115]]]}}, {"type": "Feature", "properties": {"bid": "595", "zone_id": "DRAFT_Z13", "heritage_proxy": true, "proxy_name": "Tianzifang conservative protection proxy", "evidence_class": "official_extent_plus_conservative_research_assumption", "official_extent": "E Sinan Rd; W Ruijin 2nd Rd; S Taikang Rd; N Jianguo Middle Rd", "source_document": "Huangpu Government Regulation [2023] No. 3", "review_status": "building_level_official_list_not_yet_matched"}, "geometry": {"type": "Polygon", "coordinates": [[[121.46525333853731, 31.211043620012273], [121.46518049833038, 31.211011058651028], [121.46514249432596, 31.211082182972905], [121.46521633373686, 31.21111376665203], [121.46525333853731, 31.211043620012273]]]}}, {"type": "Feature", "properties": {"bid": "596", "zone_id": "DRAFT_Z13", "heritage_proxy": true, "proxy_name": "Tianzifang conservative protection proxy", "evidence_class": "official_extent_plus_conservative_research_assumption", "official_extent": "E Sinan Rd; W Ruijin 2nd Rd; S Taikang Rd; N Jianguo Middle Rd", "source_document": "Huangpu Government Regulation [2023] No. 3", "review_status": "building_level_official_list_not_yet_matched"}, "geometry": {"type": "Polygon", "coordinates": [[[121.46511249803666, 31.21113149660147], [121.46488699281008, 31.211031664170594], [121.46482298989247, 31.21114819265739], [121.4650484960564, 31.211247025160954], [121.46511249803666, 31.21113149660147]]]}}, {"type": "Feature", "properties": {"bid": "597", "zone_id": "DRAFT_Z13", "heritage_proxy": true, "proxy_name": "Tianzifang conservative protection proxy", "evidence_class": "official_extent_plus_conservative_research_assumption", "official_extent": "E Sinan Rd; W Ruijin 2nd Rd; S Taikang Rd; N Jianguo Middle Rd", "source_document": "Huangpu Government Regulation [2023] No. 3", "review_status": "building_level_official_list_not_yet_matched"}, "geometry": {"type": "Polygon", "coordinates": [[[121.4647914539454, 31.211227831838883], [121.46479632262029, 31.2111807498305], [121.4647524988749, 31.211177402201134], [121.4647476301769, 31.211224484212604], [121.4647914539454, 31.211227831838883]]]}}, {"type": "Feature", "properties": {"bid": "598", "zone_id": "DRAFT_Z13", "heritage_proxy": true, "proxy_name": "Tianzifang conservative protection proxy", "evidence_class": "official_extent_plus_conservative_research_assumption", "official_extent": "E Sinan Rd; W Ruijin 2nd Rd; S Taikang Rd; N Jianguo Middle Rd", "source_document": "Huangpu Government Regulation [2023] No. 3", "review_status": "building_level_official_list_not_yet_matched"}, "geometry": {"type": "Polygon", "coordinates": [[[121.46576336283827, 31.21113165367796], [121.4657203632155, 31.211206666145987], [121.46589997608635, 31.211283520871064], [121.46594497332262, 31.211207552517173], [121.46576336283827, 31.21113165367796]]]}}, {"type": "Feature", "properties": {"bid": "599", "zone_id": "DRAFT_Z13", "heritage_proxy": true, "proxy_name": "Tianzifang conservative protection proxy", "evidence_class": "official_extent_plus_conservative_research_assumption", "official_extent": "E Sinan Rd; W Ruijin 2nd Rd; S Taikang Rd; N Jianguo Middle Rd", "source_document": "Huangpu Government Regulation [2023] No. 3", "review_status": "building_level_official_list_not_yet_matched"}, "geometry": {"type": "Polygon", "coordinates": [[[121.46524819917657, 31.211193404414583], [121.46512148407326, 31.211129693223207], [121.46505947852893, 31.21124526512711], [121.46519219578352, 31.211296115468997], [121.46524819917657, 31.211193404414583]]]}}, {"type": "Feature", "properties": {"bid": "600", "zone_id": "DRAFT_Z13", "heritage_proxy": true, "proxy_name": "Tianzifang conservative protection proxy", "evidence_class": "official_extent_plus_conservative_research_assumption", "official_extent": "E Sinan Rd; W Ruijin 2nd Rd; S Taikang Rd; N Jianguo Middle Rd", "source_document": "Huangpu Government Regulation [2023] No. 3", "review_status": "building_level_official_list_not_yet_matched"}, "geometry": {"type": "Polygon", "coordinates": [[[121.46443355939857, 31.21126665427818], [121.46446149763585, 31.21127925187045], [121.46444049382183, 31.211320767318057], [121.46458018820965, 31.21138075811279], [121.46465120029428, 31.211241396493335], [121.46435086034025, 31.21110996844976], [121.46427984815851, 31.211249331574894], [121.46441355477909, 31.21130719212625], [121.46443355939857, 31.21126665427818]]]}}, {"type": "Feature", "properties": {"bid": "601", "zone_id": "DRAFT_Z13", "heritage_proxy": true, "proxy_name": "Tianzifang conservative protection proxy", "evidence_class": "official_extent_plus_conservative_research_assumption", "official_extent": "E Sinan Rd; W Ruijin 2nd Rd; S Taikang Rd; N Jianguo Middle Rd", "source_document": "Huangpu Government Regulation [2023] No. 3", "review_status": "building_level_official_list_not_yet_matched"}, "geometry": {"type": "Polygon", "coordinates": [[[121.4654888499548, 31.211121688346456], [121.46542184962118, 31.211240148836737], [121.46582697211693, 31.211415840935334], [121.46589997608635, 31.211283520871064], [121.4654888499548, 31.211121688346456]]]}}, {"type": "Feature", "properties": {"bid": "1299", "zone_id": "DRAFT_Z12", "heritage_proxy": true, "proxy_name": "Tianzifang conservative protection proxy", "evidence_class": "official_extent_plus_conservative_research_assumption", "official_extent": "E Sinan Rd; W Ruijin 2nd Rd; S Taikang Rd; N Jianguo Middle Rd", "source_document": "Huangpu Government Regulation [2023] No. 3", "review_status": "building_level_official_list_not_yet_matched"}, "geometry": {"type": "Polygon", "coordinates": [[[121.46419312685316, 31.211122538910324], [121.46406141727732, 31.21106472428294], [121.46401140803061, 31.21116357229147], [121.46414311668241, 31.211222385613652], [121.46419312685316, 31.211122538910324]]]}}, {"type": "Feature", "properties": {"bid": "1300", "zone_id": "DRAFT_Z13", "heritage_proxy": true, "proxy_name": "Tianzifang conservative protection proxy", "evidence_class": "official_extent_plus_conservative_research_assumption", "official_extent": "E Sinan Rd; W Ruijin 2nd Rd; S Taikang Rd; N Jianguo Middle Rd", "source_document": "Huangpu Government Regulation [2023] No. 3", "review_status": "building_level_official_list_not_yet_matched"}, "geometry": {"type": "Polygon", "coordinates": [[[121.46565099052066, 31.21170880986586], [121.4654224802223, 31.21161490354581], [121.4653594783574, 31.21172945421575], [121.46558499474862, 31.211822295909197], [121.46565099052066, 31.21170880986586]]]}}, {"type": "Feature", "properties": {"bid": "1322", "zone_id": "DRAFT_Z13", "heritage_proxy": true, "proxy_name": "Tianzifang conservative protection proxy", "evidence_class": "official_extent_plus_conservative_research_assumption", "official_extent": "E Sinan Rd; W Ruijin 2nd Rd; S Taikang Rd; N Jianguo Middle Rd", "source_document": "Huangpu Government Regulation [2023] No. 3", "review_status": "building_level_official_list_not_yet_matched"}, "geometry": {"type": "Polygon", "coordinates": [[[121.46502451006029, 31.211275484049565], [121.4648189605017, 31.2111850795534], [121.46475395892446, 31.211302586041477], [121.46495950845281, 31.2113929898889], [121.46502451006029, 31.211275484049565]]]}}, {"type": "Feature", "properties": {"bid": "1323", "zone_id": "DRAFT_Z13", "heritage_proxy": true, "proxy_name": "Tianzifang conservative protection proxy", "evidence_class": "official_extent_plus_conservative_research_assumption", "official_extent": "E Sinan Rd; W Ruijin 2nd Rd; S Taikang Rd; N Jianguo Middle Rd", "source_document": "Huangpu Government Regulation [2023] No. 3", "review_status": "building_level_official_list_not_yet_matched"}, "geometry": {"type": "Polygon", "coordinates": [[[121.46555153407861, 31.211330907094002], [121.4653150463014, 31.211229832962214], [121.46524904485726, 31.211348315577197], [121.46548453522927, 31.211448368384318], [121.46555153407861, 31.211330907094002]]]}}, {"type": "Feature", "properties": {"bid": "1324", "zone_id": "DRAFT_Z13", "heritage_proxy": true, "proxy_name": "Tianzifang conservative protection proxy", "evidence_class": "official_extent_plus_conservative_research_assumption", "official_extent": "E Sinan Rd; W Ruijin 2nd Rd; S Taikang Rd; N Jianguo Middle Rd", "source_document": "Huangpu Government Regulation [2023] No. 3", "review_status": "building_level_official_list_not_yet_matched"}, "geometry": {"type": "Polygon", "coordinates": [[[121.46518515116509, 31.211353922295533], [121.46504046890392, 31.211288821731614], [121.4649764674989, 31.21140435063808], [121.46512114972222, 31.211469450848423], [121.46518515116509, 31.211353922295533]]]}}, {"type": "Feature", "properties": {"bid": "1325", "zone_id": "DRAFT_Z13", "heritage_proxy": true, "proxy_name": "Tianzifang conservative protection proxy", "evidence_class": "official_extent_plus_conservative_research_assumption", "official_extent": "E Sinan Rd; W Ruijin 2nd Rd; S Taikang Rd; N Jianguo Middle Rd", "source_document": "Huangpu Government Regulation [2023] No. 3", "review_status": "building_level_official_list_not_yet_matched"}, "geometry": {"type": "Polygon", "coordinates": [[[121.46491655732565, 31.211420037720295], [121.46474094274915, 31.211342275838717], [121.46468494335328, 31.21144199057084], [121.4648615561431, 31.2115197736049], [121.46491655732565, 31.211420037720295]]]}}, {"type": "Feature", "properties": {"bid": "1326", "zone_id": "DRAFT_Z13", "heritage_proxy": true, "proxy_name": "Tianzifang conservative protection proxy", "evidence_class": "official_extent_plus_conservative_research_assumption", "official_extent": "E Sinan Rd; W Ruijin 2nd Rd; S Taikang Rd; N Jianguo Middle Rd", "source_document": "Huangpu Government Regulation [2023] No. 3", "review_status": "building_level_official_list_not_yet_matched"}, "geometry": {"type": "Polygon", "coordinates": [[[121.46550949904726, 31.211440916586746], [121.46577193527742, 31.21155055040895], [121.46582393521123, 31.211458745206762], [121.46556049957566, 31.21135008886716], [121.46550949904726, 31.211440916586746]]]}}, {"type": "Feature", "properties": {"bid": "1327", "zone_id": "DRAFT_Z13", "heritage_proxy": true, "proxy_name": "Tianzifang conservative protection proxy", "evidence_class": "official_extent_plus_conservative_research_assumption", "official_extent": "E Sinan Rd; W Ruijin 2nd Rd; S Taikang Rd; N Jianguo Middle Rd", "source_document": "Huangpu Government Regulation [2023] No. 3", "review_status": "building_level_official_list_not_yet_matched"}, "geometry": {"type": "Polygon", "coordinates": [[[121.46546552756548, 31.211489926197714], [121.46522005489805, 31.211389656567917], [121.46515605643799, 31.211502187197873], [121.46540152700913, 31.21160445498839], [121.46546552756548, 31.211489926197714]]]}}, {"type": "Feature", "properties": {"bid": "1328", "zone_id": "DRAFT_Z13", "heritage_proxy": true, "proxy_name": "Tianzifang conservative protection proxy", "evidence_class": "official_extent_plus_conservative_research_assumption", "official_extent": "E Sinan Rd; W Ruijin 2nd Rd; S Taikang Rd; N Jianguo Middle Rd", "source_document": "Huangpu Government Regulation [2023] No. 3", "review_status": "building_level_official_list_not_yet_matched"}, "geometry": {"type": "Polygon", "coordinates": [[[121.46509814642536, 31.21151392001264], [121.46493649830097, 31.211444454219865], [121.46488950053742, 31.21152637627938], [121.46505114960485, 31.211594842454698], [121.46509814642536, 31.21151392001264]]]}}, {"type": "Feature", "properties": {"bid": "1329", "zone_id": "DRAFT_Z13", "heritage_proxy": true, "proxy_name": "Tianzifang conservative protection proxy", "evidence_class": "official_extent_plus_conservative_research_assumption", "official_extent": "E Sinan Rd; W Ruijin 2nd Rd; S Taikang Rd; N Jianguo Middle Rd", "source_document": "Huangpu Government Regulation [2023] No. 3", "review_status": "building_level_official_list_not_yet_matched"}, "geometry": {"type": "Polygon", "coordinates": [[[121.46573998453073, 31.21155685089816], [121.46550049725535, 31.21145870846953], [121.46543649849299, 31.21157123860019], [121.46567498733124, 31.211669359144587], [121.46573998453073, 31.21155685089816]]]}}, {"type": "Feature", "properties": {"bid": "1330", "zone_id": "DRAFT_Z13", "heritage_proxy": true, "proxy_name": "Tianzifang conservative protection proxy", "evidence_class": "official_extent_plus_conservative_research_assumption", "official_extent": "E Sinan Rd; W Ruijin 2nd Rd; S Taikang Rd; N Jianguo Middle Rd", "source_document": "Huangpu Government Regulation [2023] No. 3", "review_status": "building_level_official_list_not_yet_matched"}, "geometry": {"type": "Polygon", "coordinates": [[[121.46539552783427, 31.21161431769496], [121.46517799598712, 31.211524648733985], [121.46512099827021, 31.211624340637968], [121.46533753080756, 31.21171498682969], [121.46539552783427, 31.21161431769496]]]}}]}