{"type":"FeatureCollection","features":[{"type":"Feature","properties":{"name":"白玉兰广场","research_status":"candidate_unverified_excluded","include_in_objective":false},"geometry":{"type":"Polygon","coordinates":[[[121.4664475,31.2074631],[121.4666529,31.2071892],[121.4667724,31.2068077],[121.4668498,31.2065311],[121.4661571,31.2062964],[121.4661241,31.2063987],[121.4657517,31.2071564],[121.4664475,31.2074631]]]}},{"type":"Feature","properties":{"name":"丽园公园","research_status":"verified_public_park_context","include_in_objective":false},"geometry":{"type":"Polygon","coordinates":[[[121.4727687,31.209259],[121.4737586,31.2095545],[121.4743127,31.2096792],[121.4744357,31.2096705],[121.4746606,31.2096092],[121.4750071,31.2096384],[121.4755986,31.2097813],[121.4758566,31.209248],[121.475638,31.2091838],[121.4731108,31.2088727],[121.4728059,31.208876],[121.4727045,31.2091639],[121.4727687,31.209259]]]}}]}
