{"type": "FeatureCollection", "features": [{"type": "Feature", "properties": {"name": "\u745e\u91d1\u5357\u8def", "highway": "secondary"}, "geometry": {"type": "LineString", "coordinates": [[121.46354804865204, 31.20311816147752], [121.4635438, 31.2031442]]}}, {"type": "Feature", "properties": {"name": null, "highway": "service"}, "geometry": {"type": "LineString", "coordinates": [[121.4644339, 31.2033794], [121.4644394697073, 31.203363867360206]]}}, {"type": "Feature", "properties": {"name": "\u659c\u571f\u8def", "highway": "secondary"}, "geometry": {"type": "LineString", "coordinates": [[121.4635438, 31.2031442], [121.4644339, 31.2033794], [121.4654446, 31.2036619], [121.4665887, 31.2039824]]}}, {"type": "Feature", "properties": {"name": null, "highway": "service"}, "geometry": {"type": "LineString", "coordinates": [[121.4629528, 31.2051182], [121.4635036, 31.205282], [121.464092, 31.2055456], [121.4643245, 31.2056403], [121.4649747, 31.2059051], [121.4656837, 31.2061175]]}}, {"type": "Feature", "properties": {"name": "\u6253\u6d66\u8def", "highway": "residential"}, "geometry": {"type": "LineString", "coordinates": [[121.4665887, 31.2039824], [121.4662599, 31.2047956], [121.4658791, 31.2056349], [121.4656837, 31.2061175], [121.4652302, 31.2071581], [121.465148, 31.2073467]]}}, {"type": "Feature", "properties": {"name": null, "highway": "service"}, "geometry": {"type": "LineString", "coordinates": [[121.4643245, 31.2056403], [121.4641537, 31.2059546], [121.4640813, 31.2062861], [121.46417, 31.2064259], [121.4644246, 31.2064819], [121.4648122, 31.2065418]]}}, {"type": "Feature", "properties": {"name": "\u5f90\u5bb6\u6c47\u8def", "highway": "primary"}, "geometry": {"type": "LineString", "coordinates": [[121.4629672, 31.2068349], [121.4631351, 31.2069028], [121.463259, 31.2069528], [121.4643019, 31.2071673], [121.4649117, 31.2072974], [121.465148, 31.2073467]]}}, {"type": "Feature", "properties": {"name": null, "highway": "footway"}, "geometry": {"type": "LineString", "coordinates": [[121.4653107, 31.2076004], [121.4653722, 31.2073944], [121.4654242, 31.2072201], [121.4652302, 31.2071581], [121.4650348, 31.2070957], [121.4649631, 31.2071192]]}}, {"type": "Feature", "properties": {"name": "\u5f90\u5bb6\u6c47\u8def", "highway": "primary"}, "geometry": {"type": "LineString", "coordinates": [[121.4650768, 31.2075571], [121.4648354, 31.2075125], [121.4642084, 31.2074169], [121.4630064, 31.2072278]]}}, {"type": "Feature", "properties": {"name": "\u6253\u6d66\u8def", "highway": "residential"}, "geometry": {"type": "LineString", "coordinates": [[121.465148, 31.2073467], [121.4650768, 31.2075571]]}}, {"type": "Feature", "properties": {"name": "\u6253\u6d66\u8def", "highway": "residential"}, "geometry": {"type": "LineString", "coordinates": [[121.46659122846548, 31.203956965068503], [121.4665887, 31.2039824]]}}, {"type": "Feature", "properties": {"name": "\u659c\u571f\u8def", "highway": "secondary"}, "geometry": {"type": "LineString", "coordinates": [[121.4665887, 31.2039824], [121.4676021751263, 31.204211879639388]]}}, {"type": "Feature", "properties": {"name": "\u5357\u5858\u6d5c\u8def", "highway": "residential"}, "geometry": {"type": "LineString", "coordinates": [[121.4662599, 31.2047956], [121.4681267, 31.2052847], [121.4688863, 31.205476], [121.47014, 31.2058439]]}}, {"type": "Feature", "properties": {"name": "\u4e3d\u56ed\u8def", "highway": "residential"}, "geometry": {"type": "LineString", "coordinates": [[121.4663417, 31.2076269], [121.4664986, 31.2076239], [121.4667323, 31.2076603], [121.4670706, 31.2077214], [121.4677289, 31.2078553], [121.4683389, 31.2079896], [121.469281, 31.2081577]]}}, {"type": "Feature", "properties": {"name": "\u4e3d\u56ed\u8def", "highway": "residential"}, "geometry": {"type": "LineString", "coordinates": [[121.4692689, 31.2081969], [121.4683245, 31.2080251], [121.4677191, 31.2078962], [121.4670542, 31.2077595], [121.4669641, 31.207769], [121.4669048, 31.207814], [121.4668694, 31.2078947], [121.4668307, 31.2081335]]}}, {"type": "Feature", "properties": {"name": "\u659c\u5f90\u8def", "highway": "residential"}, "geometry": {"type": "LineString", "coordinates": [[121.4676587, 31.2098442], [121.4677364, 31.2096579], [121.4679076, 31.2092454], [121.4683245, 31.2080251], [121.4683389, 31.2079896]]}}, {"type": "Feature", "properties": {"name": "\u5f90\u5bb6\u6c47\u8def", "highway": "secondary"}, "geometry": {"type": "LineString", "coordinates": [[121.4668307, 31.2081335], [121.4670117, 31.2083538], [121.4672523, 31.2090554], [121.4673952, 31.2094642], [121.4674856, 31.2096381], [121.4676393, 31.2098174], [121.4676587, 31.2098442], [121.4677512, 31.2099386], [121.4679711, 31.2100785], [121.4682608, 31.2101749], [121.4683681, 31.2101863], [121.4684566, 31.2101611], [121.4685948, 31.2100439]]}}, {"type": "Feature", "properties": {"name": "\u5f90\u5bb6\u6c47\u8def", "highway": "primary"}, "geometry": {"type": "LineString", "coordinates": [[121.4668307, 31.2081335], [121.4669653, 31.2083855], [121.4673247, 31.2094614], [121.4674481, 31.2097206], [121.467532, 31.209822], [121.4676796, 31.2099734], [121.4678271, 31.2100836], [121.4680256, 31.2101845], [121.4683118, 31.210262]]}}, {"type": "Feature", "properties": {"name": "\u5f90\u5bb6\u6c47\u8def", "highway": "primary"}, "geometry": {"type": "LineString", "coordinates": [[121.4668307, 31.2081335], [121.466856, 31.2084286], [121.4671132, 31.2091767], [121.4673262, 31.2096992], [121.4674829, 31.209908], [121.4676712, 31.2100812], [121.4679812, 31.2102571], [121.4684578, 31.2104049]]}}, {"type": "Feature", "properties": {"name": "\u5f90\u5bb6\u6c47\u8def", "highway": "primary"}, "geometry": {"type": "LineString", "coordinates": [[121.4682715, 31.2104295], [121.4679523, 31.2103331], [121.4677083, 31.210223], [121.4675098, 31.2100831], [121.4673462, 31.2099133], [121.4671289, 31.2095555], [121.4667026, 31.2082983], [121.4666525, 31.2082048], [121.4665726, 31.2081282]]}}, {"type": "Feature", "properties": {"name": "\u9c81\u73ed\u8def", "highway": "primary"}, "geometry": {"type": "LineString", "coordinates": [[121.4703289, 31.2064241], [121.4702497, 31.2068045], [121.470236, 31.2068682]]}}, {"type": "Feature", "properties": {"name": "\u9c81\u73ed\u8def", "highway": "primary"}, "geometry": {"type": "LineString", "coordinates": [[121.4695092, 31.2075431], [121.4698729, 31.2065158], [121.47014, 31.2058439]]}}, {"type": "Feature", "properties": {"name": null, "highway": "primary_link"}, "geometry": {"type": "LineString", "coordinates": [[121.4702025, 31.2067429], [121.470236, 31.2068682]]}}, {"type": "Feature", "properties": {"name": "\u9c81\u73ed\u8def", "highway": "primary"}, "geometry": {"type": "LineString", "coordinates": [[121.4695605, 31.2077206], [121.4697267, 31.2072557], [121.4701934, 31.2059939]]}}, {"type": "Feature", "properties": {"name": null, "highway": "primary_link"}, "geometry": {"type": "LineString", "coordinates": [[121.4701647, 31.2068503], [121.4701988, 31.2070523]]}}, {"type": "Feature", "properties": {"name": null, "highway": "trunk_link"}, "geometry": {"type": "LineString", "coordinates": [[121.4701267, 31.2067524], [121.4700845, 31.2069994], [121.4700138, 31.2072429]]}}, {"type": "Feature", "properties": {"name": "\u9c81\u73ed\u8def", "highway": "primary"}, "geometry": {"type": "LineString", "coordinates": [[121.4703289, 31.2064241], [121.4702025, 31.2067429], [121.4701647, 31.2068503], [121.4700553, 31.2071639], [121.4697146, 31.2079989], [121.4696436, 31.208179], [121.4696238, 31.2082321]]}}, {"type": "Feature", "properties": {"name": null, "highway": "trunk_link"}, "geometry": {"type": "LineString", "coordinates": [[121.4691065, 31.208781], [121.4700339, 31.2062881]]}}, {"type": "Feature", "properties": {"name": "\u9c81\u73ed\u8def", "highway": "primary"}, "geometry": {"type": "LineString", "coordinates": [[121.470236, 31.2068682], [121.4702176, 31.2069655], [121.4701988, 31.2070523], [121.4699694, 31.2075906], [121.469731, 31.2082554]]}}, {"type": "Feature", "properties": {"name": null, "highway": "primary_link"}, "geometry": {"type": "LineString", "coordinates": [[121.4695605, 31.2077206], [121.4695092, 31.2075431]]}}, {"type": "Feature", "properties": {"name": "\u9c81\u73ed\u8def", "highway": "primary"}, "geometry": {"type": "LineString", "coordinates": [[121.469281, 31.2081577], [121.4695092, 31.2075431]]}}, {"type": "Feature", "properties": {"name": "\u9c81\u73ed\u8def", "highway": "primary"}, "geometry": {"type": "LineString", "coordinates": [[121.4693954, 31.2081825], [121.4695605, 31.2077206]]}}, {"type": "Feature", "properties": {"name": "\u4e3d\u56ed\u8def", "highway": "residential"}, "geometry": {"type": "LineString", "coordinates": [[121.469281, 31.2081577], [121.4693954, 31.2081825]]}}, {"type": "Feature", "properties": {"name": "\u9c81\u73ed\u8def", "highway": "primary"}, "geometry": {"type": "LineString", "coordinates": [[121.4692689, 31.2081969], [121.469281, 31.2081577]]}}, {"type": "Feature", "properties": {"name": "\u9c81\u73ed\u8def", "highway": "primary"}, "geometry": {"type": "LineString", "coordinates": [[121.4693811, 31.2082111], [121.4693954, 31.2081825]]}}, {"type": "Feature", "properties": {"name": "\u4e3d\u56ed\u8def", "highway": "residential"}, "geometry": {"type": "LineString", "coordinates": [[121.4693811, 31.2082111], [121.4692689, 31.2081969]]}}, {"type": "Feature", "properties": {"name": "\u4e3d\u56ed\u8def", "highway": "residential"}, "geometry": {"type": "LineString", "coordinates": [[121.4693954, 31.2081825], [121.4696238, 31.2082321]]}}, {"type": "Feature", "properties": {"name": "\u4e3d\u56ed\u8def", "highway": "residential"}, "geometry": {"type": "LineString", "coordinates": [[121.4696196, 31.2082413], [121.4693811, 31.2082111]]}}, {"type": "Feature", "properties": {"name": "\u9c81\u73ed\u8def", "highway": "primary"}, "geometry": {"type": "LineString", "coordinates": [[121.4696238, 31.2082321], [121.4696196, 31.2082413]]}}, {"type": "Feature", "properties": {"name": "\u4e3d\u56ed\u8def", "highway": "residential"}, "geometry": {"type": "LineString", "coordinates": [[121.4696238, 31.2082321], [121.469731, 31.2082554]]}}, {"type": "Feature", "properties": {"name": "\u5f90\u5bb6\u6c47\u8def", "highway": "primary"}, "geometry": {"type": "LineString", "coordinates": [[121.465148, 31.2073467], [121.4653722, 31.2073944], [121.4657985, 31.207485], [121.4660837, 31.2075499], [121.4663417, 31.2076269], [121.4665362, 31.207719], [121.4666739, 31.2078328], [121.4667706, 31.2079548], [121.4668307, 31.2081335]]}}, {"type": "Feature", "properties": {"name": "\u5f90\u5bb6\u6c47\u8def", "highway": "primary"}, "geometry": {"type": "LineString", "coordinates": [[121.4665726, 31.2081282], [121.4664819, 31.2079844], [121.4663438, 31.2078644], [121.4661496, 31.2077555], [121.4653107, 31.2076004], [121.465202, 31.2075803], [121.4650768, 31.2075571]]}}, {"type": "Feature", "properties": {"name": null, "highway": "service"}, "geometry": {"type": "LineString", "coordinates": [[121.4644455, 31.2093056], [121.4645458, 31.2090767], [121.465202, 31.2075803]]}}, {"type": "Feature", "properties": {"name": null, "highway": "steps"}, "geometry": {"type": "LineString", "coordinates": [[121.4646815, 31.2091184], [121.4645458, 31.2090767]]}}, {"type": "Feature", "properties": {"name": null, "highway": "residential"}, "geometry": {"type": "LineString", "coordinates": [[121.4662609, 31.2091572], [121.4658403, 31.2090488]]}}, {"type": "Feature", "properties": {"name": null, "highway": "footway"}, "geometry": {"type": "LineString", "coordinates": [[121.4657155, 31.2093685], [121.4655156, 31.2093203], [121.4652877, 31.2092916], [121.4650463, 31.2092469], [121.4646815, 31.2091184]]}}, {"type": "Feature", "properties": {"name": null, "highway": "service"}, "geometry": {"type": "LineString", "coordinates": [[121.4643669, 31.209427], [121.4644455, 31.2093056]]}}, {"type": "Feature", "properties": {"name": null, "highway": "residential"}, "geometry": {"type": "LineString", "coordinates": [[121.4661738, 31.2094619], [121.4657155, 31.2093685]]}}, {"type": "Feature", "properties": {"name": null, "highway": "residential"}, "geometry": {"type": "LineString", "coordinates": [[121.4658877, 31.2099255], [121.4659542, 31.2097401], [121.4660548, 31.2096793], [121.4661379, 31.2096071], [121.4661738, 31.2094619], [121.4662609, 31.2091572], [121.4663042, 31.2089659]]}}, {"type": "Feature", "properties": {"name": null, "highway": "footway"}, "geometry": {"type": "LineString", "coordinates": [[121.463827, 31.2094214], [121.4638037, 31.2094795]]}}, {"type": "Feature", "properties": {"name": "\u4e3d\u56ed\u8def", "highway": "residential"}, "geometry": {"type": "LineString", "coordinates": [[121.469731, 31.2082554], [121.4696196, 31.2082413]]}}, {"type": "Feature", "properties": {"name": null, "highway": "trunk_link"}, "geometry": {"type": "LineString", "coordinates": [[121.4700138, 31.2072429], [121.4692776, 31.2092922]]}}, {"type": "Feature", "properties": {"name": "\u9c81\u73ed\u8def", "highway": "primary"}, "geometry": {"type": "LineString", "coordinates": [[121.4688956, 31.2092666], [121.4689458, 31.2090321], [121.469036, 31.2088007], [121.4692689, 31.2081969]]}}, {"type": "Feature", "properties": {"name": "\u9c81\u73ed\u8def", "highway": "primary"}, "geometry": {"type": "LineString", "coordinates": [[121.4688956, 31.2092666], [121.4689904, 31.2091632], [121.4693811, 31.2082111]]}}, {"type": "Feature", "properties": {"name": "\u9c81\u73ed\u8def", "highway": "primary"}, "geometry": {"type": "LineString", "coordinates": [[121.4696196, 31.2082413], [121.4691406, 31.2095807], [121.4691094, 31.2097766]]}}, {"type": "Feature", "properties": {"name": "\u9c81\u73ed\u8def", "highway": "primary"}, "geometry": {"type": "LineString", "coordinates": [[121.469731, 31.2082554], [121.4695443, 31.2087328], [121.4694262, 31.2091688], [121.4693016, 31.2094729], [121.4691094, 31.2097766]]}}, {"type": "Feature", "properties": {"name": null, "highway": "trunk_link"}, "geometry": {"type": "LineString", "coordinates": [[121.4688956, 31.2092666], [121.4691065, 31.208781]]}}, {"type": "Feature", "properties": {"name": null, "highway": "trunk_link"}, "geometry": {"type": "LineString", "coordinates": [[121.4692776, 31.2092922], [121.4691094, 31.2097766]]}}, {"type": "Feature", "properties": {"name": "\u9c81\u73ed\u8def", "highway": "primary"}, "geometry": {"type": "LineString", "coordinates": [[121.4686847, 31.2099052], [121.46878, 31.2096216], [121.4688085, 31.2095539], [121.4688956, 31.2092666]]}}, {"type": "Feature", "properties": {"name": "\u9c81\u73ed\u8def", "highway": "primary"}, "geometry": {"type": "LineString", "coordinates": [[121.4691094, 31.2097766], [121.4689701, 31.2102022]]}}, {"type": "Feature", "properties": {"name": "\u5f90\u5bb6\u6c47\u8def", "highway": "secondary"}, "geometry": {"type": "LineString", "coordinates": [[121.4683423, 31.2107203], [121.4682884, 31.2106158], [121.4682393, 31.2105418], [121.4681213, 31.2104661], [121.4677632, 31.2103843], [121.4675982, 31.2102743], [121.467459, 31.210172], [121.4672481, 31.2099494], [121.4671765, 31.2098271], [121.4671309, 31.2097493], [121.4670297, 31.2095442], [121.4668599, 31.2090242], [121.4666621, 31.208483], [121.4665726, 31.2081282]]}}, {"type": "Feature", "properties": {"name": null, "highway": "steps"}, "geometry": {"type": "LineString", "coordinates": [[121.4677364, 31.2096579], [121.4676768, 31.2096346], [121.4676554, 31.209657], [121.4676567, 31.2097023], [121.4676775, 31.2097321]]}}, {"type": "Feature", "properties": {"name": "\u5357\u5317\u9ad8\u67b6\u8def", "highway": "trunk"}, "geometry": {"type": "LineString", "coordinates": [[121.46739511386176, 31.21263435452151], [121.4677239, 31.2121172], [121.4680511, 31.2115595], [121.4684107, 31.2107892], [121.4687441, 31.209982], [121.4703274, 31.2056851]]}}, {"type": "Feature", "properties": {"name": null, "highway": "residential"}, "geometry": {"type": "LineString", "coordinates": [[121.4670362, 31.2098753], [121.4661904, 31.2096738], [121.4661379, 31.2096071]]}}, {"type": "Feature", "properties": {"name": null, "highway": "footway"}, "geometry": {"type": "LineString", "coordinates": [[121.4671765, 31.2098271], [121.4671316, 31.2099305]]}}, {"type": "Feature", "properties": {"name": null, "highway": "footway"}, "geometry": {"type": "LineString", "coordinates": [[121.4676775, 31.2097321], [121.4671892, 31.2100763]]}}, {"type": "Feature", "properties": {"name": "\u9c81\u73ed\u8def", "highway": "primary"}, "geometry": {"type": "LineString", "coordinates": [[121.4685948, 31.2100439], [121.4686847, 31.2099052]]}}, {"type": "Feature", "properties": {"name": null, "highway": "steps"}, "geometry": {"type": "LineString", "coordinates": [[121.4671316, 31.2099305], [121.4671892, 31.2100763]]}}, {"type": "Feature", "properties": {"name": "\u6cf0\u5eb7\u8def", "highway": "residential"}, "geometry": {"type": "LineString", "coordinates": [[121.4671734, 31.21024], [121.4672356, 31.2101743], [121.4672782, 31.2101227], [121.4672481, 31.2099494]]}}, {"type": "Feature", "properties": {"name": "\u6cf0\u5eb7\u8def", "highway": "residential"}, "geometry": {"type": "LineString", "coordinates": [[121.4671734, 31.21024], [121.4667776, 31.2101432]]}}, {"type": "Feature", "properties": {"name": null, "highway": "footway"}, "geometry": {"type": "LineString", "coordinates": [[121.463635, 31.2099085], [121.4641513, 31.2100495], [121.4643118, 31.2100933]]}}, {"type": "Feature", "properties": {"name": null, "highway": "service"}, "geometry": {"type": "LineString", "coordinates": [[121.4649062, 31.2104462], [121.4651709, 31.2097501]]}}, {"type": "Feature", "properties": {"name": null, "highway": "service"}, "geometry": {"type": "LineString", "coordinates": [[121.4656387, 31.2098646], [121.4654687, 31.2103635], [121.4654681, 31.2104309], [121.4654845, 31.2105023], [121.4655494, 31.2105615], [121.4658402, 31.2106612], [121.4659569, 31.2106921], [121.4660624, 31.2107054], [121.4661819, 31.2106768], [121.4662239, 31.210627], [121.4662496, 31.2105688], [121.4662475, 31.210464], [121.4661983, 31.2103869], [121.466072, 31.2103292]]}}, {"type": "Feature", "properties": {"name": null, "highway": "footway"}, "geometry": {"type": "LineString", "coordinates": [[121.4643252, 31.2109431], [121.4643186, 31.210877], [121.4643172, 31.2108631], [121.4644041, 31.2106969], [121.4644195, 31.2106663], [121.4645229, 31.2104554], [121.4645778, 31.2103459], [121.4647619, 31.2099642], [121.4648262, 31.2097271], [121.4648428, 31.2096699]]}}, {"type": "Feature", "properties": {"name": null, "highway": "footway"}, "geometry": {"type": "LineString", "coordinates": [[121.4640995, 31.2102063], [121.4642103, 31.210236], [121.4641649, 31.2103663], [121.4641022, 31.2105392], [121.4639138, 31.2104936]]}}, {"type": "Feature", "properties": {"name": null, "highway": "footway"}, "geometry": {"type": "LineString", "coordinates": [[121.4641649, 31.2103663], [121.4642198, 31.2103831]]}}, {"type": "Feature", "properties": {"name": null, "highway": "footway"}, "geometry": {"type": "LineString", "coordinates": [[121.4645778, 31.2103459], [121.4646228, 31.2103609], [121.4648708, 31.2104354], [121.4649062, 31.2104462]]}}, {"type": "Feature", "properties": {"name": null, "highway": "footway"}, "geometry": {"type": "LineString", "coordinates": [[121.4642198, 31.2103831], [121.4643105, 31.2104108], [121.4643158, 31.2103925], [121.4645229, 31.2104554]]}}, {"type": "Feature", "properties": {"name": null, "highway": "footway"}, "geometry": {"type": "LineString", "coordinates": [[121.4641022, 31.2105392], [121.46409, 31.2105746], [121.4641108, 31.2105998], [121.4644041, 31.2106969]]}}, {"type": "Feature", "properties": {"name": null, "highway": "service"}, "geometry": {"type": "LineString", "coordinates": [[121.4662239, 31.210627], [121.4663666, 31.2106993]]}}, {"type": "Feature", "properties": {"name": "\u9c81\u73ed\u8def", "highway": "primary"}, "geometry": {"type": "LineString", "coordinates": [[121.4684578, 31.2104049], [121.4685948, 31.2100439]]}}, {"type": "Feature", "properties": {"name": "\u6cf0\u5eb7\u8def", "highway": "residential"}, "geometry": {"type": "LineString", "coordinates": [[121.4677632, 31.2103843], [121.4675268, 31.2103287], [121.4671734, 31.21024]]}}, {"type": "Feature", "properties": {"name": "\u5357\u5317\u9ad8\u67b6\u8def", "highway": "trunk"}, "geometry": {"type": "LineString", "coordinates": [[121.4701267, 31.2067524], [121.4689274, 31.2100316], [121.4685885, 31.2108394], [121.4682164, 31.2116276], [121.4679832, 31.2120379], [121.46756126072079, 31.212699275495453]]}}, {"type": "Feature", "properties": {"name": "\u91cd\u5e86\u5357\u8def", "highway": "primary"}, "geometry": {"type": "LineString", "coordinates": [[121.4683423, 31.2107203], [121.4684043, 31.2105568], [121.4684578, 31.2104049]]}}, {"type": "Feature", "properties": {"name": "\u5f90\u5bb6\u6c47\u8def", "highway": "primary"}, "geometry": {"type": "LineString", "coordinates": [[121.4684578, 31.2104049], [121.4685073, 31.2104398], [121.4685706, 31.2105151], [121.4686307, 31.2106358], [121.4686765, 31.2107849], [121.4686879, 31.2108895]]}}, {"type": "Feature", "properties": {"name": "\u91cd\u5e86\u5357\u8def", "highway": "primary"}, "geometry": {"type": "LineString", "coordinates": [[121.4681669, 31.2110702], [121.4683423, 31.2107203]]}}, {"type": "Feature", "properties": {"name": "\u91cd\u5e86\u5357\u8def", "highway": "primary"}, "geometry": {"type": "LineString", "coordinates": [[121.4686879, 31.2108895], [121.4686478, 31.2110022], [121.4686379, 31.2110267]]}}, {"type": "Feature", "properties": {"name": null, "highway": "trunk_link"}, "geometry": {"type": "LineString", "coordinates": [[121.4679918, 31.2115148], [121.4680855, 31.2112978], [121.4681669, 31.2110702]]}}, {"type": "Feature", "properties": {"name": null, "highway": "trunk_link"}, "geometry": {"type": "LineString", "coordinates": [[121.4686379, 31.2110267], [121.4683416, 31.2116768]]}}, {"type": "Feature", "properties": {"name": "\u91cd\u5e86\u5357\u8def", "highway": "primary"}, "geometry": {"type": "LineString", "coordinates": [[121.4673071, 31.2125658], [121.4678531, 31.2116481], [121.4681669, 31.2110702]]}}, {"type": "Feature", "properties": {"name": null, "highway": "service"}, "geometry": {"type": "LineString", "coordinates": [[121.4654845, 31.2105023], [121.4654137, 31.2105896], [121.4653549, 31.2107162], [121.4654176, 31.2108662], [121.4656006, 31.2109909], [121.4657887, 31.2110697]]}}, {"type": "Feature", "properties": {"name": null, "highway": "footway"}, "geometry": {"type": "LineString", "coordinates": [[121.464139, 31.2108147], [121.4643172, 31.2108631]]}}, {"type": "Feature", "properties": {"name": null, "highway": "footway"}, "geometry": {"type": "LineString", "coordinates": [[121.46413349118698, 31.211246087131865], [121.4642567, 31.2110489], [121.4643252, 31.2109431]]}}, {"type": "Feature", "properties": {"name": "\u5efa\u56fd\u4e2d\u8def", "highway": "tertiary"}, "geometry": {"type": "LineString", "coordinates": [[121.46482759617182, 31.21154152391641], [121.4656416, 31.2118504], [121.4673071, 31.2125658]]}}, {"type": "Feature", "properties": {"name": "\u5357\u5317\u9ad8\u67b6\u8def", "highway": "trunk"}, "geometry": {"type": "LineString", "coordinates": [[121.4703274, 31.2056851], [121.47059901366248, 31.204965829122184]]}}, {"type": "Feature", "properties": {"name": "\u5357\u5317\u9ad8\u67b6\u8def", "highway": "trunk"}, "geometry": {"type": "LineString", "coordinates": [[121.47074552148513, 31.205002888149412], [121.4701267, 31.2067524]]}}, {"type": "Feature", "properties": {"name": "\u8499\u81ea\u8def", "highway": "tertiary"}, "geometry": {"type": "LineString", "coordinates": [[121.47398791085813, 31.206409043365387], [121.4737788, 31.2068315], [121.4727482, 31.2087858]]}}, {"type": "Feature", "properties": {"name": "\u9c81\u73ed\u8def", "highway": "primary"}, "geometry": {"type": "LineString", "coordinates": [[121.47082700159442, 31.205023627394155], [121.4704732, 31.2059693]]}}, {"type": "Feature", "properties": {"name": "\u5236\u9020\u5c40\u8def", "highway": "tertiary"}, "geometry": {"type": "LineString", "coordinates": [[121.48018430073907, 31.20884179302009], [121.480181, 31.2088472]]}}, {"type": "Feature", "properties": {"name": null, "highway": "residential"}, "geometry": {"type": "LineString", "coordinates": [[121.47742651885454, 31.20796147629433], [121.477418, 31.2079758]]}}, {"type": "Feature", "properties": {"name": "\u9c81\u73ed\u8def", "highway": "primary"}, "geometry": {"type": "LineString", "coordinates": [[121.4702404, 31.2057714], [121.47053047093637, 31.204948585032362]]}}, {"type": "Feature", "properties": {"name": "\u9c81\u73ed\u8def", "highway": "primary"}, "geometry": {"type": "LineString", "coordinates": [[121.47014, 31.2058439], [121.4702404, 31.2057714]]}}, {"type": "Feature", "properties": {"name": "\u9c81\u73ed\u8def", "highway": "primary"}, "geometry": {"type": "LineString", "coordinates": [[121.4702201, 31.2058676], [121.4702404, 31.2057714]]}}, {"type": "Feature", "properties": {"name": "\u5357\u5858\u6d5c\u8def", "highway": "residential"}, "geometry": {"type": "LineString", "coordinates": [[121.47014, 31.2058439], [121.4702201, 31.2058676]]}}, {"type": "Feature", "properties": {"name": "\u5357\u5858\u6d5c\u8def", "highway": "residential"}, "geometry": {"type": "LineString", "coordinates": [[121.4702201, 31.2058676], [121.4704732, 31.2059693]]}}, {"type": "Feature", "properties": {"name": "\u9c81\u73ed\u8def", "highway": "primary"}, "geometry": {"type": "LineString", "coordinates": [[121.4701934, 31.2059939], [121.4702201, 31.2058676]]}}, {"type": "Feature", "properties": {"name": null, "highway": "trunk_link"}, "geometry": {"type": "LineString", "coordinates": [[121.4700339, 31.2062881], [121.470136, 31.2060484], [121.4703274, 31.2056851]]}}, {"type": "Feature", "properties": {"name": "\u9c81\u73ed\u8def", "highway": "primary"}, "geometry": {"type": "LineString", "coordinates": [[121.4701934, 31.2059939], [121.4702177, 31.2059663], [121.4702569, 31.2059497], [121.4703052, 31.2059505], [121.470345, 31.2059617], [121.4703734, 31.2059795], [121.4703757, 31.206012], [121.4703286, 31.2062107]]}}, {"type": "Feature", "properties": {"name": "\u9c81\u73ed\u8def", "highway": "primary"}, "geometry": {"type": "LineString", "coordinates": [[121.4704732, 31.2059693], [121.4704161, 31.2059924], [121.4703286, 31.2062107]]}}, {"type": "Feature", "properties": {"name": "\u9c81\u73ed\u8def", "highway": "primary"}, "geometry": {"type": "LineString", "coordinates": [[121.4703286, 31.2062107], [121.4702025, 31.2067429]]}}, {"type": "Feature", "properties": {"name": "\u9c81\u73ed\u8def", "highway": "primary"}, "geometry": {"type": "LineString", "coordinates": [[121.4704732, 31.2059693], [121.4703289, 31.2064241]]}}, {"type": "Feature", "properties": {"name": "\u659c\u571f\u8def", "highway": "secondary"}, "geometry": {"type": "LineString", "coordinates": [[121.47200406714356, 31.205323227513933], [121.4722627, 31.2054238], [121.4726302, 31.2055959], [121.47312894108421, 31.205848972028985]]}}, {"type": "Feature", "properties": {"name": "\u5357\u5858\u6d5c\u8def", "highway": "residential"}, "geometry": {"type": "LineString", "coordinates": [[121.4704732, 31.2059693], [121.4721015, 31.2063029], [121.4723528, 31.2063714], [121.472618, 31.2064541], [121.4727533, 31.2064777], [121.4728583, 31.2064825], [121.4730185, 31.2064872], [121.4731621, 31.2065155], [121.4732726, 31.206551], [121.473408, 31.2066171], [121.4736151, 31.2067494], [121.4737788, 31.2068315]]}}, {"type": "Feature", "properties": {"name": "\u8499\u81ea\u897f\u8def", "highway": "residential"}, "geometry": {"type": "LineString", "coordinates": [[121.4724597, 31.2096951], [121.4708217, 31.2094618], [121.4694262, 31.2091688]]}}, {"type": "Feature", "properties": {"name": "\u8499\u81ea\u4e1c\u8def", "highway": "residential"}, "geometry": {"type": "LineString", "coordinates": [[121.4726158, 31.2092545], [121.4737517, 31.209587], [121.4742947, 31.2097127], [121.4744258, 31.2097001], [121.4746667, 31.2096479], [121.4749305, 31.20967], [121.4751452, 31.2097205], [121.4754687, 31.2097987], [121.4756572, 31.2098598]]}}, {"type": "Feature", "properties": {"name": null, "highway": "service"}, "geometry": {"type": "LineString", "coordinates": [[121.4767328, 31.2093906], [121.476455, 31.20971], [121.4762784, 31.2099121], [121.4761828, 31.2100197], [121.476166, 31.2100318]]}}, {"type": "Feature", "properties": {"name": "\u5c40\u95e8\u8def", "highway": "tertiary"}, "geometry": {"type": "LineString", "coordinates": [[121.4746787, 31.2118921], [121.4756572, 31.2098598], [121.4759907, 31.2091807], [121.4763558, 31.208319], [121.47661742816925, 31.207686557105955]]}}, {"type": "Feature", "properties": {"name": null, "highway": "service"}, "geometry": {"type": "LineString", "coordinates": [[121.476788, 31.2099265], [121.476455, 31.20971]]}}, {"type": "Feature", "properties": {"name": "\u8499\u81ea\u8def", "highway": "tertiary"}, "geometry": {"type": "LineString", "coordinates": [[121.4727482, 31.2087858], [121.4726838, 31.2090141], [121.4726158, 31.2092545], [121.4724597, 31.2096951], [121.4721043, 31.2108857], [121.4720559, 31.2109891], [121.4719706, 31.2110903]]}}, {"type": "Feature", "properties": {"name": null, "highway": "service"}, "geometry": {"type": "LineString", "coordinates": [[121.4777156, 31.2083833], [121.4778375, 31.2081099]]}}, {"type": "Feature", "properties": {"name": "\u659c\u571f\u8def", "highway": "secondary"}, "geometry": {"type": "MultiLineString", "coordinates": [[[121.47662512651746, 31.20768917391379], [121.4768983, 31.2078096], [121.477418, 31.2079758], [121.4778375, 31.2081099], [121.47847161352686, 31.208315385090184]], [[121.47982223333605, 31.208737451316367], [121.480181, 31.2088472]]]}}, {"type": "Feature", "properties": {"name": null, "highway": "service"}, "geometry": {"type": "LineString", "coordinates": [[121.4772891, 31.2082617], [121.4777156, 31.2083833], [121.477814, 31.2084244], [121.4776163, 31.2087159], [121.4773213, 31.2091197], [121.4774036, 31.2091929], [121.4772811, 31.2093835], [121.4771157, 31.2096164]]}}, {"type": "Feature", "properties": {"name": "\u659c\u571f\u4e1c\u8def", "highway": "secondary"}, "geometry": {"type": "LineString", "coordinates": [[121.480181, 31.2088472], [121.48020940566263, 31.208854222413507]]}}, {"type": "Feature", "properties": {"name": null, "highway": "service"}, "geometry": {"type": "LineString", "coordinates": [[121.4770639, 31.2092619], [121.4772811, 31.2093835]]}}, {"type": "Feature", "properties": {"name": "\u5236\u9020\u5c40\u8def", "highway": "tertiary"}, "geometry": {"type": "MultiLineString", "coordinates": [[[121.480181, 31.2088472], [121.4800415, 31.209024], [121.4799345, 31.2092809], [121.4799168, 31.2093627], [121.4799097, 31.2095155], [121.4798831, 31.2096805], [121.4798531, 31.2098442], [121.47981279645482, 31.209920256690104]], [[121.47892852131179, 31.210671916456292], [121.4788743, 31.210721]]]}}, {"type": "Feature", "properties": {"name": null, "highway": "service"}, "geometry": {"type": "LineString", "coordinates": [[121.4770821, 31.2095953], [121.476788, 31.2099265], [121.4766162, 31.2101231], [121.4762784, 31.2099121]]}}, {"type": "Feature", "properties": {"name": null, "highway": "service"}, "geometry": {"type": "LineString", "coordinates": [[121.4776194, 31.2099328], [121.4775536, 31.2100023], [121.4772461, 31.2103309], [121.476897, 31.2104295], [121.4766993, 31.2107935], [121.4766853, 31.2108184]]}}, {"type": "Feature", "properties": {"name": null, "highway": "primary"}, "geometry": {"type": "LineString", "coordinates": [[121.4688899, 31.2104443], [121.4688616, 31.210418], [121.4687972, 31.2103056], [121.468749, 31.210207], [121.4686854, 31.2100468], [121.4686847, 31.2099052]]}}, {"type": "Feature", "properties": {"name": "\u9c81\u73ed\u8def", "highway": "primary"}, "geometry": {"type": "LineString", "coordinates": [[121.4689701, 31.2102022], [121.4688899, 31.2104443]]}}, {"type": "Feature", "properties": {"name": null, "highway": "primary"}, "geometry": {"type": "LineString", "coordinates": [[121.4683118, 31.210262], [121.4692513, 31.2104689]]}}, {"type": "Feature", "properties": {"name": null, "highway": "primary"}, "geometry": {"type": "LineString", "coordinates": [[121.469103, 31.2105739], [121.4689831, 31.210524], [121.4689161, 31.2104735], [121.4688899, 31.2104443]]}}, {"type": "Feature", "properties": {"name": "\u5f90\u5bb6\u6c47\u8def", "highway": "primary"}, "geometry": {"type": "LineString", "coordinates": [[121.4692157, 31.2106771], [121.4682715, 31.2104295]]}}, {"type": "Feature", "properties": {"name": "\u5f90\u5bb6\u6c47\u8def", "highway": "secondary"}, "geometry": {"type": "LineString", "coordinates": [[121.4689701, 31.2102022], [121.4690502, 31.2103221], [121.4691226, 31.210368], [121.4710503, 31.2107528], [121.4714513, 31.2109526]]}}, {"type": "Feature", "properties": {"name": "\u5f90\u5bb6\u6c47\u8def", "highway": "primary"}, "geometry": {"type": "LineString", "coordinates": [[121.4689701, 31.2102022], [121.4689769, 31.2103584], [121.468993, 31.2104478], [121.4690636, 31.210485], [121.4691367, 31.2105089], [121.4709496, 31.2108689], [121.4714513, 31.2109526]]}}, {"type": "Feature", "properties": {"name": "\u91cd\u5e86\u5357\u8def", "highway": "primary"}, "geometry": {"type": "LineString", "coordinates": [[121.4688899, 31.2104443], [121.4688213, 31.2105786], [121.4686879, 31.2108895]]}}, {"type": "Feature", "properties": {"name": null, "highway": "primary"}, "geometry": {"type": "LineString", "coordinates": [[121.4692513, 31.2104689], [121.4709626, 31.2107993], [121.4714513, 31.2109526]]}}, {"type": "Feature", "properties": {"name": "\u5f90\u5bb6\u6c47\u8def", "highway": "primary"}, "geometry": {"type": "LineString", "coordinates": [[121.469103, 31.2105739], [121.468993, 31.2105578], [121.468926, 31.2105785], [121.4688616, 31.2106198], [121.4686879, 31.2108895]]}}, {"type": "Feature", "properties": {"name": "\u5c40\u95e8\u540e\u8def", "highway": "residential"}, "geometry": {"type": "LineString", "coordinates": [[121.4756572, 31.2098598], [121.476166, 31.2100318], [121.4762051, 31.2101029], [121.4759522, 31.210648]]}}, {"type": "Feature", "properties": {"name": null, "highway": "residential"}, "geometry": {"type": "LineString", "coordinates": [[121.4759522, 31.210648], [121.4766516, 31.2108868]]}}, {"type": "Feature", "properties": {"name": null, "highway": "service"}, "geometry": {"type": "LineString", "coordinates": [[121.4758419, 31.2108772], [121.4764968, 31.2111049], [121.4765372, 31.2111189]]}}, {"type": "Feature", "properties": {"name": "\u5f90\u5bb6\u6c47\u8def", "highway": "primary"}, "geometry": {"type": "LineString", "coordinates": [[121.4714513, 31.2109526], [121.4719706, 31.2110903]]}}, {"type": "Feature", "properties": {"name": "\u9a6c\u5f53\u8def", "highway": "tertiary"}, "geometry": {"type": "LineString", "coordinates": [[121.4719706, 31.2110903], [121.4718988, 31.2111502], [121.4718336, 31.2112391]]}}, {"type": "Feature", "properties": {"name": "\u5f90\u5bb6\u6c47\u8def", "highway": "primary"}, "geometry": {"type": "LineString", "coordinates": [[121.4718336, 31.2112391], [121.471565, 31.2111562]]}}, {"type": "Feature", "properties": {"name": null, "highway": "service"}, "geometry": {"type": "LineString", "coordinates": [[121.4757288, 31.211112], [121.4763807, 31.2113441], [121.4764195, 31.2113579]]}}, {"type": "Feature", "properties": {"name": null, "highway": "service"}, "geometry": {"type": "LineString", "coordinates": [[121.4759522, 31.210648], [121.4759428, 31.2106677], [121.4758419, 31.2108772], [121.4757288, 31.211112], [121.4756189, 31.2113402], [121.4755208, 31.2115437], [121.4761551, 31.2118089], [121.4761901, 31.2118236]]}}, {"type": "Feature", "properties": {"name": null, "highway": "footway"}, "geometry": {"type": "LineString", "coordinates": [[121.4717526, 31.2116709], [121.4718864, 31.2112509], [121.4720292, 31.2112829]]}}, {"type": "Feature", "properties": {"name": null, "highway": "service"}, "geometry": {"type": "LineString", "coordinates": [[121.4756189, 31.2113402], [121.4762702, 31.2115717], [121.4763076, 31.2115849]]}}, {"type": "Feature", "properties": {"name": "\u4e3d\u56ed\u8def", "highway": "residential"}, "geometry": {"type": "LineString", "coordinates": [[121.469731, 31.2082554], [121.4727482, 31.2087858], [121.4742989, 31.2089674], [121.4758558, 31.2091668], [121.4759907, 31.2091807], [121.4761686, 31.2092016], [121.4763906, 31.2092516], [121.4766244, 31.2093358], [121.4767328, 31.2093906], [121.4768523, 31.209451], [121.4770821, 31.2095953], [121.4771157, 31.2096164], [121.4776194, 31.2099328], [121.4785476, 31.2105152], [121.4788743, 31.210721], [121.47887753322732, 31.21072228584718]]}}, {"type": "Feature", "properties": {"name": null, "highway": "service"}, "geometry": {"type": "LineString", "coordinates": [[121.47823045852606, 31.211560247091533], [121.4779027, 31.2114099], [121.4780355, 31.2112099], [121.4780048, 31.2111899], [121.4785476, 31.2105152]]}}, {"type": "Feature", "properties": {"name": null, "highway": "service"}, "geometry": {"type": "LineString", "coordinates": [[121.4779027, 31.2114099], [121.4777754, 31.2113494], [121.477722, 31.2113219], [121.4776013, 31.2112557], [121.4774323, 31.2111474], [121.4772822, 31.2110387], [121.4772304, 31.2110011], [121.4771757, 31.2109746], [121.4766993, 31.2107935]]}}, {"type": "Feature", "properties": {"name": "\u5fbd\u5b81\u8def", "highway": "residential"}, "geometry": {"type": "LineString", "coordinates": [[121.4799097, 31.2095155], [121.47994944109271, 31.209534436155725]]}}, {"type": "Feature", "properties": {"name": "\u5f90\u5bb6\u6c47\u8def", "highway": "primary"}, "geometry": {"type": "LineString", "coordinates": [[121.4719706, 31.2110903], [121.47212, 31.2111502], [121.4728862, 31.2113938], [121.4734836, 31.211555], [121.4746787, 31.2118921]]}}, {"type": "Feature", "properties": {"name": null, "highway": "residential"}, "geometry": {"type": "LineString", "coordinates": [[121.4766853, 31.2108184], [121.4766516, 31.2108868], [121.4765372, 31.2111189], [121.4764195, 31.2113579], [121.4763076, 31.2115849], [121.4761901, 31.2118236], [121.4758627, 31.212468]]}}, {"type": "Feature", "properties": {"name": "\u5f90\u5bb6\u6c47\u8def", "highway": "primary"}, "geometry": {"type": "LineString", "coordinates": [[121.4745689, 31.2120663], [121.4730272, 31.2116017], [121.4720019, 31.2112907], [121.4718336, 31.2112391]]}}, {"type": "Feature", "properties": {"name": "\u5c40\u95e8\u8def", "highway": "tertiary"}, "geometry": {"type": "LineString", "coordinates": [[121.4745689, 31.2120663], [121.4746787, 31.2118921]]}}, {"type": "Feature", "properties": {"name": "\u5f90\u5bb6\u6c47\u8def", "highway": "primary"}, "geometry": {"type": "LineString", "coordinates": [[121.4746787, 31.2118921], [121.4751693, 31.212057], [121.4755599, 31.2122843]]}}, {"type": "Feature", "properties": {"name": "\u5f90\u5bb6\u6c47\u8def", "highway": "primary"}, "geometry": {"type": "LineString", "coordinates": [[121.4754559, 31.2124702], [121.4750526, 31.2122506], [121.4745689, 31.2120663]]}}, {"type": "Feature", "properties": {"name": "\u5f90\u5bb6\u6c47\u8def", "highway": "primary"}, "geometry": {"type": "LineString", "coordinates": [[121.4755599, 31.2122843], [121.4758627, 31.212468]]}}, {"type": "Feature", "properties": {"name": "\u987a\u660c\u8def", "highway": "residential"}, "geometry": {"type": "LineString", "coordinates": [[121.4755599, 31.2122843], [121.4754559, 31.2124702]]}}, {"type": "Feature", "properties": {"name": null, "highway": "residential"}, "geometry": {"type": "LineString", "coordinates": [[121.4754559, 31.2124702], [121.4754853, 31.2126064], [121.4754689, 31.2126447]]}}, {"type": "Feature", "properties": {"name": "\u5f90\u5bb6\u6c47\u8def", "highway": "primary"}, "geometry": {"type": "LineString", "coordinates": [[121.4757918, 31.2126651], [121.4756564, 31.2125949], [121.4754559, 31.2124702]]}}, {"type": "Feature", "properties": {"name": "\u5236\u9020\u5c40\u8def", "highway": "tertiary"}, "geometry": {"type": "LineString", "coordinates": [[121.4788743, 31.210721], [121.47885220803967, 31.210747303736934]]}}, {"type": "Feature", "properties": {"name": "\u5f90\u5bb6\u6c47\u8def", "highway": "primary"}, "geometry": {"type": "LineString", "coordinates": [[121.4758627, 31.212468], [121.47639, 31.2127908], [121.4767574, 31.2129684], [121.4772121, 31.213121], [121.47745557052902, 31.213189372509508]]}}, {"type": "Feature", "properties": {"name": "\u5f90\u5bb6\u6c47\u8def", "highway": "primary"}, "geometry": {"type": "LineString", "coordinates": [[121.47739407868437, 31.213362553482533], [121.4770356, 31.2132893]]}}, {"type": "Feature", "properties": {"name": "\u9655\u897f\u5357\u8def", "highway": "secondary"}, "geometry": {"type": "LineString", "coordinates": [[121.4576931, 31.205209], [121.45774646389117, 31.204911604476777]]}}, {"type": "Feature", "properties": {"name": "\u8087\u5609\u6d5c\u8def", "highway": "primary"}, "geometry": {"type": "LineString", "coordinates": [[121.4576931, 31.205209], [121.45767530368211, 31.205204903675725]]}}, {"type": "Feature", "properties": {"name": "\u659c\u571f\u8def", "highway": "secondary"}, "geometry": {"type": "LineString", "coordinates": [[121.46345076983951, 31.20311633504389], [121.463453, 31.203117], [121.4635438, 31.2031442]]}}, {"type": "Feature", "properties": {"name": "\u745e\u91d1\u5357\u8def", "highway": "secondary"}, "geometry": {"type": "LineString", "coordinates": [[121.4635438, 31.2031442], [121.4633762, 31.2037506], [121.4631599, 31.2045114], [121.4630118, 31.2049604], [121.4629528, 31.2051182], [121.4628015, 31.205501], [121.462518, 31.2061168], [121.4623717, 31.2064242]]}}, {"type": "Feature", "properties": {"name": "\u8087\u5609\u6d5c\u8def", "highway": "primary"}, "geometry": {"type": "LineString", "coordinates": [[121.46222557416459, 31.206389151191228], [121.4622275, 31.2063899], [121.4623717, 31.2064242]]}}, {"type": "Feature", "properties": {"name": "\u745e\u91d1\u5357\u8def", "highway": "secondary"}, "geometry": {"type": "LineString", "coordinates": [[121.4620758, 31.2068264], [121.46213631789034, 31.20640635570787]]}}, {"type": "Feature", "properties": {"name": null, "highway": "footway"}, "geometry": {"type": "MultiLineString", "coordinates": [[[121.4625659, 31.2071708], [121.4619698, 31.2069666], [121.4618357, 31.2068829], [121.4617002, 31.2067315], [121.4617736, 31.2066084], [121.4619345557246, 31.20631717592688]], [[121.46237818028159, 31.20607357201217], [121.462518, 31.2061168], [121.4626564, 31.2061637], [121.462643, 31.2062589], [121.4626551, 31.2063633], [121.4627235, 31.206494], [121.4628468, 31.2066213], [121.463048, 31.2067372]]]}}, {"type": "Feature", "properties": {"name": "\u8087\u5609\u6d5c\u8def", "highway": "primary"}, "geometry": {"type": "LineString", "coordinates": [[121.4623717, 31.2064242], [121.4629672, 31.2068349]]}}, {"type": "Feature", "properties": {"name": "\u745e\u91d1\u4e8c\u8def", "highway": "secondary"}, "geometry": {"type": "LineString", "coordinates": [[121.4623717, 31.2064242], [121.462906, 31.2068533], [121.4629609, 31.2069255], [121.4629635, 31.2070744]]}}, {"type": "Feature", "properties": {"name": null, "highway": "steps"}, "geometry": {"type": "LineString", "coordinates": [[121.463048, 31.2067372], [121.4631667, 31.2067951], [121.4632595, 31.2068429]]}}, {"type": "Feature", "properties": {"name": null, "highway": "steps"}, "geometry": {"type": "LineString", "coordinates": [[121.4634832, 31.20688], [121.4633256, 31.2068381], [121.4632595, 31.2068429]]}}, {"type": "Feature", "properties": {"name": "\u8087\u5609\u6d5c\u8def", "highway": "primary"}, "geometry": {"type": "LineString", "coordinates": [[121.4621736, 31.2069105], [121.4620758, 31.2068264]]}}, {"type": "Feature", "properties": {"name": null, "highway": "footway"}, "geometry": {"type": "LineString", "coordinates": [[121.4627405, 31.2072317], [121.4628881, 31.207265], [121.4630369, 31.2072822], [121.4631482, 31.2072776], [121.463226, 31.2072466], [121.4633011, 31.2071824], [121.4633454, 31.207117], [121.4633601, 31.2070413], [121.4633507, 31.2069484], [121.4633105, 31.2068853], [121.4632595, 31.2068429]]}}, {"type": "Feature", "properties": {"name": "\u8087\u5609\u6d5c\u8def", "highway": "primary"}, "geometry": {"type": "LineString", "coordinates": [[121.4629477, 31.2072186], [121.4627576, 31.2071483], [121.4626821, 31.2071211], [121.4626443, 31.2071074], [121.4621736, 31.2069105]]}}, {"type": "Feature", "properties": {"name": "\u745e\u91d1\u4e8c\u8def", "highway": "secondary"}, "geometry": {"type": "LineString", "coordinates": [[121.4629635, 31.2070744], [121.4629477, 31.2072186]]}}, {"type": "Feature", "properties": {"name": null, "highway": "secondary"}, "geometry": {"type": "LineString", "coordinates": [[121.4629635, 31.2070744], [121.4630064, 31.2072278]]}}, {"type": "Feature", "properties": {"name": null, "highway": "steps"}, "geometry": {"type": "LineString", "coordinates": [[121.4625659, 31.2071708], [121.4627107, 31.2072379], [121.4627405, 31.2072317]]}}, {"type": "Feature", "properties": {"name": "\u5f90\u5bb6\u6c47\u8def", "highway": "primary"}, "geometry": {"type": "LineString", "coordinates": [[121.4630064, 31.2072278], [121.4629477, 31.2072186]]}}, {"type": "Feature", "properties": {"name": null, "highway": "steps"}, "geometry": {"type": "LineString", "coordinates": [[121.4628039, 31.2073876], [121.4627945, 31.2073371], [121.4627577, 31.2072838], [121.4627405, 31.2072317]]}}, {"type": "Feature", "properties": {"name": null, "highway": "steps"}, "geometry": {"type": "LineString", "coordinates": [[121.4634262, 31.2073468], [121.4631868, 31.2073193], [121.4631482, 31.2072776]]}}, {"type": "Feature", "properties": {"name": null, "highway": "footway"}, "geometry": {"type": "LineString", "coordinates": [[121.4632706, 31.2075023], [121.4632934, 31.2073853], [121.4634262, 31.2073468]]}}, {"type": "Feature", "properties": {"name": "\u8087\u5609\u6d5c\u8def", "highway": "primary"}, "geometry": {"type": "LineString", "coordinates": [[121.4620758, 31.2068264], [121.4617736, 31.2066084], [121.4612827, 31.2063448], [121.4607677, 31.2060787], [121.4600918, 31.2057392], [121.4592549, 31.2055098], [121.4583323, 31.2053354], [121.4579369, 31.2052503], [121.4576931, 31.205209]]}}, {"type": "Feature", "properties": {"name": "\u9655\u897f\u5357\u8def", "highway": "secondary"}, "geometry": {"type": "LineString", "coordinates": [[121.457444, 31.2084318], [121.4575669, 31.2074885], [121.4576185, 31.2068298], [121.4576365, 31.2061539], [121.4576639, 31.205471], [121.4576931, 31.205209]]}}, {"type": "Feature", "properties": {"name": "\u5efa\u56fd\u897f\u8def", "highway": "tertiary"}, "geometry": {"type": "LineString", "coordinates": [[121.45741135400165, 31.208418388398208], [121.457444, 31.2084318]]}}, {"type": "Feature", "properties": {"name": null, "highway": "service"}, "geometry": {"type": "LineString", "coordinates": [[121.461133, 31.2081221], [121.4615453, 31.2082195]]}}, {"type": "Feature", "properties": {"name": null, "highway": "service"}, "geometry": {"type": "LineString", "coordinates": [[121.4610667, 31.2083773], [121.461484, 31.20847]]}}, {"type": "Feature", "properties": {"name": null, "highway": "service"}, "geometry": {"type": "LineString", "coordinates": [[121.4614684, 31.2085335], [121.461928, 31.2086217]]}}, {"type": "Feature", "properties": {"name": null, "highway": "service"}, "geometry": {"type": "LineString", "coordinates": [[121.461752, 31.2094108], [121.4618132, 31.2092447], [121.4618825, 31.2090405]]}}, {"type": "Feature", "properties": {"name": "\u5efa\u56fd\u897f\u8def", "highway": "tertiary"}, "geometry": {"type": "LineString", "coordinates": [[121.457444, 31.2084318], [121.45772462128086, 31.208528919209428]]}}, {"type": "Feature", "properties": {"name": null, "highway": "footway"}, "geometry": {"type": "LineString", "coordinates": [[121.4634832, 31.20688], [121.4648411, 31.2071318], [121.4649631, 31.2071192], [121.4649117, 31.2072974], [121.4648354, 31.2075125], [121.4647566, 31.207672], [121.4641759, 31.207656], [121.4639492, 31.2075975], [121.4635764, 31.2075378], [121.4632706, 31.2075023], [121.4630534, 31.2075963], [121.4629997, 31.2076835], [121.4628837, 31.2081024], [121.4628269, 31.2080937], [121.4627646, 31.2080841], [121.4626363, 31.2080643], [121.4628039, 31.2073876]]}}, {"type": "Feature", "properties": {"name": null, "highway": "secondary"}, "geometry": {"type": "LineString", "coordinates": [[121.4630064, 31.2072278], [121.4630051, 31.2074174], [121.4628269, 31.2080937], [121.4625407, 31.2091671]]}}, {"type": "Feature", "properties": {"name": null, "highway": "service"}, "geometry": {"type": "LineString", "coordinates": [[121.4618402, 31.209009], [121.461928, 31.2086217], [121.4619748, 31.2084155], [121.461858, 31.2082651]]}}, {"type": "Feature", "properties": {"name": null, "highway": "service"}, "geometry": {"type": "LineString", "coordinates": [[121.4624652, 31.2091512], [121.4623249, 31.2091481], [121.4618825, 31.2090405], [121.4618402, 31.209009], [121.4616015, 31.208831], [121.4614098, 31.208773], [121.4614684, 31.2085335], [121.461484, 31.20847], [121.4615453, 31.2082195]]}}, {"type": "Feature", "properties": {"name": "\u745e\u91d1\u4e8c\u8def", "highway": "secondary"}, "geometry": {"type": "LineString", "coordinates": [[121.4629477, 31.2072186], [121.4629079, 31.2074648], [121.4628876, 31.2075524], [121.4627646, 31.2080841], [121.4624652, 31.2091512], [121.4623919, 31.2093985], [121.4623828, 31.2094271], [121.462346, 31.209561], [121.4623057, 31.209709], [121.4622663, 31.2098531], [121.4621996, 31.2100972], [121.4621130795802, 31.210378326409042]]}}, {"type": "Feature", "properties": {"name": "\u6cf0\u5eb7\u8def", "highway": "secondary"}, "geometry": {"type": "LineString", "coordinates": [[121.4624652, 31.2091512], [121.4625407, 31.2091671]]}}, {"type": "Feature", "properties": {"name": null, "highway": "service"}, "geometry": {"type": "LineString", "coordinates": [[121.4614401, 31.2091448], [121.4618132, 31.2092447], [121.4622824, 31.2093703], [121.4623919, 31.2093985]]}}, {"type": "Feature", "properties": {"name": null, "highway": "footway"}, "geometry": {"type": "LineString", "coordinates": [[121.4638037, 31.2094795], [121.4637725, 31.209559]]}}, {"type": "Feature", "properties": {"name": null, "highway": "footway"}, "geometry": {"type": "LineString", "coordinates": [[121.4637725, 31.209559], [121.4637601, 31.2095905], [121.4637509, 31.2096137]]}}, {"type": "Feature", "properties": {"name": null, "highway": "footway"}, "geometry": {"type": "LineString", "coordinates": [[121.4637509, 31.2096137], [121.4637121, 31.2097127]]}}, {"type": "Feature", "properties": {"name": null, "highway": "footway"}, "geometry": {"type": "LineString", "coordinates": [[121.4654737, 31.2096953], [121.4654956, 31.2096936], [121.4655143, 31.2096822], [121.4655176, 31.2096596], [121.465511, 31.2096416], [121.4655132, 31.2096152], [121.4655276, 31.2095859], [121.4655386, 31.2095726], [121.4655364, 31.2095566], [121.4655243, 31.2095349], [121.4655232, 31.2095131], [121.465532, 31.2094848], [121.4655309, 31.2094612], [121.4655121, 31.2094442], [121.4654613, 31.2094224], [121.4654238, 31.2094224], [121.4653906, 31.2094017], [121.465363, 31.209379], [121.4653188, 31.2093733], [121.4652746, 31.2093894], [121.4652503, 31.2093894], [121.4651995, 31.2093865], [121.465162, 31.2093601], [121.4651178, 31.2093573], [121.4651023, 31.209344], [121.4650615, 31.2093469], [121.4650339, 31.2093289], [121.464972, 31.2093261], [121.4649113, 31.2092722], [121.4648616, 31.209243], [121.4647831, 31.209226], [121.4647323, 31.2092505], [121.464708, 31.2092515], [121.4646703, 31.2092867]]}}, {"type": "Feature", "properties": {"name": null, "highway": "service"}, "geometry": {"type": "LineString", "coordinates": [[121.4643206, 31.2095421], [121.4643669, 31.209427]]}}, {"type": "Feature", "properties": {"name": null, "highway": "footway"}, "geometry": {"type": "LineString", "coordinates": [[121.4643017, 31.2095959], [121.4643206, 31.2095421]]}}, {"type": "Feature", "properties": {"name": null, "highway": "footway"}, "geometry": {"type": "LineString", "coordinates": [[121.4642838, 31.2096524], [121.4643017, 31.2095959]]}}, {"type": "Feature", "properties": {"name": null, "highway": "service"}, "geometry": {"type": "LineString", "coordinates": [[121.4651119, 31.2094398], [121.4652426, 31.2094507], [121.4653247, 31.20947], [121.4653923, 31.2095104], [121.4654319, 31.2095658], [121.4654348, 31.2096356], [121.4654153, 31.2098099]]}}, {"type": "Feature", "properties": {"name": null, "highway": "footway"}, "geometry": {"type": "LineString", "coordinates": [[121.4635508, 31.2095329], [121.4637601, 31.2095905], [121.4642615, 31.2097251], [121.4644407, 31.2097757]]}}, {"type": "Feature", "properties": {"name": "\u6cf0\u5eb7\u8def", "highway": "residential"}, "geometry": {"type": "LineString", "coordinates": [[121.4625407, 31.2091671], [121.4635385, 31.2093637], [121.463827, 31.2094214], [121.4643206, 31.2095421], [121.4648428, 31.2096699], [121.4651709, 31.2097501], [121.4654153, 31.2098099], [121.4656387, 31.2098646], [121.4658877, 31.2099255], [121.4667776, 31.2101432]]}}, {"type": "Feature", "properties": {"name": null, "highway": "footway"}, "geometry": {"type": "LineString", "coordinates": [[121.4642615, 31.2097251], [121.4642838, 31.2096524]]}}, {"type": "Feature", "properties": {"name": null, "highway": "footway"}, "geometry": {"type": "LineString", "coordinates": [[121.4642063, 31.2098837], [121.4642615, 31.2097251]]}}, {"type": "Feature", "properties": {"name": null, "highway": "footway"}, "geometry": {"type": "LineString", "coordinates": [[121.4636963, 31.2097528], [121.4642063, 31.2098837], [121.464364, 31.2099241]]}}, {"type": "Feature", "properties": {"name": null, "highway": "service"}, "geometry": {"type": "LineString", "coordinates": [[121.4623057, 31.209709], [121.4619733, 31.2096207]]}}, {"type": "Feature", "properties": {"name": null, "highway": "footway"}, "geometry": {"type": "LineString", "coordinates": [[121.4635161, 31.2096628], [121.4637094, 31.2097194]]}}, {"type": "Feature", "properties": {"name": null, "highway": "footway"}, "geometry": {"type": "LineString", "coordinates": [[121.4637121, 31.2097127], [121.4637094, 31.2097194], [121.4636963, 31.2097528], [121.4636837, 31.2097665]]}}, {"type": "Feature", "properties": {"name": null, "highway": "footway"}, "geometry": {"type": "LineString", "coordinates": [[121.4636837, 31.2097665], [121.4636466, 31.209865]]}}, {"type": "Feature", "properties": {"name": null, "highway": "service"}, "geometry": {"type": "LineString", "coordinates": [[121.4622663, 31.2098531], [121.462329, 31.209866]]}}, {"type": "Feature", "properties": {"name": null, "highway": "footway"}, "geometry": {"type": "LineString", "coordinates": [[121.4636292, 31.2099232], [121.4635845, 31.2099145], [121.4634839, 31.2099575], [121.463339, 31.2098978], [121.4631315, 31.2098444]]}}, {"type": "Feature", "properties": {"name": null, "highway": "service"}, "geometry": {"type": "LineString", "coordinates": [[121.4630752, 31.210019], [121.4630914, 31.2099687], [121.4631315, 31.2098444], [121.4631446, 31.209804]]}}, {"type": "Feature", "properties": {"name": null, "highway": "service"}, "geometry": {"type": "LineString", "coordinates": [[121.462329, 31.209866], [121.4630752, 31.210019]]}}, {"type": "Feature", "properties": {"name": null, "highway": "footway"}, "geometry": {"type": "LineString", "coordinates": [[121.4636466, 31.209865], [121.463635, 31.2099085], [121.4636292, 31.2099232], [121.4635706, 31.2100723]]}}, {"type": "Feature", "properties": {"name": null, "highway": "footway"}, "geometry": {"type": "LineString", "coordinates": [[121.4635706, 31.2100723], [121.463457, 31.2100751], [121.4630914, 31.2099687]]}}, {"type": "Feature", "properties": {"name": null, "highway": "service"}, "geometry": {"type": "LineString", "coordinates": [[121.4613636, 31.2093105], [121.461752, 31.2094108], [121.462346, 31.209561]]}}, {"type": "Feature", "properties": {"name": "\u9655\u897f\u5357\u8def", "highway": "secondary"}, "geometry": {"type": "LineString", "coordinates": [[121.45744173655791, 31.208449835726917], [121.457444, 31.2084318]]}}, {"type": "Feature", "properties": {"name": null, "highway": "footway"}, "geometry": {"type": "LineString", "coordinates": [[121.4635706, 31.2100723], [121.4636591, 31.2100952], [121.4638353, 31.2101407], [121.4640274, 31.2101904]]}}, {"type": "Feature", "properties": {"name": null, "highway": "footway"}, "geometry": {"type": "LineString", "coordinates": [[121.4635539, 31.2103939], [121.4636591, 31.2100952]]}}, {"type": "Feature", "properties": {"name": null, "highway": "footway"}, "geometry": {"type": "LineString", "coordinates": [[121.4637288, 31.2104424], [121.4638353, 31.2101407]]}}, {"type": "Feature", "properties": {"name": null, "highway": "footway"}, "geometry": {"type": "LineString", "coordinates": [[121.46329373960329, 31.210888657761483], [121.463498, 31.2105105], [121.4635539, 31.2103939], [121.4637288, 31.2104424], [121.4639138, 31.2104936], [121.4640274, 31.2101904], [121.4640995, 31.2102063], [121.4641513, 31.2100495], [121.4642063, 31.2098837]]}}, {"type": "Feature", "properties": {"name": null, "highway": "footway"}, "geometry": {"type": "LineString", "coordinates": [[121.463498, 31.2105105], [121.4638511, 31.2106016]]}}, {"type": "Feature", "properties": {"name": "\u601d\u5357\u8def", "highway": "residential"}, "geometry": {"type": "LineString", "coordinates": [[121.46562382884005, 31.211880430024838], [121.4656416, 31.2118504], [121.4660288, 31.2111725], [121.4663445, 31.2107302], [121.4663666, 31.2106993], [121.4667776, 31.2101432]]}}, {"type": "Feature", "properties": {"name": "\u987a\u660c\u8def", "highway": "residential"}, "geometry": {"type": "LineString", "coordinates": [[121.4754559, 31.2124702], [121.4753993, 31.2125475], [121.4753442, 31.2126228], [121.4753256, 31.2126808], [121.4752484, 31.212921]]}}, {"type": "Feature", "properties": {"name": null, "highway": "residential"}, "geometry": {"type": "LineString", "coordinates": [[121.4754689, 31.2126447], [121.4754229, 31.2127519], [121.4752484, 31.212921]]}}, {"type": "Feature", "properties": {"name": null, "highway": "service"}, "geometry": {"type": "LineString", "coordinates": [[121.4715592, 31.2125783], [121.471637, 31.2126029], [121.4734173, 31.2131661], [121.4735425, 31.2132057]]}}, {"type": "Feature", "properties": {"name": "\u9646\u5bb6\u6d5c\u8def", "highway": "residential"}, "geometry": {"type": "LineString", "coordinates": [[121.4770356, 31.2132893], [121.4768998, 31.2133026], [121.4762705, 31.2131706], [121.4760996, 31.2131244], [121.4759053, 31.2130307], [121.4756286, 31.2127927], [121.4754689, 31.2126447]]}}, {"type": "Feature", "properties": {"name": "\u5f90\u5bb6\u6c47\u8def", "highway": "primary"}, "geometry": {"type": "LineString", "coordinates": [[121.4770356, 31.2132893], [121.4766241, 31.2131498], [121.4762765, 31.2129734], [121.4757918, 31.2126651]]}}, {"type": "Feature", "properties": {"name": "\u9ec4\u9642\u5357\u8def", "highway": "tertiary"}, "geometry": {"type": "LineString", "coordinates": [[121.4730115, 31.2145542], [121.4732864, 31.2136747], [121.4734012, 31.2134442], [121.4735425, 31.2132057], [121.4738765, 31.2128143], [121.4740038, 31.212664], [121.4745689, 31.2120663]]}}, {"type": "Feature", "properties": {"name": "\u9a6c\u5f53\u8def", "highway": "tertiary"}, "geometry": {"type": "LineString", "coordinates": [[121.4718336, 31.2112391], [121.4717986, 31.2113097], [121.4717777, 31.2113885], [121.4716057, 31.2123614], [121.4715592, 31.2125783], [121.4713761, 31.2134329], [121.4713331, 31.2138663], [121.4713139, 31.2139737], [121.4713125706951, 31.21398028047205]]}}, {"type": "Feature", "properties": {"name": "\u5efa\u56fd\u4e1c\u8def", "highway": "tertiary"}, "geometry": {"type": "LineString", "coordinates": [[121.47115408152749, 31.213924248176596], [121.4712098, 31.2139431], [121.4713139, 31.2139737], [121.4714313, 31.2140082], [121.4730115, 31.2145542]]}}, {"type": "Feature", "properties": {"name": "\u6c38\u5e74\u8def", "highway": "residential"}, "geometry": {"type": "LineString", "coordinates": [[121.4732864, 31.2136747], [121.4748502, 31.214133], [121.4749911, 31.2141739], [121.4752579, 31.2142161], [121.4755466, 31.2142257], [121.4760358, 31.2141975], [121.4763147, 31.2141928], [121.4765201, 31.2142016], [121.4767185, 31.2142231], [121.47707996829071, 31.21429929230499]]}}, {"type": "Feature", "properties": {"name": "\u987a\u660c\u8def", "highway": "residential"}, "geometry": {"type": "LineString", "coordinates": [[121.4752484, 31.212921], [121.4752106, 31.2130271], [121.4751434, 31.2132947], [121.4749911, 31.2141739], [121.474776, 31.2151736]]}}, {"type": "Feature", "properties": {"name": "\u5efa\u56fd\u4e1c\u8def", "highway": "tertiary"}, "geometry": {"type": "LineString", "coordinates": [[121.4730115, 31.2145542], [121.4731136, 31.2146001], [121.474776, 31.2151736]]}}, {"type": "Feature", "properties": {"name": "\u5efa\u56fd\u4e1c\u8def", "highway": "tertiary"}, "geometry": {"type": "LineString", "coordinates": [[121.474776, 31.2151736], [121.4755833, 31.2154532], [121.4765076, 31.215793], [121.47657143994441, 31.215815823607066]]}}, {"type": "Feature", "properties": {"name": "\u987a\u660c\u8def", "highway": "residential"}, "geometry": {"type": "LineString", "coordinates": [[121.474776, 31.2151736], [121.47477023801552, 31.215200182201404]]}}, {"type": "Feature", "properties": {"name": "\u9ec4\u9642\u5357\u8def", "highway": "tertiary"}, "geometry": {"type": "LineString", "coordinates": [[121.47300521577154, 31.214578698587626], [121.4730115, 31.2145542]]}}, {"type": "Feature", "properties": {"name": "\u91cd\u5e86\u5357\u8def", "highway": "primary"}, "geometry": {"type": "LineString", "coordinates": [[121.4673953, 31.2126051], [121.4679283, 31.2117187], [121.4680316, 31.2115409], [121.4681442, 31.2112473], [121.4681669, 31.2110702]]}}, {"type": "Feature", "properties": {"name": "\u91cd\u5e86\u5357\u8def", "highway": "primary"}, "geometry": {"type": "LineString", "coordinates": [[121.4686379, 31.2110267], [121.4686444, 31.2111796], [121.4684619, 31.2116013], [121.4682431, 31.2119488], [121.4680543, 31.2122802], [121.46772494069484, 31.212753629229862]]}}, {"type": "Feature", "properties": {"name": null, "highway": "trunk_link"}, "geometry": {"type": "LineString", "coordinates": [[121.46733490640139, 31.212608727996866], [121.4677083, 31.2120155], [121.4679918, 31.2115148]]}}, {"type": "Feature", "properties": {"name": "\u5efa\u56fd\u4e2d\u8def", "highway": "tertiary"}, "geometry": {"type": "LineString", "coordinates": [[121.4673071, 31.2125658], [121.4673953, 31.2126051]]}}, {"type": "Feature", "properties": {"name": "\u5efa\u56fd\u4e2d\u8def", "highway": "tertiary"}, "geometry": {"type": "LineString", "coordinates": [[121.4673953, 31.2126051], [121.4675125, 31.2126573]]}}, {"type": "Feature", "properties": {"name": null, "highway": "trunk_link"}, "geometry": {"type": "LineString", "coordinates": [[121.4683416, 31.2116768], [121.4679688, 31.2122629], [121.46766081614979, 31.21273233518634]]}}, {"type": "Feature", "properties": {"name": "\u5efa\u56fd\u4e1c\u8def", "highway": "tertiary"}, "geometry": {"type": "LineString", "coordinates": [[121.4675125, 31.2126573], [121.4676259, 31.2127118], [121.46768583203368, 31.21274064229121]]}}, {"type": "Feature", "properties": {"name": "\u91cd\u5e86\u5357\u8def", "highway": "primary"}, "geometry": {"type": "LineString", "coordinates": [[121.4686379, 31.2110267], [121.4685599, 31.2110701], [121.4682971, 31.2116476], [121.4680691, 31.2119917], [121.4676259, 31.2127118], [121.46762100748529, 31.21271911579533]]}}, {"type": "Feature", "properties": {"name": "\u91cd\u5e86\u5357\u8def", "highway": "primary"}, "geometry": {"type": "LineString", "coordinates": [[121.46729163054839, 31.212590308191306], [121.4673071, 31.2125658]]}}, {"type": "Feature", "properties": {"name": "\u91cd\u5e86\u5357\u8def", "highway": "primary"}, "geometry": {"type": "LineString", "coordinates": [[121.46738055090911, 31.21262815598959], [121.4673953, 31.2126051]]}}, {"type": "Feature", "properties": {"name": "\u5f90\u5bb6\u6c47\u8def", "highway": "primary"}, "geometry": {"type": "LineString", "coordinates": [[121.471565, 31.2111562], [121.4713637, 31.211061], [121.469103, 31.2105739]]}}, {"type": "Feature", "properties": {"name": "\u5f90\u5bb6\u6c47\u8def", "highway": "primary"}, "geometry": {"type": "LineString", "coordinates": [[121.471565, 31.2111562], [121.4706193, 31.2109736], [121.4692157, 31.2106771]]}}, {"type": "Feature", "properties": {"name": null, "highway": "secondary"}, "geometry": {"type": "LineString", "coordinates": [[121.471565, 31.2111562], [121.4712608, 31.2111555], [121.4695402, 31.2108285], [121.4690502, 31.2107236], [121.4689582, 31.2107161], [121.4688839, 31.2107419], [121.4687663, 31.2108327], [121.4686879, 31.2108895]]}}, {"type": "Feature", "properties": {"name": null, "highway": "service"}, "geometry": {"type": "LineString", "coordinates": [[121.4680543, 31.2122802], [121.4697493, 31.21281], [121.4698562, 31.2129107], [121.4698798, 31.2130314]]}}, {"type": "Feature", "properties": {"name": "\u6de1\u6c34\u8def", "highway": "residential"}, "geometry": {"type": "LineString", "coordinates": [[121.4698798, 31.2130314], [121.46977679228719, 31.21343732103324]]}}]}