{"type": "FeatureCollection", "features": [{"type": "Feature", "properties": {"bid": "1119", "heritage": true, "editable": false, "heritage_record_ids": "HP-84", "heritage_names": "漫画会旧址", "heritage_addresses": "黄陂南路847弄9号", "evidence_confidence": "medium", "evidence_class": "official_record_plus_reviewed_geocoded_building_match", "geometry_status": "preannotated_frozen", "constraint_status": "formal_research_constraint", "legal_boundary": false, "include_in_optimization": true, "review_status": "frozen_research_input", "freeze_date": "2026-09-27", "source": "https://www.shhuangpu.gov.cn/uploadfile/6051185f-9fc3-44b3-93e3-e4aa4c122c1a/%E9%BB%84%E6%B5%A6%E5%8C%BA%E7%AC%AC%E4%BA%8C%E6%89%B9%E6%96%87%E7%89%A9%E4%BF%9D%E6%8A%A4%E7%82%B9%E5%85%AC%E5%B8%83%E5%90%8D%E5%8D%95.pdf"}, "geometry": {"type": "Polygon", "coordinates": [[[121.4730333372464, 31.2132841362328], [121.4727877162784, 31.21319017519494], [121.4726736492911, 31.213408685672224], [121.47291826868138, 31.213502636528357], [121.4730333372464, 31.2132841362328]]]}}, {"type": "Feature", "properties": {"bid": "1167", "heritage": true, "editable": false, "heritage_record_ids": "HP-86", "heritage_names": "天祥里", "heritage_addresses": "永年路149弄", "evidence_confidence": "high", "evidence_class": "official_record_plus_reviewed_geocoded_building_match", "geometry_status": "preannotated_frozen", "constraint_status": "formal_research_constraint", "legal_boundary": false, "include_in_optimization": true, "review_status": "frozen_research_input", "freeze_date": "2026-09-27", "source": "https://www.shhuangpu.gov.cn/uploadfile/6051185f-9fc3-44b3-93e3-e4aa4c122c1a/%E9%BB%84%E6%B5%A6%E5%8C%BA%E7%AC%AC%E4%BA%8C%E6%89%B9%E6%96%87%E7%89%A9%E4%BF%9D%E6%8A%A4%E7%82%B9%E5%85%AC%E5%B8%83%E5%90%8D%E5%8D%95.pdf"}, "geometry": {"type": "Polygon", "coordinates": [[[121.47422426912577, 31.213034339816886], [121.47415835180938, 31.21301803587329], [121.47414533143024, 31.213053751518828], [121.47382673936433, 31.212975421379504], [121.47377767400201, 31.213100349291597], [121.47416816921067, 31.213201107016978], [121.47422426912577, 31.213034339816886]]]}}, {"type": "Feature", "properties": {"bid": "1168", "heritage": true, "editable": false, "heritage_record_ids": "HP-86", "heritage_names": "天祥里", "heritage_addresses": "永年路149弄", "evidence_confidence": "high", "evidence_class": "official_record_plus_reviewed_geocoded_building_match", "geometry_status": "preannotated_frozen", "constraint_status": "formal_research_constraint", "legal_boundary": false, "include_in_optimization": true, "review_status": "frozen_research_input", "freeze_date": "2026-09-27", "source": "https://www.shhuangpu.gov.cn/uploadfile/6051185f-9fc3-44b3-93e3-e4aa4c122c1a/%E9%BB%84%E6%B5%A6%E5%8C%BA%E7%AC%AC%E4%BA%8C%E6%89%B9%E6%96%87%E7%89%A9%E4%BF%9D%E6%8A%A4%E7%82%B9%E5%85%AC%E5%B8%83%E5%90%8D%E5%8D%95.pdf"}, "geometry": {"type": "Polygon", "coordinates": [[[121.47416611692769, 31.213259026611915], [121.47389248240712, 31.213173606963903], [121.47384142699458, 31.213290501865792], [121.47412903966678, 31.213382202435405], [121.47416611692769, 31.213259026611915]]]}}, {"type": "Feature", "properties": {"bid": "1170", "heritage": true, "editable": false, "heritage_record_ids": "HP-86", "heritage_names": "天祥里", "heritage_addresses": "永年路149弄", "evidence_confidence": "high", "evidence_class": "official_record_plus_reviewed_geocoded_building_match", "geometry_status": "preannotated_frozen", "constraint_status": "formal_research_constraint", "legal_boundary": false, "include_in_optimization": true, "review_status": "frozen_research_input", "freeze_date": "2026-09-27", "source": "https://www.shhuangpu.gov.cn/uploadfile/6051185f-9fc3-44b3-93e3-e4aa4c122c1a/%E9%BB%84%E6%B5%A6%E5%8C%BA%E7%AC%AC%E4%BA%8C%E6%89%B9%E6%96%87%E7%89%A9%E4%BF%9D%E6%8A%A4%E7%82%B9%E5%85%AC%E5%B8%83%E5%90%8D%E5%8D%95.pdf"}, "geometry": {"type": "Polygon", "coordinates": [[[121.47412102193755, 31.213410023346853], [121.47382941104229, 31.213321239446316], [121.473763332981, 31.213480801861866], [121.47407192099627, 31.213572931210585], [121.47412102193755, 31.213410023346853]]]}}, {"type": "Feature", "properties": {"bid": "1176", "heritage": true, "editable": false, "heritage_record_ids": "HP-86", "heritage_names": "天祥里", "heritage_addresses": "永年路149弄", "evidence_confidence": "high", "evidence_class": "official_record_plus_reviewed_geocoded_building_match", "geometry_status": "preannotated_frozen", "constraint_status": "formal_research_constraint", "legal_boundary": false, "include_in_optimization": true, "review_status": "frozen_research_input", "freeze_date": "2026-09-27", "source": "https://www.shhuangpu.gov.cn/uploadfile/6051185f-9fc3-44b3-93e3-e4aa4c122c1a/%E9%BB%84%E6%B5%A6%E5%8C%BA%E7%AC%AC%E4%BA%8C%E6%89%B9%E6%96%87%E7%89%A9%E4%BF%9D%E6%8A%A4%E7%82%B9%E5%85%AC%E5%B8%83%E5%90%8D%E5%8D%95.pdf"}, "geometry": {"type": "Polygon", "coordinates": [[[121.47427935330245, 31.212886538298164], [121.47398871934752, 31.212815781367], [121.47394263967976, 31.212950765403548], [121.47423427105569, 31.213021547927198], [121.47427935330245, 31.212886538298164]]]}}, {"type": "Feature", "properties": {"bid": "1178", "heritage": true, "editable": false, "heritage_record_ids": "HP-86", "heritage_names": "天祥里", "heritage_addresses": "永年路149弄", "evidence_confidence": "high", "evidence_class": "official_record_plus_reviewed_geocoded_building_match", "geometry_status": "preannotated_frozen", "constraint_status": "formal_research_constraint", "legal_boundary": false, "include_in_optimization": true, "review_status": "frozen_research_input", "freeze_date": "2026-09-27", "source": "https://www.shhuangpu.gov.cn/uploadfile/6051185f-9fc3-44b3-93e3-e4aa4c122c1a/%E9%BB%84%E6%B5%A6%E5%8C%BA%E7%AC%AC%E4%BA%8C%E6%89%B9%E6%96%87%E7%89%A9%E4%BF%9D%E6%8A%A4%E7%82%B9%E5%85%AC%E5%B8%83%E5%90%8D%E5%8D%95.pdf"}, "geometry": {"type": "Polygon", "coordinates": [[[121.47498644319853, 31.213131340283606], [121.47436221367627, 31.21294614603289], [121.47431114575375, 31.213072044452407], [121.47493736957041, 31.213257292259176], [121.47498644319853, 31.213131340283606]]]}}, {"type": "Feature", "properties": {"bid": "1180", "heritage": true, "editable": false, "heritage_record_ids": "HP-86", "heritage_names": "天祥里", "heritage_addresses": "永年路149弄", "evidence_confidence": "high", "evidence_class": "official_record_plus_reviewed_geocoded_building_match", "geometry_status": "preannotated_frozen", "constraint_status": "formal_research_constraint", "legal_boundary": false, "include_in_optimization": true, "review_status": "frozen_research_input", "freeze_date": "2026-09-27", "source": "https://www.shhuangpu.gov.cn/uploadfile/6051185f-9fc3-44b3-93e3-e4aa4c122c1a/%E9%BB%84%E6%B5%A6%E5%8C%BA%E7%AC%AC%E4%BA%8C%E6%89%B9%E6%96%87%E7%89%A9%E4%BF%9D%E6%8A%A4%E7%82%B9%E5%85%AC%E5%B8%83%E5%90%8D%E5%8D%95.pdf"}, "geometry": {"type": "Polygon", "coordinates": [[[121.47496031533387, 31.213292718158186], [121.47429413960742, 31.213096689177583], [121.47424607337496, 31.213218648746643], [121.47491224528481, 31.213414692110746], [121.47496031533387, 31.213292718158186]]]}}, {"type": "Feature", "properties": {"bid": "1181", "heritage": true, "editable": false, "heritage_record_ids": "HP-86", "heritage_names": "天祥里", "heritage_addresses": "永年路149弄", "evidence_confidence": "high", "evidence_class": "official_record_plus_reviewed_geocoded_building_match", "geometry_status": "preannotated_frozen", "constraint_status": "formal_research_constraint", "legal_boundary": false, "include_in_optimization": true, "review_status": "frozen_research_input", "freeze_date": "2026-09-27", "source": "https://www.shhuangpu.gov.cn/uploadfile/6051185f-9fc3-44b3-93e3-e4aa4c122c1a/%E9%BB%84%E6%B5%A6%E5%8C%BA%E7%AC%AC%E4%BA%8C%E6%89%B9%E6%96%87%E7%89%A9%E4%BF%9D%E6%8A%A4%E7%82%B9%E5%85%AC%E5%B8%83%E5%90%8D%E5%8D%95.pdf"}, "geometry": {"type": "Polygon", "coordinates": [[[121.47471934798261, 31.213497840612888], [121.47463744995092, 31.21347224165277], [121.4746654822643, 31.213408838328238], [121.47419608386133, 31.21326162282179], [121.4741590055254, 31.21338579841852], [121.4746933164704, 31.2135582861452], [121.47471934798261, 31.213497840612888]]]}}, {"type": "Feature", "properties": {"bid": "1183", "heritage": true, "editable": false, "heritage_record_ids": "HP-86", "heritage_names": "天祥里", "heritage_addresses": "永年路149弄", "evidence_confidence": "high", "evidence_class": "official_record_plus_reviewed_geocoded_building_match", "geometry_status": "preannotated_frozen", "constraint_status": "formal_research_constraint", "legal_boundary": false, "include_in_optimization": true, "review_status": "frozen_research_input", "freeze_date": "2026-09-27", "source": "https://www.shhuangpu.gov.cn/uploadfile/6051185f-9fc3-44b3-93e3-e4aa4c122c1a/%E9%BB%84%E6%B5%A6%E5%8C%BA%E7%AC%AC%E4%BA%8C%E6%89%B9%E6%96%87%E7%89%A9%E4%BF%9D%E6%8A%A4%E7%82%B9%E5%85%AC%E5%B8%83%E5%90%8D%E5%8D%95.pdf"}, "geometry": {"type": "Polygon", "coordinates": [[[121.47429668529516, 31.21357941152042], [121.47441253684076, 31.213614690668518], [121.47443256026315, 31.213568119715607], [121.47457538081517, 31.213610920520804], [121.4746054190091, 31.213538563632824], [121.47414600696914, 31.213398530226982], [121.47409690394956, 31.21356343719578], [121.47428066556529, 31.213618066386005], [121.47429668529516, 31.21357941152042]]]}}, {"type": "Feature", "properties": {"bid": "1196", "heritage": true, "editable": false, "heritage_record_ids": "HP-85", "heritage_names": "上海美术专科学校旧址", "heritage_addresses": "顺昌路560号", "evidence_confidence": "medium", "evidence_class": "official_record_plus_reviewed_geocoded_building_match", "geometry_status": "preannotated_frozen", "constraint_status": "formal_research_constraint", "legal_boundary": false, "include_in_optimization": true, "review_status": "frozen_research_input", "freeze_date": "2026-09-27", "source": "https://www.shhuangpu.gov.cn/uploadfile/6051185f-9fc3-44b3-93e3-e4aa4c122c1a/%E9%BB%84%E6%B5%A6%E5%8C%BA%E7%AC%AC%E4%BA%8C%E6%89%B9%E6%96%87%E7%89%A9%E4%BF%9D%E6%8A%A4%E7%82%B9%E5%85%AC%E5%B8%83%E5%90%8D%E5%8D%95.pdf"}, "geometry": {"type": "Polygon", "coordinates": [[[121.47502696450329, 31.21360381247773], [121.47490609283295, 31.213584456023735], [121.47483184824624, 31.213923767413515], [121.47495371695801, 31.213944146910922], [121.47502696450329, 31.21360381247773]]]}}, {"type": "Feature", "properties": {"bid": "1220", "heritage": true, "editable": false, "heritage_record_ids": "HP-87", "heritage_names": "佛化祗园法会旧址", "heritage_addresses": "永年路78弄3号", "evidence_confidence": "high", "evidence_class": "official_record_plus_reviewed_geocoded_building_match", "geometry_status": "preannotated_frozen", "constraint_status": "formal_research_constraint", "legal_boundary": false, "include_in_optimization": true, "review_status": "frozen_research_input", "freeze_date": "2026-09-27", "source": "https://www.shhuangpu.gov.cn/uploadfile/6051185f-9fc3-44b3-93e3-e4aa4c122c1a/%E9%BB%84%E6%B5%A6%E5%8C%BA%E7%AC%AC%E4%BA%8C%E6%89%B9%E6%96%87%E7%89%A9%E4%BF%9D%E6%8A%A4%E7%82%B9%E5%85%AC%E5%B8%83%E5%90%8D%E5%8D%95.pdf"}, "geometry": {"type": "Polygon", "coordinates": [[[121.47584247754901, 31.214476028350422], [121.47583856823324, 31.21437901857246], [121.47562173476888, 31.214386842424048], [121.47562564399256, 31.21448385264295], [121.47584247754901, 31.214476028350422]]]}}, {"type": "Feature", "properties": {"bid": "1296", "heritage": true, "editable": false, "heritage_record_ids": "HP-73", "heritage_names": "荣金大戏院旧址", "heritage_addresses": "建国东路11号", "evidence_confidence": "high", "evidence_class": "official_record_plus_reviewed_geocoded_building_match", "geometry_status": "preannotated_frozen", "constraint_status": "formal_research_constraint", "legal_boundary": false, "include_in_optimization": true, "review_status": "frozen_research_input", "freeze_date": "2026-09-27", "source": "https://www.shhuangpu.gov.cn/uploadfile/6051185f-9fc3-44b3-93e3-e4aa4c122c1a/%E9%BB%84%E6%B5%A6%E5%8C%BA%E7%AC%AC%E4%BA%8C%E6%89%B9%E6%96%87%E7%89%A9%E4%BF%9D%E6%8A%A4%E7%82%B9%E5%85%AC%E5%B8%83%E5%90%8D%E5%8D%95.pdf"}, "geometry": {"type": "Polygon", "coordinates": [[[121.47632010517519, 31.21562636312632], [121.47611331752273, 31.215554484617822], [121.47608323855252, 31.215671834019304], [121.47629103421833, 31.21573274218173], [121.47632010517519, 31.21562636312632]]]}}, {"type": "Feature", "properties": {"bid": "359", "heritage": true, "editable": false, "heritage_record_ids": "HP-82", "heritage_names": "勤乐邨", "heritage_addresses": "泰康路316弄", "evidence_confidence": "high", "evidence_class": "official_record_plus_reviewed_geocoded_building_match", "geometry_status": "preannotated_frozen", "constraint_status": "formal_research_constraint", "legal_boundary": false, "include_in_optimization": true, "review_status": "frozen_research_input", "freeze_date": "2026-09-27", "source": "https://www.shhuangpu.gov.cn/uploadfile/6051185f-9fc3-44b3-93e3-e4aa4c122c1a/%E9%BB%84%E6%B5%A6%E5%8C%BA%E7%AC%AC%E4%BA%8C%E6%89%B9%E6%96%87%E7%89%A9%E4%BF%9D%E6%8A%A4%E7%82%B9%E5%85%AC%E5%B8%83%E5%90%8D%E5%8D%95.pdf"}, "geometry": {"type": "Polygon", "coordinates": [[[121.46272755617326, 31.20931115631442], [121.46271352378382, 31.20936681558806], [121.46281731994837, 31.209386033270277], [121.46283234949179, 31.20933139496019], [121.46272755617326, 31.20931115631442]]]}}, {"type": "Feature", "properties": {"bid": "371", "heritage": true, "editable": false, "heritage_record_ids": "HP-82", "heritage_names": "勤乐邨", "heritage_addresses": "泰康路316弄", "evidence_confidence": "high", "evidence_class": "official_record_plus_reviewed_geocoded_building_match", "geometry_status": "preannotated_frozen", "constraint_status": "formal_research_constraint", "legal_boundary": false, "include_in_optimization": true, "review_status": "frozen_research_input", "freeze_date": "2026-09-27", "source": "https://www.shhuangpu.gov.cn/uploadfile/6051185f-9fc3-44b3-93e3-e4aa4c122c1a/%E9%BB%84%E6%B5%A6%E5%8C%BA%E7%AC%AC%E4%BA%8C%E6%89%B9%E6%96%87%E7%89%A9%E4%BF%9D%E6%8A%A4%E7%82%B9%E5%85%AC%E5%B8%83%E5%90%8D%E5%8D%95.pdf"}, "geometry": {"type": "Polygon", "coordinates": [[[121.46316561418712, 31.209471472713176], [121.46318665645197, 31.209393980910644], [121.46283234949179, 31.20933139496019], [121.46281230635543, 31.209407910060058], [121.46316561418712, 31.209471472713176]]]}}, {"type": "Feature", "properties": {"bid": "541", "heritage": true, "editable": false, "heritage_record_ids": "HP-79", "heritage_names": "建国中路155弄25号住宅", "heritage_addresses": "建国中路155弄25号", "evidence_confidence": "high", "evidence_class": "official_record_plus_reviewed_geocoded_building_match", "geometry_status": "preannotated_frozen", "constraint_status": "formal_research_constraint", "legal_boundary": false, "include_in_optimization": true, "review_status": "frozen_research_input", "freeze_date": "2026-09-27", "source": "https://www.shhuangpu.gov.cn/uploadfile/6051185f-9fc3-44b3-93e3-e4aa4c122c1a/%E9%BB%84%E6%B5%A6%E5%8C%BA%E7%AC%AC%E4%BA%8C%E6%89%B9%E6%96%87%E7%89%A9%E4%BF%9D%E6%8A%A4%E7%82%B9%E5%85%AC%E5%B8%83%E5%90%8D%E5%8D%95.pdf"}, "geometry": {"type": "Polygon", "coordinates": [[[121.46366906362586, 31.21011589176196], [121.46358024035237, 31.21009698462478], [121.46355719776851, 31.21017942893963], [121.46364502184609, 31.21019931354806], [121.46366906362586, 31.21011589176196]]]}}, {"type": "Feature", "properties": {"bid": "545", "heritage": true, "editable": false, "heritage_record_ids": "HP-78", "heritage_names": "汪亚尘旧居", "heritage_addresses": "建国中路155弄15号", "evidence_confidence": "high", "evidence_class": "official_record_plus_reviewed_geocoded_building_match", "geometry_status": "preannotated_frozen", "constraint_status": "formal_research_constraint", "legal_boundary": false, "include_in_optimization": true, "review_status": "frozen_research_input", "freeze_date": "2026-09-27", "source": "https://www.shhuangpu.gov.cn/uploadfile/6051185f-9fc3-44b3-93e3-e4aa4c122c1a/%E9%BB%84%E6%B5%A6%E5%8C%BA%E7%AC%AC%E4%BA%8C%E6%89%B9%E6%96%87%E7%89%A9%E4%BF%9D%E6%8A%A4%E7%82%B9%E5%85%AC%E5%B8%83%E5%90%8D%E5%8D%95.pdf"}, "geometry": {"type": "Polygon", "coordinates": [[[121.46354410922119, 31.210290068768636], [121.46339740505609, 31.210254924404758], [121.46339040049223, 31.2102717614091], [121.46329758341064, 31.210253770624604], [121.46327353892546, 31.210340191487038], [121.46351206406051, 31.210391305655943], [121.46354410922119, 31.210290068768636]]]}}, {"type": "Feature", "properties": {"bid": "554", "heritage": true, "editable": false, "heritage_record_ids": "HP-80", "heritage_names": "瑞金二路215号住宅", "heritage_addresses": "瑞金二路215号", "evidence_confidence": "high", "evidence_class": "official_record_plus_reviewed_geocoded_building_match", "geometry_status": "preannotated_frozen", "constraint_status": "formal_research_constraint", "legal_boundary": false, "include_in_optimization": true, "review_status": "frozen_research_input", "freeze_date": "2026-09-27", "source": "https://www.shhuangpu.gov.cn/uploadfile/6051185f-9fc3-44b3-93e3-e4aa4c122c1a/%E9%BB%84%E6%B5%A6%E5%8C%BA%E7%AC%AC%E4%BA%8C%E6%89%B9%E6%96%87%E7%89%A9%E4%BF%9D%E6%8A%A4%E7%82%B9%E5%85%AC%E5%B8%83%E5%90%8D%E5%8D%95.pdf"}, "geometry": {"type": "Polygon", "coordinates": [[[121.46246007132743, 31.210251754482663], [121.46228541263542, 31.21022003434643], [121.46225533753717, 31.21034730163114], [121.46242899815367, 31.210378999422737], [121.46246007132743, 31.210251754482663]]]}}, {"type": "Feature", "properties": {"bid": "560", "heritage": true, "editable": false, "heritage_record_ids": "HP-77", "heritage_names": "杨度旧居", "heritage_addresses": "建国中路155弄13号", "evidence_confidence": "high", "evidence_class": "official_record_plus_reviewed_geocoded_building_match", "geometry_status": "preannotated_frozen", "constraint_status": "formal_research_constraint", "legal_boundary": false, "include_in_optimization": true, "review_status": "frozen_research_input", "freeze_date": "2026-09-27", "source": "https://www.shhuangpu.gov.cn/uploadfile/6051185f-9fc3-44b3-93e3-e4aa4c122c1a/%E9%BB%84%E6%B5%A6%E5%8C%BA%E7%AC%AC%E4%BA%8C%E6%89%B9%E6%96%87%E7%89%A9%E4%BF%9D%E6%8A%A4%E7%82%B9%E5%85%AC%E5%B8%83%E5%90%8D%E5%8D%95.pdf"}, "geometry": {"type": "Polygon", "coordinates": [[[121.46350700179086, 31.210462146862824], [121.46322062092851, 31.21035204175007], [121.46316761262018, 31.210453827717615], [121.46345499290976, 31.210562953095117], [121.46350700179086, 31.210462146862824]]]}}, {"type": "Feature", "properties": {"bid": "566", "heritage": true, "editable": false, "heritage_record_ids": "HP-81", "heritage_names": "合丰帽厂旧址", "heritage_addresses": "泰康路248弄48-50号", "evidence_confidence": "high", "evidence_class": "official_record_plus_reviewed_geocoded_building_match", "geometry_status": "preannotated_frozen", "constraint_status": "formal_research_constraint", "legal_boundary": false, "include_in_optimization": true, "review_status": "frozen_research_input", "freeze_date": "2026-09-27", "source": "https://www.shhuangpu.gov.cn/uploadfile/6051185f-9fc3-44b3-93e3-e4aa4c122c1a/%E9%BB%84%E6%B5%A6%E5%8C%BA%E7%AC%AC%E4%BA%8C%E6%89%B9%E6%96%87%E7%89%A9%E4%BF%9D%E6%8A%A4%E7%82%B9%E5%85%AC%E5%B8%83%E5%90%8D%E5%8D%95.pdf"}, "geometry": {"type": "Polygon", "coordinates": [[[121.46444224374329, 31.2105633311831], [121.46416082760403, 31.210477287288768], [121.46411380851634, 31.210579197107844], [121.46439422545268, 31.210666217551708], [121.46444224374329, 31.2105633311831]]]}}, {"type": "Feature", "properties": {"bid": "569", "heritage": true, "editable": false, "heritage_record_ids": "HP-81", "heritage_names": "合丰帽厂旧址", "heritage_addresses": "泰康路248弄48-50号", "evidence_confidence": "high", "evidence_class": "official_record_plus_reviewed_geocoded_building_match", "geometry_status": "preannotated_frozen", "constraint_status": "formal_research_constraint", "legal_boundary": false, "include_in_optimization": true, "review_status": "frozen_research_input", "freeze_date": "2026-09-27", "source": "https://www.shhuangpu.gov.cn/uploadfile/6051185f-9fc3-44b3-93e3-e4aa4c122c1a/%E9%BB%84%E6%B5%A6%E5%8C%BA%E7%AC%AC%E4%BA%8C%E6%89%B9%E6%96%87%E7%89%A9%E4%BF%9D%E6%8A%A4%E7%82%B9%E5%85%AC%E5%B8%83%E5%90%8D%E5%8D%95.pdf"}, "geometry": {"type": "Polygon", "coordinates": [[[121.46428939299564, 31.210683931052927], [121.46436623751926, 31.210703584303356], [121.46440729419395, 31.21057456494708], [121.46410989576009, 31.210499168079995], [121.46407087643911, 31.21058726110925], [121.46429839987422, 31.21066114226874], [121.46428939299564, 31.210683931052927]]]}}, {"type": "Feature", "properties": {"bid": "596", "heritage": true, "editable": false, "heritage_record_ids": "HP-76", "heritage_names": "建国中路103弄18号住宅", "heritage_addresses": "建国中路103弄18号", "evidence_confidence": "high", "evidence_class": "official_record_plus_reviewed_geocoded_building_match", "geometry_status": "preannotated_frozen", "constraint_status": "formal_research_constraint", "legal_boundary": false, "include_in_optimization": true, "review_status": "frozen_research_input", "freeze_date": "2026-09-27", "source": "https://www.shhuangpu.gov.cn/uploadfile/6051185f-9fc3-44b3-93e3-e4aa4c122c1a/%E9%BB%84%E6%B5%A6%E5%8C%BA%E7%AC%AC%E4%BA%8C%E6%89%B9%E6%96%87%E7%89%A9%E4%BF%9D%E6%8A%A4%E7%82%B9%E5%85%AC%E5%B8%83%E5%90%8D%E5%8D%95.pdf"}, "geometry": {"type": "Polygon", "coordinates": [[[121.46511249803666, 31.21113149660147], [121.46488699281008, 31.211031664170594], [121.46482298989247, 31.21114819265739], [121.4650484960564, 31.211247025160954], [121.46511249803666, 31.21113149660147]]]}}]}