{"type": "FeatureCollection", "features": [{"type": "Feature", "properties": {"zone_id": "Z01", "zone_method": "osm_road_corridor_subtraction_small_fragments_merged", "constraint_status": "research_assumption", "review_status": "frozen_research_input", "source": "OpenStreetMap-derived road enclosures; ODbL-1.0", "input_status": "formal_paper_model_input", "statutory_planning_unit": false, "freeze_date": "2026-09-27"}, "geometry": {"type": "Polygon", "coordinates": [[[121.47707270166568, 31.214320980401062], [121.4767137178624, 31.214245311787245], [121.476517802274, 31.214224081013413], [121.47631430352672, 31.214215362467602], [121.47603693583746, 31.214220036642757], [121.47554697178863, 31.214248280678763], [121.4752550032952, 31.214238571990368], [121.47501213463634, 31.21420015725809], [121.4748086237219, 31.21514599704985], [121.47559940372, 31.215419875423517], [121.47652391863078, 31.21575975440159], [121.47658314184386, 31.21578092746673], [121.47707270166568, 31.214320980401062]]]}}, {"type": "Feature", "properties": {"zone_id": "Z02", "zone_method": "osm_road_corridor_subtraction_small_fragments_merged", "constraint_status": "research_assumption", "review_status": "frozen_research_input", "source": "OpenStreetMap-derived road enclosures; ODbL-1.0", "input_status": "formal_paper_model_input", "statutory_planning_unit": false, "freeze_date": "2026-09-27"}, "geometry": {"type": "Polygon", "coordinates": [[[121.47306077534027, 31.2145356317612], [121.4731311934283, 31.214567288848997], [121.47475894712046, 31.21512883665996], [121.47496116400255, 31.214189013250742], [121.47484176761579, 31.21415435523668], [121.4733194008627, 31.213708198279562], [121.47306077534027, 31.2145356317612]]]}}, {"type": "Feature", "properties": {"zone_id": "Z03", "zone_method": "osm_road_corridor_subtraction_small_fragments_merged", "constraint_status": "research_assumption", "review_status": "frozen_research_input", "source": "OpenStreetMap-derived road enclosures; ODbL-1.0", "input_status": "formal_paper_model_input", "statutory_planning_unit": false, "freeze_date": "2026-09-27"}, "geometry": {"type": "MultiPolygon", "coordinates": [[[[121.47702103327613, 31.213341955628618], [121.47702914609978, 31.213312629493547], [121.4770246931487, 31.21331306560929], [121.47701249337295, 31.21333964843511], [121.47695438931011, 31.21331995104687], [121.47689812316703, 31.21332546162803], [121.4762634453727, 31.21319233360248], [121.47608913243543, 31.213145210967365], [121.47588930022778, 31.213048843084938], [121.47560969349178, 31.21280834285696], [121.47547872748895, 31.21268697175822], [121.47544580863376, 31.21276368701368], [121.4752718179907, 31.212932293467944], [121.47523601423134, 31.21303279033234], [121.47516922785438, 31.213298743509025], [121.47502078724405, 31.214155665518703], [121.47526079670321, 31.214193628009447], [121.47554622821133, 31.21420311932117], [121.47603466416287, 31.214174963357152], [121.47631509647287, 31.214170237532308], [121.4765223977247, 31.21417911898645], [121.47672328213517, 31.21420088821241], [121.47708621838473, 31.214277389940587], [121.47707993485113, 31.214299409488167], [121.47737662094731, 31.213414618358645], [121.47702103327613, 31.213341955628618]]], [[[121.47562161637119, 31.21264007461043], [121.47550338239705, 31.212566539625286], [121.47551241320888, 31.212608376147223], [121.47549908286057, 31.212639507412973], [121.47564750650203, 31.21277705714002], [121.47592129976601, 31.213012556912823], [121.47611006755983, 31.213103589031576], [121.47627755462386, 31.213148866396974], [121.47672913298179, 31.213243588399795], [121.47659636530365, 31.2131985794742], [121.47624166624145, 31.213018576809333], [121.47575672726848, 31.2127101247403], [121.47562161637119, 31.21264007461043]]]]}}, {"type": "Feature", "properties": {"zone_id": "Z04", "zone_method": "osm_road_corridor_subtraction_small_fragments_merged", "constraint_status": "research_assumption", "review_status": "frozen_research_input", "source": "OpenStreetMap-derived road enclosures; ODbL-1.0", "input_status": "formal_paper_model_input", "statutory_planning_unit": false, "freeze_date": "2026-09-27"}, "geometry": {"type": "Polygon", "coordinates": [[[121.47341186197232, 31.21317879803089], [121.47163156302537, 31.21261559834614], [121.4715962866266, 31.212604444119073], [121.47141775754241, 31.213437711350483], [121.47137481070017, 31.21387057746845], [121.47136073220507, 31.213949329271177], [121.47144593183498, 31.213974366625223], [121.47298323631014, 31.21450554541458], [121.47324662948844, 31.213662860432233], [121.47336315434276, 31.213428897391523], [121.47349562940495, 31.21320529317917], [121.47341186197232, 31.21317879803089]]]}}, {"type": "Feature", "properties": {"zone_id": "Z05", "zone_method": "osm_road_corridor_subtraction_small_fragments_merged", "constraint_status": "research_assumption", "review_status": "frozen_research_input", "source": "OpenStreetMap-derived road enclosures; ODbL-1.0", "input_status": "formal_paper_model_input", "statutory_planning_unit": false, "freeze_date": "2026-09-27"}, "geometry": {"type": "MultiPolygon", "coordinates": [[[[121.4734392456699, 31.213459502597566], [121.4733366056607, 31.21366558750502], [121.47485863238028, 31.214111644762575], [121.47496976747765, 31.214143904716096], [121.47511757214802, 31.21329065648586], [121.47518518577192, 31.21302140966272], [121.47522320471082, 31.212914695207385], [121.4753003062934, 31.212674801618732], [121.47531993118425, 31.212613605770493], [121.47537709262721, 31.21253548861851], [121.4754001938167, 31.2125039387894], [121.47502282673217, 31.21229845937081], [121.47456751847018, 31.212124977250323], [121.47403708510949, 31.21268601063595], [121.47391039768691, 31.212835587439002], [121.47357836693912, 31.213224679925787], [121.4734392456699, 31.213459502597566]]], [[[121.47542150941734, 31.21255950859338], [121.47536846882063, 31.212631994225045], [121.47535089173446, 31.21268680452306], [121.47530379917801, 31.21283332853608], [121.47539999137203, 31.212740112982406], [121.47544427882202, 31.212636904024823], [121.47545818679251, 31.212604423847086], [121.47544234811384, 31.212531048686976], [121.47542150941734, 31.21255950859338]]]]}}, {"type": "Feature", "properties": {"zone_id": "Z06", "zone_method": "osm_road_corridor_subtraction_small_fragments_merged", "constraint_status": "research_assumption", "review_status": "frozen_research_input", "source": "OpenStreetMap-derived road enclosures; ODbL-1.0", "input_status": "formal_paper_model_input", "statutory_planning_unit": false, "freeze_date": "2026-09-27"}, "geometry": {"type": "Polygon", "coordinates": [[[121.4696684, 31.213398999999985], [121.46975214696148, 31.213428609939008], [121.46985416367458, 31.213026594529424], [121.46986322851195, 31.213028293713094], [121.46984144314646, 31.212916874397095], [121.46974028004686, 31.21282157855577], [121.46810633878894, 31.21231086387651], [121.46778454145965, 31.212773423730038], [121.4696684, 31.213398999999985]]]}}, {"type": "Feature", "properties": {"zone_id": "Z07", "zone_method": "osm_road_corridor_subtraction_small_fragments_merged", "constraint_status": "research_assumption", "review_status": "frozen_research_input", "source": "OpenStreetMap-derived road enclosures; ODbL-1.0", "input_status": "formal_paper_model_input", "statutory_planning_unit": false, "freeze_date": "2026-09-27"}, "geometry": {"type": "MultiPolygon", "coordinates": [[[[121.47177866297231, 31.211623246135137], [121.47164710658456, 31.212367380838714], [121.47160207348244, 31.21257743891248], [121.47164243822533, 31.212590202049697], [121.47342273764437, 31.213153401848007], [121.47351119082575, 31.213181379067336], [121.47384260232846, 31.21279301255246], [121.4739705149061, 31.21264198935585], [121.47448459828446, 31.212098249692644], [121.4730063030545, 31.211652756572885], [121.47198084225444, 31.2113417077593], [121.47187836247925, 31.21131028796391], [121.47177866297231, 31.211623246135137]]], [[[121.47460767599254, 31.211929030333433], [121.47346434957286, 31.211606533715376], [121.47286583213898, 31.21144503216729], [121.47209572436834, 31.211200189724565], [121.47196295937047, 31.211146959321074], [121.47193163969655, 31.211173088123875], [121.47190852335333, 31.21120460722309], [121.47202295772192, 31.211239692236116], [121.47304809692197, 31.211550643422576], [121.47455915519946, 31.212006009531343], [121.47460767599254, 31.211929030333433]]], [[[121.47187334395035, 31.21112115199421], [121.47143597371206, 31.211005176705477], [121.47111520325412, 31.210951661907384], [121.47138691752602, 31.211010204243756], [121.47159098267893, 31.211106711952663], [121.47182752532375, 31.211179717871374], [121.47186596031942, 31.21112731186818], [121.47187334395035, 31.21112115199421]]], [[[121.47181897390324, 31.211395228970645], [121.47180579986079, 31.211469747551572], [121.47185853560116, 31.211304209128837], [121.47184848360442, 31.211301127228666], [121.47183869583584, 31.211320870561234], [121.47181897390324, 31.211395228970645]]]]}}, {"type": "Feature", "properties": {"zone_id": "Z08", "zone_method": "osm_road_corridor_subtraction_small_fragments_merged", "constraint_status": "research_assumption", "review_status": "frozen_research_input", "source": "OpenStreetMap-derived road enclosures; ODbL-1.0", "input_status": "formal_paper_model_input", "statutory_planning_unit": false, "freeze_date": "2026-09-27"}, "geometry": {"type": "MultiPolygon", "coordinates": [[[[121.47115407162661, 31.213924269792123], [121.4711694601046, 31.21389067384975], [121.47122428987068, 31.21390922498626], [121.47128002215305, 31.213925607397236], [121.47129138930418, 31.213862022518132], [121.47133444246239, 31.213428088636142], [121.4715179128458, 31.21257176165356], [121.47156429342121, 31.212355419148118], [121.4717364261032, 31.211381771016296], [121.47175850417408, 31.211298529426525], [121.47176929603629, 31.211276760730666], [121.47154738997311, 31.211208272174108], [121.47151064790928, 31.211201177991413], [121.47125499810907, 31.21120058964769], [121.46952819098668, 31.21087240998708], [121.4690413311546, 31.21076818223877], [121.46896598858507, 31.21076204018294], [121.46891210852714, 31.21078074954295], [121.4688007540193, 31.210866727356304], [121.46875161363971, 31.210902329082398], [121.46874618963915, 31.210910750783963], [121.46870767396473, 31.211018998260418], [121.4687012614104, 31.21103486773921], [121.46870778754977, 31.21118838020509], [121.46851938336492, 31.211623723563854], [121.46829909324416, 31.211973590519257], [121.46812078071572, 31.212286582278114], [121.46975831995088, 31.212798421443527], [121.46987095685165, 31.21290452560115], [121.46989532568284, 31.213029157616315], [121.46987980000002, 31.21303139999999], [121.46990543632825, 31.213036205465524], [121.46980242871798, 31.213442126522416], [121.46977677663368, 31.213437318099018], [121.47115407162661, 31.213924269792123]]], [[[121.46891012697463, 31.21065620884382], [121.46888694925258, 31.210692196489216], [121.46895041142149, 31.21067015981652], [121.46898383472917, 31.21067288455325], [121.46891306290715, 31.210654326018116], [121.46891012697463, 31.21065620884382]]]]}}, {"type": "Feature", "properties": {"zone_id": "Z09", "zone_method": "osm_road_corridor_subtraction_small_fragments_merged", "constraint_status": "research_assumption", "review_status": "frozen_research_input", "source": "OpenStreetMap-derived road enclosures; ODbL-1.0", "input_status": "formal_paper_model_input", "statutory_planning_unit": false, "freeze_date": "2026-09-27"}, "geometry": {"type": "MultiPolygon", "coordinates": [[[[121.47822270737088, 31.2115720289539], [121.47788099923989, 31.211415282960257], [121.47788111765479, 31.211415104625104], [121.47776754272338, 31.211361127524217], [121.47771371810734, 31.211333408853456], [121.47759234859599, 31.21126684164434], [121.47742251416234, 31.21115800690795], [121.47727204905037, 31.211049042491066], [121.47722137636471, 31.211012260770744], [121.4771686342763, 31.210986709300492], [121.47670685208745, 31.210811166181372], [121.4766998146915, 31.210823682694226], [121.47670946141604, 31.210827193666418], [121.47667575994467, 31.210895596686793], [121.47656136157802, 31.211127693490194], [121.47644365962928, 31.211366697564557], [121.47633176230231, 31.211593692256656], [121.47621420633244, 31.211832506079286], [121.47591029044735, 31.2124306844614], [121.47642379843955, 31.212745041219307], [121.47678442071398, 31.212919364856447], [121.47723334918145, 31.21307002787063], [121.47747512921806, 31.213137925638303], [121.47745556928317, 31.21318937578649], [121.4774957, 31.213087099999996], [121.4778498, 31.212255500000005], [121.4781468, 31.2116874], [121.47822270737088, 31.2115720289539]]], [[[121.47882508069117, 31.210717955065213], [121.47854537418816, 31.21054175788199], [121.4780263204915, 31.21118694127706], [121.47805602264351, 31.211206291206214], [121.47792440075781, 31.21140451703599], [121.47823787115466, 31.21154830994364], [121.4782304483544, 31.211560263471785], [121.478604, 31.2109925], [121.47885220896765, 31.21074730431268], [121.47881816873462, 31.210726184763484], [121.47882508069117, 31.210717955065213]]], [[[121.47743544625791, 31.21324066055417], [121.47719085079467, 31.213171972124744], [121.47673037925725, 31.21301743513661], [121.4763562015273, 31.21283655877044], [121.47582627517433, 31.212512150907564], [121.47555396606404, 31.212346948867822], [121.47550522673023, 31.212434070457274], [121.47569118359522, 31.21254972537877], [121.47582432784496, 31.21261875583726], [121.47579180000001, 31.2126651], [121.47582926165808, 31.21262159478819], [121.47631133372488, 31.21292822317986], [121.47665183466702, 31.213101020518543], [121.47705453229659, 31.213237536463758], [121.47740864520692, 31.213309897805225], [121.47739407706794, 31.21336255932569], [121.4774059, 31.2133273], [121.4774226, 31.2132734], [121.47743544625791, 31.21324066055417]]], [[[121.47513981613719, 31.212105205058002], [121.47468787265775, 31.211953298288332], [121.47463749036206, 31.212033230909906], [121.47508237323704, 31.212202740620988], [121.47546105833828, 31.212408937654494], [121.47551035029508, 31.212320828314304], [121.47513981613719, 31.212105205058002]]]]}}, {"type": "Feature", "properties": {"zone_id": "Z10", "zone_method": "osm_road_corridor_subtraction_small_fragments_merged", "constraint_status": "research_assumption", "review_status": "frozen_research_input", "source": "OpenStreetMap-derived road enclosures; ODbL-1.0", "input_status": "formal_paper_model_input", "statutory_planning_unit": false, "freeze_date": "2026-09-27"}, "geometry": {"type": "MultiPolygon", "coordinates": [[[[121.46809802985308, 31.2105074530089], [121.46773944174494, 31.210425541471924], [121.46768509574544, 31.21038931085485], [121.46751965932755, 31.210350401050913], [121.46716613191971, 31.21026166906897], [121.46678924980962, 31.210169495805967], [121.46638885140756, 31.210711251469263], [121.46636685897803, 31.210742001075026], [121.46605181000503, 31.211183389122617], [121.4656835720051, 31.21182809145309], [121.46726988209933, 31.212509476389894], [121.4677965159312, 31.211624326962685], [121.46810943897086, 31.211048042610244], [121.468279235389, 31.210709321463415], [121.46824150109578, 31.210636163044853], [121.46819913810427, 31.210572316538517], [121.46809802985308, 31.2105074530089]]], [[[121.46857835680505, 31.210677425723176], [121.46857099188679, 31.210653449458118], [121.46855663672277, 31.21062461969375], [121.46847943708946, 31.21081152788331], [121.46811811437456, 31.211585519269025], [121.46778895361574, 31.212146561960672], [121.46749503084543, 31.212608879978905], [121.4675262669342, 31.2126227922829], [121.4679179473283, 31.21200884684652], [121.4681492751689, 31.21160184127505], [121.46851987912332, 31.210816811429783], [121.46857835680505, 31.210677425723176]]], [[[121.46721870365751, 31.21022787754895], [121.46753394066899, 31.210306998948514], [121.46757672033377, 31.21031706053018], [121.46756504823753, 31.210309279115503], [121.46742129823261, 31.21020363522026], [121.46729577503488, 31.210071148543626], [121.46730570983406, 31.210128347740167], [121.46725649780977, 31.21018795669202], [121.46721870365751, 31.21022787754895]]], [[[121.46835564052874, 31.210508151230925], [121.46825312308319, 31.210481267419542], [121.4682715, 31.210429499999993], [121.46825062439082, 31.21048056282833], [121.46821463055221, 31.210469692556206], [121.46827946187004, 31.21051128344797], [121.46832773785817, 31.210584041517617], [121.46834422181233, 31.210540571745245], [121.46835564052874, 31.210508151230925]]], [[[121.46865235647918, 31.210392871241954], [121.46862257423993, 31.210464977578265], [121.46866303525022, 31.210475587816116], [121.46869389954523, 31.210402020037016], [121.46865235647918, 31.210392871241954]]], [[[121.46778695823383, 31.210343058522767], [121.46789214978836, 31.2103670873048], [121.4676781707648, 31.210270533597605], [121.46778695823383, 31.210343058522767]]]]}}, {"type": "Feature", "properties": {"zone_id": "Z11", "zone_method": "osm_road_corridor_subtraction_small_fragments_merged", "constraint_status": "research_assumption", "review_status": "frozen_research_input", "source": "OpenStreetMap-derived road enclosures; ODbL-1.0", "input_status": "formal_paper_model_input", "statutory_planning_unit": false, "freeze_date": "2026-09-27"}, "geometry": {"type": "MultiPolygon", "coordinates": [[[[121.4751987838321, 31.212008794933936], [121.47559520592925, 31.212239482918957], [121.47555990000001, 31.21228430000001], [121.47559621510497, 31.212240082585687], [121.47586654318064, 31.21240408283258], [121.47616019801264, 31.21182610121606], [121.47614820056975, 31.21182106228828], [121.47550058070313, 31.21155029320958], [121.47560435477395, 31.211335022935955], [121.47571425418754, 31.211106824224743], [121.4758273540716, 31.210872024538514], [121.47592824409709, 31.21066254531403], [121.47593757604528, 31.21064298793939], [121.47592782790207, 31.210639646961976], [121.47617649841101, 31.2101036635453], [121.47614672099175, 31.21004951583413], [121.47568623969308, 31.20989385004481], [121.47474188975686, 31.211855224264657], [121.4751987838321, 31.212008794933936]]], [[[121.47649090462623, 31.211117446340527], [121.47585047246, 31.210894776653213], [121.47574936651621, 31.21110467659151], [121.47638672237629, 31.21133159829546], [121.47640139127844, 31.21133681558705], [121.47650672409274, 31.211122928336053], [121.47649090462623, 31.211117446340527]]], [[[121.47638911272917, 31.211361735841596], [121.47637467499506, 31.211356600768877], [121.47573732355725, 31.21112968062368], [121.47563946911836, 31.211332868883062], [121.4762761983839, 31.211559189762497], [121.47628946866153, 31.211563873391366], [121.47638911272917, 31.211361735841596]]], [[[121.47650269537219, 31.211092353659105], [121.47651900322012, 31.21109800489535], [121.47661697149906, 31.21089924245179], [121.47595687135225, 31.210673860769525], [121.4758625160985, 31.210869771915043], [121.47650269537219, 31.211092353659105]]], [[[121.4762771923235, 31.211588795195066], [121.47626420161446, 31.211584210237156], [121.47562742213015, 31.211357871492186], [121.47554101929418, 31.211537106787144], [121.47616199942846, 31.211796737711257], [121.47617263398877, 31.211801204227882], [121.4762771923235, 31.211588795195066]]]]}}, {"type": "Feature", "properties": {"zone_id": "Z12", "zone_method": "osm_road_corridor_subtraction_small_fragments_merged", "constraint_status": "research_assumption", "review_status": "frozen_research_input", "source": "OpenStreetMap-derived road enclosures; ODbL-1.0", "input_status": "formal_paper_model_input", "statutory_planning_unit": false, "freeze_date": "2026-09-27"}, "geometry": {"type": "MultiPolygon", "coordinates": [[[[121.46412424480368, 31.211241819307126], [121.46424749078817, 31.21104457271458], [121.46431446874375, 31.210941123569224], [121.46430814344069, 31.210877774629385], [121.46430734876213, 31.210869884598356], [121.46413583751624, 31.210823301290798], [121.46414216248316, 31.210806098709124], [121.46431145576669, 31.210852079607], [121.46438998295005, 31.210701893010995], [121.46410407232082, 31.21060723931764], [121.46407848782943, 31.21057624271828], [121.46408911569172, 31.210545404509], [121.46392069002356, 31.210504639059476], [121.46392057308995, 31.210504951155805], [121.4637255774266, 31.210450984794857], [121.46355990844853, 31.210405044575584], [121.46351212007843, 31.21050472481208], [121.46385411744829, 31.210592960308233], [121.46384808255115, 31.210610239691675], [121.4635036908861, 31.21052138645893], [121.4633032590955, 31.21089245616025], [121.46329278531341, 31.210888276987603], [121.46413450760704, 31.21124655627768], [121.46412424480368, 31.211241819307126]]], [[[121.46401413071919, 31.210196387352596], [121.46384230274032, 31.210151932117068], [121.46374183910446, 31.21043653200288], [121.46390702691161, 31.21048224884386], [121.46401413071919, 31.210196387352596]]]]}}, {"type": "Feature", "properties": {"zone_id": "Z13", "zone_method": "osm_road_corridor_subtraction_small_fragments_merged", "constraint_status": "research_assumption", "review_status": "frozen_research_input", "source": "OpenStreetMap-derived road enclosures; ODbL-1.0", "input_status": "formal_paper_model_input", "statutory_planning_unit": false, "freeze_date": "2026-09-27"}, "geometry": {"type": "MultiPolygon", "coordinates": [[[[121.46622824186136, 31.210644906677537], [121.46619141967322, 31.210688567270328], [121.46606341263589, 31.210719203265057], [121.46595341978669, 31.210705336868347], [121.46583495753033, 31.210673970254867], [121.46554033119764, 31.210572958399624], [121.4654863327071, 31.210523702462332], [121.46542765002529, 31.210596061192266], [121.46537173368482, 31.210716452540694], [121.46543089810602, 31.210857994162875], [121.46560903789101, 31.210979382298717], [121.46579559767764, 31.21105753705831], [121.46578180232055, 31.211081862941224], [121.4655921621069, 31.21100241770064], [121.46540430189174, 31.210874405835675], [121.4653380663154, 31.210715947457107], [121.46539974997665, 31.210583138806278], [121.46546775947066, 31.21049927966232], [121.46545234529506, 31.210432171552792], [121.46545297435304, 31.210361508689303], [121.46561618437072, 31.209882535643985], [121.46540811365598, 31.209831589037734], [121.46517789535173, 31.209775259039024], [121.46492116397815, 31.210450403495756], [121.4649062, 31.210446200000003], [121.46490268919436, 31.21045470088734], [121.46486731316246, 31.210443908199412], [121.46461917006833, 31.21036936521173], [121.46458343557168, 31.210357453714284], [121.4645325552238, 31.210458936385663], [121.46442915244356, 31.210669842099076], [121.464413703403, 31.210700539549386], [121.46432789154582, 31.210864658464537], [121.46432905689245, 31.210876228707882], [121.46433565689975, 31.210942328707592], [121.4643252, 31.210943100000012], [121.46433437101607, 31.21094748626514], [121.46426590921274, 31.211053227284786], [121.46414288348508, 31.21125012143141], [121.46482757948516, 31.211541556400757], [121.4648445519774, 31.211508515597806], [121.46563609247389, 31.21180886797117], [121.46600579000038, 31.211161610873404], [121.46632214722776, 31.210718390252335], [121.46633574712686, 31.21069937501773], [121.46622824186136, 31.210644906677537]]], [[[121.46416418646672, 31.21004355236081], [121.46431497609201, 31.210084702419206], [121.46430862390739, 31.210101897580703], [121.4641584398211, 31.210060912770793], [121.46411239022757, 31.210200306178464], [121.46422333102436, 31.210230043908503], [121.46417781502161, 31.210360676906465], [121.46422331715836, 31.21037460105524], [121.46430311058292, 31.210398970164317], [121.46430840570248, 31.210380687018073], [121.464517144813, 31.210444084864353], [121.46456813269188, 31.210342387739527], [121.46475187453937, 31.209961430389566], [121.46481599718489, 31.209724984457672], [121.46482634701991, 31.209689321192855], [121.4643231101247, 31.20956616210092], [121.46431178871921, 31.209598389171926], [121.4642939376189, 31.209654734842477], [121.46427416897433, 31.20971918242524], [121.4644439757007, 31.209767130075043], [121.46443742429871, 31.209784269924842], [121.46426846553938, 31.209736561710884], [121.464219365813, 31.209877634517387], [121.46436699789568, 31.209915455284424], [121.46436100210377, 31.209932744715488], [121.46421348079406, 31.209894952324], [121.46416418646672, 31.21004355236081]]], [[[121.46462642993099, 31.210352434788152], [121.46487428683689, 31.210426891800452], [121.46489462080412, 31.21043309538502], [121.46514758904013, 31.209767847594954], [121.4648465468131, 31.209694261522348], [121.4648364028156, 31.20972921554153], [121.46477192546125, 31.209966969609674], [121.46459160791645, 31.210340827451937], [121.46462642993099, 31.210352434788152]]], [[[121.46409219835793, 31.210195377052695], [121.46413842467949, 31.210055448772327], [121.46364163307139, 31.209919776453926], [121.463639141248, 31.209926091938385], [121.46358401597429, 31.210066351005395], [121.46366212272024, 31.21008656167342], [121.46383832515629, 31.210132062302904], [121.46403021795676, 31.210181708695565], [121.46409219835793, 31.210195377052695]]], [[[121.46450890440282, 31.21046071648555], [121.4643231942993, 31.210404312981535], [121.46431788941891, 31.210422629835282], [121.46421628594732, 31.2103915998933], [121.4642198, 31.210383099999998], [121.46421627973987, 31.21039159799564], [121.4641716696744, 31.210377946830004], [121.46411224199635, 31.210541823184034], [121.4641015121702, 31.21057295728067], [121.46411752767811, 31.210592360681968], [121.46439846814506, 31.210685368937643], [121.46440984755719, 31.210662757900224], [121.46450890440282, 31.21046071648555]]], [[[121.46419726897408, 31.210241956090115], [121.46409663156436, 31.210214980172935], [121.46403436161103, 31.210201247966367], [121.46392712854121, 31.210487454622], [121.46409521799013, 31.21052813869117], [121.46415486270016, 31.210363663915704], [121.46419726897408, 31.210241956090115]]], [[[121.46382220147646, 31.210146736467497], [121.46366611069455, 31.210106429254363], [121.46356693114696, 31.21038803514398], [121.46372185775164, 31.210430996494594], [121.46382220147646, 31.210146736467497]]]]}}, {"type": "Feature", "properties": {"zone_id": "Z14", "zone_method": "osm_road_corridor_subtraction_small_fragments_merged", "constraint_status": "research_assumption", "review_status": "frozen_research_input", "source": "OpenStreetMap-derived road enclosures; ODbL-1.0", "input_status": "formal_paper_model_input", "statutory_planning_unit": false, "freeze_date": "2026-09-27"}, "geometry": {"type": "Polygon", "coordinates": [[[121.47798327950731, 31.21119285871928], [121.47851995295026, 31.210525774394444], [121.47761554912155, 31.209958305252716], [121.47756583926063, 31.210010810342798], [121.47725544487379, 31.21034250336433], [121.47690838457918, 31.21044052728648], [121.47672036122242, 31.210786711031428], [121.47718276572188, 31.210962490699043], [121.47723942363316, 31.210989939228558], [121.47729235094745, 31.21102835750804], [121.4774420858355, 31.211136793091207], [121.4776102514019, 31.211244558354956], [121.47773028189062, 31.211310391145926], [121.47778325727462, 31.21133767247522], [121.4778967255209, 31.211391598867717], [121.47801497735507, 31.21121350879047], [121.47798327950731, 31.21119285871928]]]}}, {"type": "Feature", "properties": {"zone_id": "Z15", "zone_method": "osm_road_corridor_subtraction_small_fragments_merged", "constraint_status": "research_assumption", "review_status": "frozen_research_input", "source": "OpenStreetMap-derived road enclosures; ODbL-1.0", "input_status": "formal_paper_model_input", "statutory_planning_unit": false, "freeze_date": "2026-09-27"}, "geometry": {"type": "Polygon", "coordinates": [[[121.47290656783798, 31.211342567828357], [121.47350285040514, 31.21150346628067], [121.47466284570027, 31.211830664506703], [121.4756078620333, 31.209867909581092], [121.47546050348541, 31.209820145055282], [121.47513818512058, 31.209742230688033], [121.47492573007047, 31.20969225872658], [121.47466869282447, 31.209670725280652], [121.47443048651084, 31.2097223415849], [121.47429267596988, 31.209735586531096], [121.47374405067836, 31.209608584326286], [121.47264791315658, 31.20928772377501], [121.47250013204066, 31.20970484369448], [121.4721442782261, 31.210896965633257], [121.4720929229967, 31.211006679169568], [121.47204697065183, 31.211061197137106], [121.47214427560517, 31.211100210269635], [121.47290656783798, 31.211342567828357]]]}}, {"type": "Feature", "properties": {"zone_id": "Z16", "zone_method": "osm_road_corridor_subtraction_small_fragments_merged", "constraint_status": "research_assumption", "review_status": "frozen_research_input", "source": "OpenStreetMap-derived road enclosures; ODbL-1.0", "input_status": "formal_paper_model_input", "statutory_planning_unit": false, "freeze_date": "2026-09-27"}, "geometry": {"type": "Polygon", "coordinates": [[[121.4622366, 31.210438700000005], [121.46328432032983, 31.210884673824225], [121.46348838377237, 31.210506880762473], [121.46354400232656, 31.21039086784566], [121.46364600959755, 31.210101233246274], [121.46356920192491, 31.210081358715215], [121.46345541805826, 31.210084163245188], [121.4631035305888, 31.209981754008343], [121.46309037227662, 31.21002260977094], [121.46307520000002, 31.210019000000003], [121.46307154697142, 31.21003216149852], [121.46232534687576, 31.209879161474436], [121.462329, 31.209866], [121.46232533509107, 31.209879159053965], [121.46231373535915, 31.209876772508718], [121.4622505187014, 31.21010812503758], [121.46216381106366, 31.21038986024959], [121.46211307630966, 31.210378325665477], [121.4622366, 31.210438700000005]]]}}, {"type": "Feature", "properties": {"zone_id": "Z17", "zone_method": "osm_road_corridor_subtraction_small_fragments_merged", "constraint_status": "research_assumption", "review_status": "frozen_research_input", "source": "OpenStreetMap-derived road enclosures; ODbL-1.0", "input_status": "formal_paper_model_input", "statutory_planning_unit": false, "freeze_date": "2026-09-27"}, "geometry": {"type": "Polygon", "coordinates": [[[121.46588051793088, 31.209947190089235], [121.46564646736843, 31.209889946409426], [121.46548442564772, 31.210365491308785], [121.46548385470459, 31.210429628445254], [121.46549906681815, 31.21049585674774], [121.46555846880011, 31.21055004159965], [121.46584544246822, 31.210648429744854], [121.46596038021227, 31.210678863131488], [121.4660613873643, 31.21069159673492], [121.4661723803291, 31.210665032729015], [121.46620992451051, 31.210620516062058], [121.46623380725242, 31.21056643142822], [121.46623182637931, 31.210467575608366], [121.4661867583853, 31.210396950748123], [121.46606461101543, 31.210341147866536], [121.46607938898265, 31.21031725213295], [121.46620984161224, 31.21037684925073], [121.46626317361957, 31.210460424389705], [121.46626539274843, 31.210571168569874], [121.4662433278982, 31.21062113646585], [121.46635243015511, 31.210676413928024], [121.46673659955583, 31.21015661709686], [121.46588051793088, 31.209947190089235]]]}}, {"type": "Feature", "properties": {"zone_id": "Z18", "zone_method": "osm_road_corridor_subtraction_small_fragments_merged", "constraint_status": "research_assumption", "review_status": "frozen_research_input", "source": "OpenStreetMap-derived road enclosures; ODbL-1.0", "input_status": "formal_paper_model_input", "statutory_planning_unit": false, "freeze_date": "2026-09-27"}, "geometry": {"type": "Polygon", "coordinates": [[[121.46916810090656, 31.209797115319788], [121.4690339032291, 31.210207127122263], [121.46909022001068, 31.21029142644328], [121.469145028735, 31.2103261739551], [121.47106982297201, 31.210710393730555], [121.47142159833696, 31.21088566745344], [121.47147139029133, 31.21090128655302], [121.47196725008092, 31.211032771068908], [121.47201887701733, 31.210971520820184], [121.47206432178386, 31.2108744343546], [121.47241158171083, 31.209711105788685], [121.470816434559, 31.209483909006277], [121.46947891486202, 31.209203082917128], [121.46935932316633, 31.209494959967024], [121.46916810090656, 31.209797115319788]]]}}, {"type": "Feature", "properties": {"zone_id": "Z19", "zone_method": "osm_road_corridor_subtraction_small_fragments_merged", "constraint_status": "research_assumption", "review_status": "frozen_research_input", "source": "OpenStreetMap-derived road enclosures; ODbL-1.0", "input_status": "formal_paper_model_input", "statutory_planning_unit": false, "freeze_date": "2026-09-27"}, "geometry": {"type": "MultiPolygon", "coordinates": [[[[121.47680055135973, 31.209934667698263], [121.47661948110695, 31.210141876146995], [121.4762815813532, 31.20993081388972], [121.47619425113943, 31.2100291060526], [121.47619374174307, 31.21002947293938], [121.47623370158882, 31.210102136448324], [121.47598630335966, 31.21063537842775], [121.47663744300608, 31.210857700614692], [121.47666113858858, 31.210809606329168], [121.47668529999999, 31.2108184], [121.47667112526395, 31.210812512672415], [121.47668507935863, 31.2107876943248], [121.47688561542344, 31.21041847271259], [121.47723675512847, 31.210319296635024], [121.47754136074158, 31.209993789656103], [121.47759008949095, 31.209942320860335], [121.477100219492, 31.2096346081098], [121.47707889208195, 31.2096212150046], [121.47680055135973, 31.209934667698263]]], [[[121.47570648601344, 31.209852228170632], [121.47617197666723, 31.210009587339304], [121.47626584982997, 31.209903930946417], [121.47644240145003, 31.209701886341087], [121.47670334170208, 31.20940187092739], [121.47661262551028, 31.209356010699853], [121.47638216306082, 31.20927301267007], [121.47616347932357, 31.20922375957351], [121.47602321360284, 31.209207280932098], [121.47570648601344, 31.209852228170632]]], [[[121.47673064736776, 31.209415673830694], [121.47647698169516, 31.209707325452538], [121.47678499579308, 31.209907580850114], [121.47705346331665, 31.20960524687529], [121.47683787504369, 31.209469870913157], [121.47673064736776, 31.209415673830694]]], [[[121.47645810127814, 31.209728982312825], [121.47630059194186, 31.209909235095942], [121.47661291889419, 31.21010432385291], [121.4767659900756, 31.209929156275], [121.47645810127814, 31.209728982312825]]]]}}, {"type": "Feature", "properties": {"zone_id": "Z20", "zone_method": "osm_road_corridor_subtraction_small_fragments_merged", "constraint_status": "research_assumption", "review_status": "frozen_research_input", "source": "OpenStreetMap-derived road enclosures; ODbL-1.0", "input_status": "formal_paper_model_input", "statutory_planning_unit": false, "freeze_date": "2026-09-27"}, "geometry": {"type": "MultiPolygon", "coordinates": [[[[121.4636466, 31.209865], [121.4636366149664, 31.209862221752413], [121.4636737149754, 31.20976372175556], [121.46368369999999, 31.209766500000004], [121.46367546653649, 31.20976090607364], [121.46368693669828, 31.209748434549823], [121.46369611278571, 31.209725039037313], [121.46351271553667, 31.20967133864325], [121.46351948446272, 31.20965426135664], [121.46370288230312, 31.209707961921662], [121.46374095394022, 31.20961082039682], [121.46375090000001, 31.209613700000006], [121.4637409659711, 31.209610789879722], [121.46374671651738, 31.209596288507395], [121.46354759957579, 31.209541490905707], [121.46355400042361, 31.209524309094167], [121.46375346743605, 31.209579203033947], [121.4637625568788, 31.209556112921], [121.46379375533651, 31.209476616871825], [121.46380370000001, 31.209479499999997], [121.4637937777151, 31.20947656046535], [121.46380812713726, 31.209440779306835], [121.4635325953675, 31.209385672934996], [121.46253483712879, 31.209189081153493], [121.4625407, 31.2091671], [121.46252821172077, 31.20921090689855], [121.462503214926, 31.209205642677844], [121.46244263823417, 31.209410016960742], [121.46243365929331, 31.20943823653625], [121.4623970828568, 31.20957132333753], [121.46235678431657, 31.209719318182945], [121.46232093621954, 31.209850427869096], [121.4623326590194, 31.209852839734364], [121.46306407959888, 31.210002809420818], [121.4630762295425, 31.209965084612296], [121.46311633233164, 31.209840776027452], [121.46312943512172, 31.209800367442494], [121.4631597648795, 31.209807632555744], [121.46314940215612, 31.209839590897033], [121.46334279664329, 31.209889360837064], [121.46348381536374, 31.20994746172042], [121.46358317293681, 31.2099049927735], [121.46362229705566, 31.20991260753686], [121.46362488930276, 31.209906037532463], [121.46363637004502, 31.209862984765987], [121.4636466, 31.209865]]], [[[121.46419336494172, 31.209889794200194], [121.46370011853932, 31.209763194280814], [121.46369310378252, 31.20977082143732], [121.46365672698781, 31.209867401362295], [121.46364738909239, 31.209902418487307], [121.46414417202608, 31.21003808843416], [121.46419336494172, 31.209889794200194]]], [[[121.46371210000012, 31.20971270000004], [121.46372201717493, 31.209715652306215], [121.46371933141084, 31.209722316981782], [121.463709717186, 31.20974682959457], [121.46419925147072, 31.2098724767244], [121.46424847325285, 31.209731053312925], [121.46376673426009, 31.20960173127493], [121.46376084007673, 31.20961659487011], [121.46372204606934, 31.209715579605703], [121.46371210000012, 31.20971270000004]]], [[[121.46427365157385, 31.209650100391066], [121.4642838, 31.209652400000007], [121.46427367352021, 31.209650029998702], [121.46429157352566, 31.209593530000273], [121.4643017, 31.2095959], [121.46429165281916, 31.209593292587442], [121.46430291898248, 31.209561222785744], [121.46382854671738, 31.209445224534083], [121.46381363358323, 31.20948241136253], [121.46378244467128, 31.20956188313005], [121.46377249999999, 31.209559], [121.46378244156831, 31.209561891024652], [121.46377348524854, 31.209584642974328], [121.46425415017762, 31.20971367667682], [121.46427365157385, 31.209650100391066]]], [[[121.46356299522371, 31.210063463189833], [121.46361553257726, 31.209929788837673], [121.4635858270634, 31.20992400722649], [121.46348398463626, 31.209967538279557], [121.463335203356, 31.209906239162777], [121.46314377956925, 31.209856976378237], [121.46310914331002, 31.209964340195643], [121.46345858194142, 31.210066036754757], [121.46356299522371, 31.210063463189833]]]]}}, {"type": "Feature", "properties": {"zone_id": "Z21", "zone_method": "osm_road_corridor_subtraction_small_fragments_merged", "constraint_status": "research_assumption", "review_status": "frozen_research_input", "source": "OpenStreetMap-derived road enclosures; ODbL-1.0", "input_status": "formal_paper_model_input", "statutory_planning_unit": false, "freeze_date": "2026-09-27"}, "geometry": {"type": "Polygon", "coordinates": [[[121.46564588496607, 31.20984291062251], [121.46587018947888, 31.209897770664103], [121.46593176935424, 31.209726087890516], [121.46603779309525, 31.20966200993651], [121.46611383477475, 31.209595942450164], [121.46614280747443, 31.20947876053693], [121.46570944646648, 31.20939044296902], [121.46571549999999, 31.2093685], [121.46571266516563, 31.209377185258923], [121.4655134128833, 31.209329141436612], [121.46528583199597, 31.209300481621586], [121.46504318054454, 31.20925554988905], [121.46467774142846, 31.20912682476089], [121.46455692631413, 31.20908969882697], [121.46446023253117, 31.20931036894095], [121.46444550000001, 31.209305599999997], [121.46445925623945, 31.20931217947413], [121.46438132750957, 31.20943254270539], [121.46434435099428, 31.209524464942948], [121.4648499814208, 31.209648209764495], [121.46517808404552, 31.209728410403013], [121.46540245927778, 31.209783310743653], [121.46541903022718, 31.209635192121162], [121.46541631526415, 31.209569845509254], [121.46538060976043, 31.209519893859703], [121.46531793541043, 31.20948243758874], [121.46523974253569, 31.209464056071518], [121.46511037960626, 31.209453267578027], [121.46511342039321, 31.209426332421913], [121.46524545746344, 31.20943734392837], [121.46533146458773, 31.20945756241084], [121.46540399023728, 31.20950090613916], [121.46544748473461, 31.209561754488814], [121.46545056977304, 31.209636007876895], [121.46543324714625, 31.209790845779644], [121.46564588496607, 31.20984291062251]], [[121.46554661800482, 31.209554052955394], [121.46554949730222, 31.209574993282875], [121.46553682049127, 31.20959032070209], [121.46552354422808, 31.209617334215466], [121.4655216113337, 31.20964052897847], [121.4655282990036, 31.20965876807224], [121.4655241384694, 31.209687261448124], [121.46549936309066, 31.20970236515572], [121.46547464403636, 31.20970428398664], [121.46547275596379, 31.209686316013357], [121.46549183690998, 31.20968483484417], [121.46550446153165, 31.209677138551132], [121.46550690099625, 31.20966043192686], [121.46550038866611, 31.209642671020642], [121.46550285577246, 31.209613065783692], [121.46551837950963, 31.209581479297267], [121.46552770269837, 31.20957020671625], [121.46552618199465, 31.20955914704377], [121.46551390769808, 31.20953713445758], [121.46551264490037, 31.209512108048006], [121.46552144948171, 31.209483793325298], [121.46552057136351, 31.209464953653505], [121.46550576273555, 31.20945156287163], [121.46545882559154, 31.209431420553514], [121.465420394182, 31.209431420552512], [121.46538385961736, 31.209408641471132], [121.46535814975526, 31.209387496040463], [121.46532016992934, 31.209382598189443], [121.46527673213495, 31.20939842055243], [121.46524995184627, 31.209398420552525], [121.46519545025258, 31.20939530924028], [121.46515791784056, 31.209368886422503], [121.46511314255359, 31.2093660499776], [121.4650983231937, 31.20935333401087], [121.46505835852825, 31.209356174635076], [121.46503012633845, 31.20933776233783], [121.46496732832183, 31.209334921714735], [121.46490449891026, 31.209279130851943], [121.46485722173387, 31.20925135432079], [121.46478458980609, 31.209235625113923], [121.4647352758421, 31.209259408421893], [121.46471280436707, 31.20926033317448], [121.46467802162736, 31.209292809367362], [121.4646625783736, 31.209280590632194], [121.46470319563377, 31.209242666825354], [121.46472932415844, 31.209241591578024], [121.46478161019418, 31.20921637488607], [121.46486597826534, 31.20923464567901], [121.46491810108873, 31.20926526914767], [121.46497667167725, 31.209317278285045], [121.46503767366079, 31.20932003766201], [121.46506464147112, 31.2093376253648], [121.46510627680544, 31.20933466598897], [121.46512245744555, 31.20934855002219], [121.46516608215866, 31.209351313577333], [121.4652035497466, 31.209377690759556], [121.46525064815361, 31.209380379447445], [121.4652724678654, 31.20938037944753], [121.46531743007093, 31.209364001810552], [121.46536785024382, 31.209370503959303], [121.46539734038166, 31.209394758528482], [121.46542720581732, 31.20941337944737], [121.46546377440797, 31.209413379446413], [121.46551843726344, 31.209436837128017], [121.46554122863576, 31.209457446345642], [121.46554255051852, 31.209485806673822], [121.46553375509988, 31.20951409195114], [121.46553469230146, 31.20953266554155], [121.46554661800482, 31.209554052955394]]]}}, {"type": "Feature", "properties": {"zone_id": "Z22", "zone_method": "osm_road_corridor_subtraction_small_fragments_merged", "constraint_status": "research_assumption", "review_status": "frozen_research_input", "source": "OpenStreetMap-derived road enclosures; ODbL-1.0", "input_status": "formal_paper_model_input", "statutory_planning_unit": false, "freeze_date": "2026-09-27"}, "geometry": {"type": "MultiPolygon", "coordinates": [[[[121.47847161211503, 31.208315388308797], [121.47845310137042, 31.20835758827459], [121.4778334522018, 31.20815679039611], [121.47773546685795, 31.208376554074263], [121.4778361504213, 31.208418607861887], [121.47762977009907, 31.208722906727797], [121.47734119002071, 31.20911791917246], [121.47742300619319, 31.209190688817845], [121.4772947151133, 31.209390299330554], [121.47714217168733, 31.209605096061647], [121.47763487635099, 31.209914589244338], [121.47856309077224, 31.210496998226024], [121.47885837725094, 31.210683009779068], [121.47889807642923, 31.21064707231882], [121.47892852219269, 31.21067191717516], [121.4792633, 31.210341200000002], [121.47971529999998, 31.21000509999999], [121.47981279651336, 31.20992025671302], [121.47977459139659, 31.20990530087897], [121.47981252126583, 31.209833723602003], [121.47984156971008, 31.209675216291032], [121.47986783446584, 31.209512296256403], [121.47987497337036, 31.209358660434976], [121.47989384186009, 31.20927146046946], [121.48000376894115, 31.20900753299348], [121.4801097091216, 31.208873266305442], [121.4798046377962, 31.208779943230734], [121.47982223288358, 31.208737452409085], [121.4791225, 31.208535799999996], [121.47847161211503, 31.208315388308797]]], [[[121.47994990000001, 31.209555500000004], [121.47994944109273, 31.2095344361557], [121.4799488920706, 31.209535287341314], [121.4799246302951, 31.209685783695708], [121.47991391275758, 31.209744265938326], [121.4799406, 31.209661], [121.47994990000001, 31.209555500000004]]]]}}, {"type": "Feature", "properties": {"zone_id": "Z23", "zone_method": "osm_road_corridor_subtraction_small_fragments_merged", "constraint_status": "research_assumption", "review_status": "frozen_research_input", "source": "OpenStreetMap-derived road enclosures; ODbL-1.0", "input_status": "formal_paper_model_input", "statutory_planning_unit": false, "freeze_date": "2026-09-27"}, "geometry": {"type": "Polygon", "coordinates": [[[121.47515221487603, 31.2096987693114], [121.47547689651071, 31.20977725494399], [121.47562810084642, 31.209826266031357], [121.47593671072089, 31.20919784994116], [121.47585230427772, 31.209189152743434], [121.47429519521833, 31.208989725959018], [121.47278380047572, 31.20881272915944], [121.47272459236669, 31.20902262398754], [121.47266192329715, 31.209244177962383], [121.47375934931793, 31.20956541567308], [121.47429672402889, 31.209689813468763], [121.47442111349112, 31.20967785841492], [121.47466470717627, 31.20962507471927], [121.47493526992706, 31.2096477412731], [121.47515221487603, 31.2096987693114]]]}}, {"type": "Feature", "properties": {"zone_id": "Z24", "zone_method": "osm_road_corridor_subtraction_small_fragments_merged", "constraint_status": "research_assumption", "review_status": "frozen_research_input", "source": "OpenStreetMap-derived road enclosures; ODbL-1.0", "input_status": "formal_paper_model_input", "statutory_planning_unit": false, "freeze_date": "2026-09-27"}, "geometry": {"type": "MultiPolygon", "coordinates": [[[[121.46862619404581, 31.209884251985958], [121.46872007839039, 31.209604865283747], [121.46874829661076, 31.20953783473475], [121.46883408437938, 31.209254863729946], [121.46888467527282, 31.20901853844185], [121.46897625977381, 31.20878358701219], [121.46919860072214, 31.208207162771295], [121.46834283108743, 31.208051485758975], [121.46793256412757, 31.209252370941005], [121.46776110592873, 31.20966549331887], [121.46769897619436, 31.209814460909115], [121.46770126544911, 31.209817623381948], [121.46778737069538, 31.209905497238896], [121.46799663866872, 31.210038633132], [121.46827368658434, 31.210130823038494], [121.4683628122075, 31.2101402921173], [121.46842846536381, 31.21012159765908], [121.46853258685606, 31.21003329785865], [121.46853493269339, 31.21002711647577], [121.46853864771361, 31.21002815796559], [121.46854704679006, 31.210021035151247], [121.46853978886728, 31.210017559962335], [121.46862619404581, 31.209884251985958]]], [[[121.4695022644629, 31.208249237307708], [121.46946156002956, 31.208244083114366], [121.46881375640993, 31.210002100699402], [121.46877318656638, 31.21010032598913], [121.46879617618632, 31.2101582336884], [121.46885777174532, 31.210011413983214], [121.4695022644629, 31.208249237307708]]], [[[121.46952489429636, 31.20818736131852], [121.47005651298616, 31.206733748255814], [121.47031068695206, 31.206015166159528], [121.47031205842673, 31.2060093803454], [121.47029456411708, 31.206004457322646], [121.47028683733973, 31.206004329343415], [121.4694856046679, 31.20817882906668], [121.46952489429636, 31.20818736131852]]], [[[121.46839837213165, 31.21022519370923], [121.46845502710478, 31.21023767064871], [121.46846719975562, 31.21020559533262], [121.46839837213165, 31.21022519370923]]]]}}, {"type": "Feature", "properties": {"zone_id": "Z25", "zone_method": "osm_road_corridor_subtraction_small_fragments_merged", "constraint_status": "research_assumption", "review_status": "frozen_research_input", "source": "OpenStreetMap-derived road enclosures; ODbL-1.0", "input_status": "formal_paper_model_input", "statutory_planning_unit": false, "freeze_date": "2026-09-27"}, "geometry": {"type": "Polygon", "coordinates": [[[121.46960494795273, 31.208747592199767], [121.46949332550372, 31.209159679527716], [121.47082696543835, 31.20943969099336], [121.47242563356426, 31.20966738919321], [121.47257529074645, 31.20924497478256], [121.47264300452068, 31.209005587031623], [121.47270085761056, 31.20880049639631], [121.46978473612593, 31.2082878653834], [121.46960494795273, 31.208747592199767]]]}}, {"type": "Feature", "properties": {"zone_id": "Z26", "zone_method": "osm_road_corridor_subtraction_small_fragments_merged", "constraint_status": "research_assumption", "review_status": "frozen_research_input", "source": "OpenStreetMap-derived road enclosures; ODbL-1.0", "input_status": "formal_paper_model_input", "statutory_planning_unit": false, "freeze_date": "2026-09-27"}, "geometry": {"type": "MultiPolygon", "coordinates": [[[[121.4672147021963, 31.210160643304743], [121.46725069016944, 31.210117052254056], [121.46723948222883, 31.210052522767914], [121.467195855437, 31.21008327487466], [121.4671892, 31.2100763], [121.4671792620268, 31.21007920031103], [121.4671216620407, 31.209933400307076], [121.46713159999999, 31.209930500000002], [121.46712176727212, 31.2099273458454], [121.46714505136853, 31.209873725053072], [121.46712962925055, 31.209847382473193], [121.46708326062057, 31.20976827101337], [121.46698008124638, 31.209559159233553], [121.46680959452758, 31.209037055366924], [121.46661132168266, 31.208494560811097], [121.4665287547677, 31.208167244660245], [121.46652571390533, 31.208164329385866], [121.46652764417259, 31.208162841965578], [121.46652455304974, 31.208150587929946], [121.46651724140843, 31.20815399485567], [121.46643081921087, 31.208016976964103], [121.46630376035385, 31.20790657095554], [121.46612495822438, 31.20780630547935], [121.46529745593338, 31.207653312686137], [121.4651951058038, 31.207634386852757], [121.46456432799611, 31.209072813826648], [121.46468503327232, 31.209109906005924], [121.4646815, 31.2091184], [121.46468547996449, 31.20911005322483], [121.46504941945486, 31.209238250110864], [121.46528956800366, 31.209282718378365], [121.46551778711628, 31.20931145856332], [121.4657179234186, 31.209359715540693], [121.46572155353051, 31.20934655703053], [121.4661545295452, 31.20943479613017], [121.46622946753365, 31.2091726424662], [121.46583276385215, 31.209070401145976], [121.46584783614423, 31.20902719885339], [121.46624067881179, 31.209128445082452], [121.46627844504307, 31.208961593499104], [121.46632995495948, 31.208970206495813], [121.46628653279222, 31.209162046459106], [121.46619937886557, 31.209466935395756], [121.46616588422177, 31.209602406929626], [121.4662067186252, 31.209654286050704], [121.46704320837962, 31.209853567970928], [121.46702919161697, 31.209897032028497], [121.46617408136804, 31.209693313946943], [121.46613407626431, 31.20964248841888], [121.46607180691089, 31.20969659006141], [121.46597663065246, 31.209754112105756], [121.46592067337694, 31.209910119447226], [121.4667847818896, 31.21012150985665], [121.4671639569771, 31.210214243959403], [121.4672147021963, 31.210160643304743]]], [[[121.46670572415368, 31.208174746868217], [121.4667617488778, 31.208279303872924], [121.46678625542957, 31.20835157681953], [121.46676838270842, 31.20814310709889], [121.46671289852543, 31.207978131355304], [121.466625541219, 31.207867918332393], [121.46649854136689, 31.207762961260656], [121.46631599584133, 31.207676521946237], [121.46606528806247, 31.207601698294237], [121.46578288338097, 31.20753743438617], [121.46536673681666, 31.20744899226373], [121.46533663144307, 31.207549833063663], [121.46617424174828, 31.20770469451469], [121.46638383961033, 31.20782222903058], [121.46653298075452, 31.207951823014312], [121.46662442929686, 31.20809680967216], [121.46670572415368, 31.208174746868217]]], [[[121.46521525744708, 31.207527389791217], [121.4653160950991, 31.207546035945054], [121.46534636047328, 31.207444659280984], [121.46515588849469, 31.20740413514112], [121.46512014312955, 31.207509764788096], [121.46521525744708, 31.207527389791217]]], [[[121.46723587172023, 31.210031735322858], [121.46723080719421, 31.21000257638213], [121.46720379564235, 31.209974066231016], [121.46715791494236, 31.209895697361578], [121.46714274026573, 31.20993064303552], [121.4671942645394, 31.210061063831045], [121.46723587172023, 31.210031735322858]]]]}}, {"type": "Feature", "properties": {"zone_id": "Z27", "zone_method": "osm_road_corridor_subtraction_small_fragments_merged", "constraint_status": "research_assumption", "review_status": "frozen_research_input", "source": "OpenStreetMap-derived road enclosures; ODbL-1.0", "input_status": "formal_paper_model_input", "statutory_planning_unit": false, "freeze_date": "2026-09-27"}, "geometry": {"type": "MultiPolygon", "coordinates": [[[[121.46686989139064, 31.20805513108298], [121.46688988841453, 31.208114589605977], [121.46690936880285, 31.20815106110412], [121.46705957748556, 31.20833388393825], [121.46730259592118, 31.209042535147404], [121.46744448650253, 31.209448446851212], [121.4675312033117, 31.209615261436724], [121.46764250517448, 31.20974510154154], [121.46766383933057, 31.20973006312177], [121.46764627622808, 31.209704900593778], [121.46764481173508, 31.209653868448715], [121.46767380574519, 31.20962351957965], [121.46771597028149, 31.20964000337343], [121.46788263587628, 31.209238429054256], [121.468291609903, 31.208041330245194], [121.46771289356077, 31.207918111579385], [121.46705269808528, 31.207782378811462], [121.46697536788008, 31.207790532385154], [121.46692705111188, 31.20782719772749], [121.46689498290675, 31.207900302404386], [121.46686989139064, 31.20805513108298]]], [[[121.4676821282538, 31.209721196209998], [121.4677088809884, 31.209657051578734], [121.46767979425547, 31.20964568042028], [121.46766598826567, 31.20966013155043], [121.4676671237714, 31.209699699405352], [121.4676821282538, 31.209721196209998]]]]}}, {"type": "Feature", "properties": {"zone_id": "Z28", "zone_method": "osm_road_corridor_subtraction_small_fragments_merged", "constraint_status": "research_assumption", "review_status": "frozen_research_input", "source": "OpenStreetMap-derived road enclosures; ODbL-1.0", "input_status": "formal_paper_model_input", "statutory_planning_unit": false, "freeze_date": "2026-09-27"}, "geometry": {"type": "Polygon", "coordinates": [[[121.47739970109508, 31.208018071798204], [121.4768771030664, 31.20785094498371], [121.47663764792446, 31.207745383366078], [121.47639530086286, 31.208331217619545], [121.47604244598521, 31.20916401807571], [121.4761737206738, 31.209179440426148], [121.4763990369352, 31.209230187329183], [121.47663617448457, 31.209315589298853], [121.47674610125665, 31.209371161132], [121.47686672495054, 31.209432129084984], [121.47709757904757, 31.209577090977163], [121.47711666200561, 31.209589074621427], [121.47725969756536, 31.209387666039778], [121.47705530762053, 31.209273237758108], [121.47707249237737, 31.20925056224121], [121.47727550625089, 31.209364220114118], [121.47738419380602, 31.209195111179213], [121.47730140997871, 31.20912148082443], [121.47760282990298, 31.208708893270835], [121.47779184957618, 31.208430192134198], [121.47770965547232, 31.20839586105229], [121.47728414347569, 31.208274542737676], [121.4772940565229, 31.208248857262085], [121.4777062817365, 31.20836638738225], [121.47780396499535, 31.208147301375487], [121.47739970109508, 31.208018071798204]]]}}, {"type": "Feature", "properties": {"zone_id": "Z29", "zone_method": "osm_road_corridor_subtraction_small_fragments_merged", "constraint_status": "research_assumption", "review_status": "frozen_research_input", "source": "OpenStreetMap-derived road enclosures; ODbL-1.0", "input_status": "formal_paper_model_input", "statutory_planning_unit": false, "freeze_date": "2026-09-27"}, "geometry": {"type": "MultiPolygon", "coordinates": [[[[121.464820748883, 31.207565234439105], [121.46476344990985, 31.207681213905847], [121.46417419437307, 31.207664978187083], [121.46394672280856, 31.207606279085404], [121.46357473545359, 31.207546709220225], [121.4632724165695, 31.20751161334192], [121.46306110970677, 31.207603062906212], [121.46300960052373, 31.207686705389722], [121.46289161517318, 31.208112775017835], [121.46287627592315, 31.208110425523827], [121.46259770981344, 31.209155196712324], [121.4635444046296, 31.20934172706458], [121.46383356709076, 31.209399559553255], [121.46431402145049, 31.20951704507588], [121.46435202141342, 31.20942257865838], [121.46436689999999, 31.20942700000001], [121.46435314375111, 31.209420420515773], [121.46443117773738, 31.209299894767994], [121.46453106894336, 31.209071927776645], [121.46516398637665, 31.20762862281296], [121.46506354792822, 31.207610011202767], [121.4648232800707, 31.20756562036817], [121.464820748883, 31.207565234439105]]], [[[121.46484348894059, 31.20745876502924], [121.46488311059157, 31.207347066280864], [121.46428698760604, 31.20721988420455], [121.46336961278324, 31.207031202252033], [121.46337067067905, 31.207041657395038], [121.4633554356529, 31.207120112640965], [121.46330947700365, 31.207187961311078], [121.46327737044614, 31.20721540794771], [121.46421956799166, 31.207363634504283], [121.46484348894059, 31.20745876502924]]], [[[121.46395167719098, 31.207588720914522], [121.46417760562657, 31.207647021812882], [121.46474975009143, 31.207662786093806], [121.46479954234704, 31.20756200108597], [121.46419723199455, 31.207470165493913], [121.46342706460968, 31.207349003245902], [121.46342955422928, 31.207355347430973], [121.46330271207385, 31.20739212019798], [121.46328274031542, 31.207494606914725], [121.46357806454606, 31.207528890779738], [121.46395167719098, 31.207588720914522]]], [[[121.46323807466169, 31.207004147428655], [121.46310829179829, 31.206951773367848], [121.4630131673843, 31.20691330438457], [121.46301588127645, 31.207068721974057], [121.46304675723881, 31.20717912675337], [121.46325223178022, 31.207211453031494], [121.46329272299735, 31.20717683868837], [121.46333536434776, 31.207113887358265], [121.46334952932108, 31.207040942604102], [121.46334809595496, 31.207026776670737], [121.46323807466169, 31.207004147428655]]], [[[121.46298637182664, 31.207692672618872], [121.46298979947693, 31.207680294609524], [121.46304569029434, 31.207589537093344], [121.46326112813591, 31.207496299732835], [121.46328408792752, 31.207378479801374], [121.4633801981827, 31.20735061653455], [121.4631812194162, 31.20732775970269], [121.46316233104871, 31.20730735439924], [121.46305844214761, 31.20729101006158], [121.46305754013989, 31.20742257461731], [121.46298637182664, 31.207692672618872]]], [[[121.46490352115222, 31.207351388597335], [121.46486412638997, 31.207462447784565], [121.46506871467548, 31.207500246614902], [121.46510487285474, 31.207393397249565], [121.46490352115222, 31.207351388597335]]]]}}, {"type": "Feature", "properties": {"zone_id": "Z30", "zone_method": "osm_road_corridor_subtraction_small_fragments_merged", "constraint_status": "research_assumption", "review_status": "frozen_research_input", "source": "OpenStreetMap-derived road enclosures; ODbL-1.0", "input_status": "formal_paper_model_input", "statutory_planning_unit": false, "freeze_date": "2026-09-27"}, "geometry": {"type": "Polygon", "coordinates": [[[121.47651400000001, 31.207651400000003], [121.4761922, 31.207459799999985], [121.47539819999999, 31.2070343], [121.47402760000001, 31.206433199999992], [121.47402296956619, 31.206430381720654], [121.47381723736717, 31.206846012908212], [121.47280291507228, 31.208769448095442], [121.47430260477971, 31.20894507404075], [121.47585929572041, 31.209144447256335], [121.47595711205412, 31.20915452619514], [121.47631629914777, 31.208306782368616], [121.4765778739693, 31.207674469058574], [121.47661741711447, 31.207686553727523], [121.47651400000001, 31.207651400000003]]]}}, {"type": "Feature", "properties": {"zone_id": "Z31", "zone_method": "osm_road_corridor_subtraction_small_fragments_merged", "constraint_status": "research_assumption", "review_status": "frozen_research_input", "source": "OpenStreetMap-derived road enclosures; ODbL-1.0", "input_status": "formal_paper_model_input", "statutory_planning_unit": false, "freeze_date": "2026-09-27"}, "geometry": {"type": "MultiPolygon", "coordinates": [[[[121.46196865132177, 31.20963362744396], [121.46197794867693, 31.209607772555806], [121.46225903769351, 31.209682442175012], [121.46229198470408, 31.209561445938046], [121.46174751340054, 31.20942376973485], [121.46135907005939, 31.209323458539632], [121.46136812993934, 31.209297541460145], [121.46174167477864, 31.209394005301764], [121.46179341669247, 31.20925357510187], [121.4614354176502, 31.20915771845579], [121.46144478234845, 31.209131881543964], [121.46180257627763, 31.209227683264327], [121.46186455948676, 31.209045043059763], [121.46182988329193, 31.209019220353497], [121.46159344649944, 31.208842908030334], [121.46139155394012, 31.208781824192325], [121.46145299704531, 31.208530704555347], [121.4614654872665, 31.208479862990814], [121.46106276068713, 31.20839040033638], [121.46107063931173, 31.20836419966342], [121.46147198600322, 31.20845335578349], [121.46152684591313, 31.208229173097752], [121.46112882785349, 31.20813514697472], [121.4611371721453, 31.208109053025076], [121.46154947209413, 31.208206453010174], [121.4615453, 31.208219500000002], [121.46156070546664, 31.208222284996005], [121.46149940294598, 31.208472795440663], [121.46148701790797, 31.208523208937397], [121.46191564539433, 31.208605465124652], [121.46195810752049, 31.208418377837468], [121.46184490637205, 31.208272611939933], [121.46187109362596, 31.208257588058647], [121.46199149247857, 31.208412622160328], [121.4619434516852, 31.208624289238948], [121.46185739455834, 31.209003901448387], [121.46189015938263, 31.20902830078216], [121.46232728258322, 31.209134617359357], [121.46241532690227, 31.20913656275959], [121.46271039626733, 31.208084899780374], [121.46262377853755, 31.20807153240727], [121.46279322796046, 31.20738736557942], [121.46278445308937, 31.207340223956994], [121.46274797689442, 31.207287392937356], [121.46273315896508, 31.207242508385313], [121.46270925987226, 31.20724748067831], [121.46256145226681, 31.207178986962138], [121.46196469528255, 31.20697456189565], [121.46182830623101, 31.20688943315473], [121.46168782818894, 31.206732470950147], [121.46173584396927, 31.20665194318832], [121.4612497946272, 31.20639094778906], [121.46073559215715, 31.206125259815334], [121.46006603806268, 31.205788947276652], [121.45923853698983, 31.205562123544926], [121.45831788700514, 31.20538809212283], [121.45792315576571, 31.205303136051175], [121.4577388027083, 31.205271906470784], [121.4577162871534, 31.205473930445585], [121.45768895321312, 31.206155193363227], [121.45767093391449, 31.20683183202862], [121.45761917802969, 31.207492526612764], [121.45749937415425, 31.208412066938752], [121.45774030146961, 31.20849544855023], [121.45772462096784, 31.208528919877594], [121.4582375, 31.208672299999996], [121.46101619999999, 31.2098422], [121.46206589578641, 31.21035526532001], [121.46214868131116, 31.210086274942636], [121.46221521562353, 31.209842781779276], [121.46225183456644, 31.209708853384075], [121.46196865132177, 31.20963362744396]]], [[[121.46290325022902, 31.207143242086055], [121.46291098847203, 31.207072618665688], [121.4629086595601, 31.206939239444605], [121.46286554289543, 31.206882535885683], [121.46243927558002, 31.206540198006405], [121.46234240664862, 31.206473389738214], [121.46220599733195, 31.20644094284773], [121.46219962088098, 31.206438463537758], [121.46220498846944, 31.206428264895482], [121.4621868691778, 31.20642248398737], [121.46213266087008, 31.20679873607866], [121.46221066228661, 31.206865810883357], [121.46267032993774, 31.207058095854546], [121.46270650402096, 31.207071206565107], [121.46278221483436, 31.2070984825098], [121.46290325022902, 31.207143242086055]]], [[[121.46182995429582, 31.20898344617919], [121.46190961811112, 31.208632036415473], [121.46148052540794, 31.208549690947585], [121.4614280460566, 31.20876417580496], [121.46160955349852, 31.20881909196907], [121.46182995429582, 31.20898344617919]]], [[[121.46189323992485, 31.20905717431097], [121.46183264206302, 31.209235732595047], [121.46228700004751, 31.209357359506345], [121.46234547838469, 31.20937241969392], [121.46240741483233, 31.209163458512233], [121.46232251741604, 31.209161582640565], [121.46189323992485, 31.20905717431097]]], [[[121.46227779995118, 31.209383240493427], [121.46182347787489, 31.20926162318794], [121.46177185973231, 31.209401717585706], [121.46229920802632, 31.209535063986664], [121.46233194071948, 31.20941596344401], [121.46233746357369, 31.2093986059335], [121.46227779995118, 31.209383240493427]]], [[[121.46274316450257, 31.207222975015846], [121.46288870592116, 31.207255810580463], [121.46288872219384, 31.207255709918847], [121.46273298513887, 31.20719811748427], [121.46265769595243, 31.207170993429038], [121.46261827003431, 31.207156704138942], [121.46214604393673, 31.206959165724008], [121.4621736, 31.20691050000001], [121.46212906365035, 31.206948762058303], [121.46203321012919, 31.206866335837752], [121.46175238615288, 31.206663755976898], [121.46171257181086, 31.206730529048627], [121.46184309376795, 31.20687636684479], [121.46197490471658, 31.2069586381041], [121.46256978549111, 31.207162420438], [121.4625659, 31.207170799999993], [121.4625708804862, 31.207162859915055], [121.46271214012744, 31.20722831932164], [121.46273803091218, 31.207222932647802], [121.46274049999998, 31.20723170000001], [121.46274316450257, 31.207222975015846]]], [[[121.4628142631452, 31.20738617493546], [121.4628039, 31.207387599999997], [121.46281416492971, 31.207389478176363], [121.46264882146062, 31.208057067591444], [121.46271498898467, 31.208067278958342], [121.46283613614766, 31.20754358951484], [121.46285613605629, 31.207457284691788], [121.46288579674881, 31.20727380648644], [121.46275561382943, 31.207244435959545], [121.46276742310486, 31.207280207061896], [121.46280454690998, 31.207333976042207], [121.4628142631452, 31.20738617493546]]]]}}, {"type": "Feature", "properties": {"zone_id": "Z32", "zone_method": "osm_road_corridor_subtraction_small_fragments_merged", "constraint_status": "research_assumption", "review_status": "frozen_research_input", "source": "OpenStreetMap-derived road enclosures; ODbL-1.0", "input_status": "formal_paper_model_input", "statutory_planning_unit": false, "freeze_date": "2026-09-27"}, "geometry": {"type": "Polygon", "coordinates": [[[121.47031165301551, 31.206814186358052], [121.47029804434126, 31.206877461917337], [121.47027963802861, 31.206974795632178], [121.4702597411227, 31.20706666034016], [121.47002909281605, 31.20760789037443], [121.46980075076678, 31.20824464416715], [121.4727171276464, 31.20875731988656], [121.47373146076094, 31.206833867878732], [121.47360061850371, 31.206768246894576], [121.47339364171651, 31.206636025594143], [121.4732614579328, 31.20657149569186], [121.4731545421226, 31.206537147171638], [121.47301508957005, 31.206509664529808], [121.4728571556364, 31.206505031009502], [121.47274997628269, 31.206500131380402], [121.47261087799234, 31.20647586885398], [121.47234435664662, 31.206392756804043], [121.47209448330823, 31.206324645684244], [121.47052757795998, 31.206003624375494], [121.47039038964805, 31.206436010761074], [121.47031165301551, 31.206814186358052]]]}}, {"type": "Feature", "properties": {"zone_id": "Z33", "zone_method": "osm_road_corridor_subtraction_small_fragments_merged", "constraint_status": "research_assumption", "review_status": "frozen_research_input", "source": "OpenStreetMap-derived road enclosures; ODbL-1.0", "input_status": "formal_paper_model_input", "statutory_planning_unit": false, "freeze_date": "2026-09-27"}, "geometry": {"type": "MultiPolygon", "coordinates": [[[[121.46981296852167, 31.206499167111634], [121.47007192516885, 31.205847753202004], [121.46887836896921, 31.205497502131227], [121.46811918628167, 31.205306307216862], [121.46627550910577, 31.20482326555039], [121.4659037199353, 31.205642705552787], [121.46570837799936, 31.206125162447805], [121.46525847387494, 31.207157512069777], [121.46543671262836, 31.207214474939864], [121.46539803000395, 31.20734413625915], [121.46581411660063, 31.20743256561095], [121.4661021119163, 31.20749810170206], [121.4663674041309, 31.20757727804739], [121.46642134485103, 31.207602820201995], [121.46650066836027, 31.20760130347387], [121.46673733789561, 31.207638165994744], [121.4670763197502, 31.207699389140718], [121.46773517691166, 31.207833402462565], [121.46834482501104, 31.207967624982476], [121.46922702831652, 31.208125037754737], [121.46944908150883, 31.20752699354401], [121.46981296852167, 31.206499167111634]]], [[[121.46652193950172, 31.20765045395532], [121.46657385859783, 31.2076750387269], [121.46672225874549, 31.207797681648074], [121.46682830144715, 31.207931468617797], [121.46683413800102, 31.207948822895474], [121.46684381709649, 31.207889097590616], [121.46688254889439, 31.207800802268835], [121.46695283212486, 31.207747467613956], [121.46703776078954, 31.207738512877928], [121.46672726210184, 31.207682434004912], [121.46652193950172, 31.20765045395532]]], [[[121.46519587938893, 31.2073011298848], [121.46537765364398, 31.20733980351054], [121.46541168737018, 31.207225725058862], [121.46525111072091, 31.207174406759563], [121.46519587938893, 31.2073011298848]]]]}}, {"type": "Feature", "properties": {"zone_id": "Z34", "zone_method": "osm_road_corridor_subtraction_small_fragments_merged", "constraint_status": "research_assumption", "review_status": "frozen_research_input", "source": "OpenStreetMap-derived road enclosures; ODbL-1.0", "input_status": "formal_paper_model_input", "statutory_planning_unit": false, "freeze_date": "2026-09-27"}, "geometry": {"type": "MultiPolygon", "coordinates": [[[[121.46496872206696, 31.20591763827992], [121.46433206401656, 31.205658353407948], [121.46416880488317, 31.205958777018378], [121.46409780727502, 31.20628385609801], [121.46418054030855, 31.20641425153767], [121.46442794865229, 31.20646866970414], [121.46481498573911, 31.206528482708233], [121.46480941426003, 31.20655511729167], [121.46442125134669, 31.206495130295718], [121.46415945968886, 31.206437548461345], [121.46406479272429, 31.20628834389985], [121.46413859511821, 31.20595042297989], [121.46430361187363, 31.205646765231084], [121.46408498891363, 31.20555771749256], [121.46349735462039, 31.20529446051788], [121.4629973261889, 31.205145759363564], [121.46285076855222, 31.20551656126032], [121.46257067853972, 31.206124955045023], [121.46266779272761, 31.206157864376628], [121.46265355785859, 31.206258995773133], [121.46266537342204, 31.206360941529432], [121.46273248294644, 31.206489175639092], [121.46285389845936, 31.206614530005634], [121.4630535189391, 31.206729520126835], [121.46317198807427, 31.206787307512364], [121.46326199039898, 31.20683366646857], [121.46332675083593, 31.206828963742357], [121.46348586237978, 31.20687126560677], [121.46484159407257, 31.20712266353242], [121.46496056656981, 31.207110376208337], [121.4650347519538, 31.207086061610642], [121.46520928676325, 31.20714179844105], [121.46565339456268, 31.206122750413567], [121.46496872206696, 31.20591763827992]]], [[[121.46290297580609, 31.20510404507125], [121.46296156462415, 31.204947345026476], [121.46310915475912, 31.20449989151419], [121.4633251871893, 31.203740034060107], [121.46348179947509, 31.203173390484974], [121.4634400660956, 31.203160888846547], [121.4633154, 31.2036798], [121.46276290000002, 31.205308600000002], [121.46238235377417, 31.206065275976073], [121.46247246206816, 31.206093134729862], [121.46275223146466, 31.205485438721308], [121.46290297580609, 31.20510404507125]]], [[[121.46491666679145, 31.20724269392813], [121.4649492543059, 31.207129715413195], [121.46484060592732, 31.20714093646756], [121.46348098667988, 31.20688881766647], [121.4634832, 31.206879999999998], [121.46348009874254, 31.206888617712288], [121.46332444916382, 31.206847236257612], [121.4632833968745, 31.206850217365112], [121.4633189406195, 31.206879767450058], [121.46334072246033, 31.206913957361653], [121.4643168123762, 31.20711471579278], [121.46491666679145, 31.20724269392813]]], [[[121.4631618849746, 31.20685381724362], [121.4632799253146, 31.20690145256681], [121.46331318319142, 31.206908293071585], [121.46330205937953, 31.20689083254933], [121.46325307056526, 31.206850104591012], [121.46316141192486, 31.20680289248739], [121.46304282008296, 31.20674504524324], [121.46304799999999, 31.2067372], [121.46304215724405, 31.206744693341214], [121.46283970153961, 31.206628069993926], [121.46271451705267, 31.206498824360228], [121.46264482657752, 31.20636565846972], [121.46263244214146, 31.206258804226003], [121.46264500727104, 31.20616953562231], [121.46256284711039, 31.206141693792375], [121.46243924881648, 31.2064013942039], [121.46300077511243, 31.206788663241788], [121.4631618849746, 31.20685381724362]]], [[[121.46520192359444, 31.207158693137462], [121.46503484804614, 31.207105338389315], [121.46497196618627, 31.207125948204435], [121.46493705170391, 31.207246994246507], [121.46514456840256, 31.207290289099223], [121.46520192359444, 31.207158693137462]]], [[[121.4622454217902, 31.20633800538897], [121.46234477966455, 31.20636163907419], [121.46246460023684, 31.206109876799026], [121.4623746281291, 31.206082060148134], [121.46237817420966, 31.20607358652151], [121.4622462, 31.206335999999997], [121.4622454217902, 31.20633800538897]]]]}}, {"type": "Feature", "properties": {"zone_id": "Z35", "zone_method": "osm_road_corridor_subtraction_small_fragments_merged", "constraint_status": "research_assumption", "review_status": "frozen_research_input", "source": "OpenStreetMap-derived road enclosures; ODbL-1.0", "input_status": "formal_paper_model_input", "statutory_planning_unit": false, "freeze_date": "2026-09-27"}, "geometry": {"type": "Polygon", "coordinates": [[[121.47082704493334, 31.20502363937314], [121.47088694665382, 31.205040196349653], [121.47054269143443, 31.205960354355398], [121.47210851668838, 31.20628115431521], [121.47236124334938, 31.206350043195222], [121.47262512200419, 31.20643233114543], [121.47275662371551, 31.206455268619397], [121.47285944436284, 31.20645996899039], [121.47302191042809, 31.206464735469975], [121.47316965787378, 31.20649385282774], [121.47328374206224, 31.206530504306954], [121.4734223582777, 31.206598174404], [121.47362958149043, 31.20673055310355], [121.47375260571937, 31.206792253123627], [121.47394928213147, 31.20639491740225], [121.47398791036076, 31.206409043183502], [121.47359040000002, 31.2061671], [121.473128940626, 31.205848972696156], [121.47310226488922, 31.205887811905544], [121.47260430166006, 31.205635134536145], [121.47223930084085, 31.20546420487629], [121.47198243791172, 31.205364320632633], [121.47200406651959, 31.20532322869941], [121.47082704493334, 31.20502363937314]]]}}, {"type": "Feature", "properties": {"zone_id": "Z36", "zone_method": "osm_road_corridor_subtraction_small_fragments_merged", "constraint_status": "research_assumption", "review_status": "frozen_research_input", "source": "OpenStreetMap-derived road enclosures; ODbL-1.0", "input_status": "formal_paper_model_input", "statutory_planning_unit": false, "freeze_date": "2026-09-27"}, "geometry": {"type": "MultiPolygon", "coordinates": [[[[121.4597918, 31.2053688], [121.45851640000001, 31.205076799999997], [121.4577975892235, 31.204922574014947], [121.45775423408661, 31.205164191890134], [121.4579506442178, 31.205197463946433], [121.45834671297762, 31.205282707874606], [121.45927126299098, 31.205457476451997], [121.46011756190944, 31.20568945271692], [121.46079980781074, 31.206032140175278], [121.4613156053402, 31.206298652201152], [121.4617918391396, 31.206554376842423], [121.46192507616291, 31.206313305294085], [121.46193453647047, 31.206317168065155], [121.4603524, 31.205549399999992], [121.4597918, 31.2053688]]], [[[121.46194371674517, 31.206321622912665], [121.46180975870637, 31.206563999103683], [121.46181070309282, 31.206564506210295], [121.46203712472831, 31.206727841590617], [121.46208424154257, 31.206400812731292], [121.46213631780135, 31.206406355698412], [121.4620838, 31.206389599999984], [121.46194371674517, 31.206321622912665]]]]}}, {"type": "Feature", "properties": {"zone_id": "Z37", "zone_method": "osm_road_corridor_subtraction_small_fragments_merged", "constraint_status": "research_assumption", "review_status": "frozen_research_input", "source": "OpenStreetMap-derived road enclosures; ODbL-1.0", "input_status": "formal_paper_model_input", "statutory_planning_unit": false, "freeze_date": "2026-09-27"}, "geometry": {"type": "MultiPolygon", "coordinates": [[[[121.46758880847783, 31.20425549458713], [121.46659686944442, 31.204030891404894], [121.46629363466394, 31.204780862890356], [121.4681342137147, 31.205263092782513], [121.46889423102698, 31.205454497868107], [121.47010734130845, 31.205810486980862], [121.47009949550035, 31.20580245995116], [121.47018556494515, 31.205740308239182], [121.47047003433455, 31.204933383904777], [121.4676021712296, 31.204211892354255], [121.46758880847783, 31.20425549458713]]], [[[121.47066888803532, 31.20498532314391], [121.47039735588663, 31.205704379543118], [121.47033010249183, 31.205886907009386], [121.4703528243969, 31.20589603707113], [121.47067507785239, 31.20498496552024], [121.47059906517606, 31.20496584349381], [121.47066888803532, 31.20498532314391]]]]}}, {"type": "Feature", "properties": {"zone_id": "Z38", "zone_method": "osm_road_corridor_subtraction_small_fragments_merged", "constraint_status": "research_assumption", "review_status": "frozen_research_input", "source": "OpenStreetMap-derived road enclosures; ODbL-1.0", "input_status": "formal_paper_model_input", "statutory_planning_unit": false, "freeze_date": "2026-09-27"}, "geometry": {"type": "Polygon", "coordinates": [[[121.46498067793144, 31.20589256171973], [121.4656640988191, 31.20609729888141], [121.46585448006893, 31.205627094442626], [121.46623527824973, 31.20478779892688], [121.46654652133009, 31.204018022210967], [121.4654283568421, 31.203704787433626], [121.46441807622473, 31.20342240462864], [121.46358190821827, 31.203201455798915], [121.46342721282291, 31.203761165919992], [121.46321064525401, 31.204522908466178], [121.46306203539044, 31.204973454954317], [121.46300721901581, 31.205120065754276], [121.46350984537793, 31.205269539481748], [121.46409901108454, 31.20553348250699], [121.46433124094489, 31.20562807247179], [121.46498067793144, 31.20589256171973]]]}}]}