{"type": "FeatureCollection", "features": [{"type": "Feature", "properties": {"element_type": "node", "osm_id": 423833603, "name": "打浦桥", "name:zh": "打浦桥", "service_group": "public_transport", "amenity": null, "healthcare": null, "social_facility": null, "public_transport": "stop_position", "highway": null, "railway": null, "operator": null, "access": null, "wheelchair": null, "source": "OpenStreetMap", "license": "ODbL-1.0"}, "geometry": {"type": "Point", "coordinates": [121.4642084, 31.2074169]}}, {"type": "Feature", "properties": {"element_type": "node", "osm_id": 486190579, "name": "鲁班路斜土路", "name:zh": "鲁班路斜土路", "service_group": "public_transport", "amenity": null, "healthcare": null, "social_facility": null, "public_transport": "stop_position", "highway": null, "railway": null, "operator": null, "access": null, "wheelchair": null, "source": "OpenStreetMap", "license": "ODbL-1.0"}, "geometry": {"type": "Point", "coordinates": [121.4702497, 31.2068045]}}, {"type": "Feature", "properties": {"element_type": "node", "osm_id": 600496466, "name": "制造局路斜土路", "name:zh": "制造局路斜土路", "service_group": "public_transport", "amenity": null, "healthcare": null, "social_facility": null, "public_transport": "stop_position", "highway": null, "railway": null, "operator": null, "access": null, "wheelchair": null, "source": "OpenStreetMap", "license": "ODbL-1.0"}, "geometry": {"type": "Point", "coordinates": [121.4798531, 31.2098442]}}, {"type": "Feature", "properties": {"element_type": "node", "osm_id": 601661208, "name": "徐家汇路黄陂南路", "name:zh": "徐家汇路黄陂南路", "service_group": "public_transport", "amenity": null, "healthcare": null, "social_facility": null, "public_transport": "stop_position", "highway": null, "railway": null, "operator": null, "access": null, "wheelchair": null, "source": "OpenStreetMap", "license": "ODbL-1.0"}, "geometry": {"type": "Point", "coordinates": [121.4730272, 31.2116017]}}, {"type": "Feature", "properties": {"element_type": "node", "osm_id": 608700745, "name": "打浦桥", "name:zh": null, "service_group": "public_transport", "amenity": null, "healthcare": null, "social_facility": null, "public_transport": "stop_position", "highway": null, "railway": "stop", "operator": null, "access": null, "wheelchair": null, "source": "OpenStreetMap", "license": "ODbL-1.0"}, "geometry": {"type": "Point", "coordinates": [121.4640135, 31.2082185]}}, {"type": "Feature", "properties": {"element_type": "node", "osm_id": 1576353706, "name": "徐家汇路黄陂南路", "name:zh": "徐家汇路黄陂南路", "service_group": "public_transport", "amenity": null, "healthcare": null, "social_facility": null, "public_transport": "stop_position", "highway": null, "railway": null, "operator": null, "access": null, "wheelchair": null, "source": "OpenStreetMap", "license": "ODbL-1.0"}, "geometry": {"type": "Point", "coordinates": [121.4734836, 31.211555]}}, {"type": "Feature", "properties": {"element_type": "node", "osm_id": 2055145678, "name": null, "name:zh": null, "service_group": "public_transport", "amenity": null, "healthcare": null, "social_facility": null, "public_transport": null, "highway": null, "railway": "subway_entrance", "operator": null, "access": null, "wheelchair": "no", "source": "OpenStreetMap", "license": "ODbL-1.0"}, "geometry": {"type": "Point", "coordinates": [121.4645219, 31.2090026]}}, {"type": "Feature", "properties": {"element_type": "node", "osm_id": 2460670062, "name": "黄陂南路徐家汇路", "name:zh": "黄陂南路徐家汇路", "service_group": "public_transport", "amenity": null, "healthcare": null, "social_facility": null, "public_transport": "stop_position", "highway": null, "railway": null, "operator": null, "access": null, "wheelchair": null, "source": "OpenStreetMap", "license": "ODbL-1.0"}, "geometry": {"type": "Point", "coordinates": [121.4738765, 31.2128143]}}, {"type": "Feature", "properties": {"element_type": "node", "osm_id": 3045679345, "name": "6号口", "name:zh": null, "service_group": "public_transport", "amenity": null, "healthcare": null, "social_facility": null, "public_transport": null, "highway": null, "railway": "subway_entrance", "operator": null, "access": null, "wheelchair": "yes", "source": "OpenStreetMap", "license": "ODbL-1.0"}, "geometry": {"type": "Point", "coordinates": [121.4721713, 31.2116455]}}, {"type": "Feature", "properties": {"element_type": "node", "osm_id": 3045714550, "name": "3号口", "name:zh": null, "service_group": "public_transport", "amenity": null, "healthcare": null, "social_facility": null, "public_transport": null, "highway": null, "railway": "subway_entrance", "operator": null, "access": null, "wheelchair": "yes", "source": "OpenStreetMap", "license": "ODbL-1.0"}, "geometry": {"type": "Point", "coordinates": [121.4724503, 31.2107921]}}, {"type": "Feature", "properties": {"element_type": "node", "osm_id": 3045720533, "name": "1号口", "name:zh": null, "service_group": "public_transport", "amenity": null, "healthcare": null, "social_facility": null, "public_transport": null, "highway": null, "railway": "subway_entrance", "operator": null, "access": null, "wheelchair": "yes", "source": "OpenStreetMap", "license": "ODbL-1.0"}, "geometry": {"type": "Point", "coordinates": [121.4736841, 31.212141]}}, {"type": "Feature", "properties": {"element_type": "node", "osm_id": 3045722133, "name": null, "name:zh": null, "service_group": "public_transport", "amenity": null, "healthcare": null, "social_facility": null, "public_transport": null, "highway": null, "railway": "subway_entrance", "operator": null, "access": null, "wheelchair": "no", "source": "OpenStreetMap", "license": "ODbL-1.0"}, "geometry": {"type": "Point", "coordinates": [121.4647791, 31.2077364]}}, {"type": "Feature", "properties": {"element_type": "node", "osm_id": 3045722233, "name": null, "name:zh": null, "service_group": "public_transport", "amenity": null, "healthcare": null, "social_facility": null, "public_transport": null, "highway": null, "railway": "subway_entrance", "operator": null, "access": null, "wheelchair": "no", "source": "OpenStreetMap", "license": "ODbL-1.0"}, "geometry": {"type": "Point", "coordinates": [121.4635346, 31.2075988]}}, {"type": "Feature", "properties": {"element_type": "node", "osm_id": 3045722433, "name": null, "name:zh": null, "service_group": "public_transport", "amenity": null, "healthcare": null, "social_facility": null, "public_transport": null, "highway": null, "railway": "subway_entrance", "operator": null, "access": null, "wheelchair": "yes", "source": "OpenStreetMap", "license": "ODbL-1.0"}, "geometry": {"type": "Point", "coordinates": [121.4629552, 31.2080851]}}, {"type": "Feature", "properties": {"element_type": "node", "osm_id": 3923189264, "name": "5号口", "name:zh": null, "service_group": "public_transport", "amenity": null, "healthcare": null, "social_facility": null, "public_transport": null, "highway": null, "railway": "subway_entrance", "operator": null, "access": null, "wheelchair": null, "source": "OpenStreetMap", "license": "ODbL-1.0"}, "geometry": {"type": "Point", "coordinates": [121.4717374, 31.2128843]}}, {"type": "Feature", "properties": {"element_type": "node", "osm_id": 3923223760, "name": "4号口", "name:zh": null, "service_group": "public_transport", "amenity": null, "healthcare": null, "social_facility": null, "public_transport": null, "highway": null, "railway": "subway_entrance", "operator": null, "access": null, "wheelchair": null, "source": "OpenStreetMap", "license": "ODbL-1.0"}, "geometry": {"type": "Point", "coordinates": [121.4714799, 31.2115996]}}, {"type": "Feature", "properties": {"element_type": "node", "osm_id": 4464177691, "name": "打浦桥", "name:zh": "打浦桥", "service_group": "public_transport", "amenity": null, "healthcare": null, "social_facility": null, "public_transport": "platform", "highway": "bus_stop", "railway": null, "operator": null, "access": null, "wheelchair": "limited", "source": "OpenStreetMap", "license": "ODbL-1.0"}, "geometry": {"type": "Point", "coordinates": [121.4642046, 31.2074768]}}, {"type": "Feature", "properties": {"element_type": "node", "osm_id": 4475961603, "name": "打浦桥", "name:zh": "打浦桥", "service_group": "public_transport", "amenity": null, "healthcare": null, "social_facility": null, "public_transport": "platform", "highway": "bus_stop", "railway": null, "operator": null, "access": null, "wheelchair": null, "source": "OpenStreetMap", "license": "ODbL-1.0"}, "geometry": {"type": "Point", "coordinates": [121.4631465, 31.2049765]}}, {"type": "Feature", "properties": {"element_type": "node", "osm_id": 5019789039, "name": "马当路", "name:zh": null, "service_group": "public_transport", "amenity": null, "healthcare": null, "social_facility": null, "public_transport": "stop_position", "highway": null, "railway": "stop", "operator": null, "access": null, "wheelchair": null, "source": "OpenStreetMap", "license": "ODbL-1.0"}, "geometry": {"type": "Point", "coordinates": [121.4717336, 31.2116679]}}, {"type": "Feature", "properties": {"element_type": "node", "osm_id": 5019789980, "name": "马当路", "name:zh": null, "service_group": "public_transport", "amenity": null, "healthcare": null, "social_facility": null, "public_transport": "stop_position", "highway": null, "railway": "stop", "operator": null, "access": null, "wheelchair": null, "source": "OpenStreetMap", "license": "ODbL-1.0"}, "geometry": {"type": "Point", "coordinates": [121.4720223, 31.2113075]}}, {"type": "Feature", "properties": {"element_type": "node", "osm_id": 5019789988, "name": "打浦桥", "name:zh": null, "service_group": "public_transport", "amenity": null, "healthcare": null, "social_facility": null, "public_transport": "stop_position", "highway": null, "railway": "stop", "operator": null, "access": null, "wheelchair": null, "source": "OpenStreetMap", "license": "ODbL-1.0"}, "geometry": {"type": "Point", "coordinates": [121.4639618, 31.208257]}}, {"type": "Feature", "properties": {"element_type": "node", "osm_id": 5040967722, "name": "思南88", "name:zh": null, "service_group": "social_service", "amenity": "community_centre", "healthcare": null, "social_facility": null, "public_transport": null, "highway": null, "railway": null, "operator": null, "access": null, "wheelchair": null, "source": "OpenStreetMap", "license": "ODbL-1.0"}, "geometry": {"type": "Point", "coordinates": [121.4662939, 31.2107036]}}, {"type": "Feature", "properties": {"element_type": "node", "osm_id": 5042024828, "name": "上海老年大学", "name:zh": "上海老年大学", "service_group": "education", "amenity": "school", "healthcare": null, "social_facility": null, "public_transport": null, "highway": null, "railway": null, "operator": null, "access": null, "wheelchair": null, "source": "OpenStreetMap", "license": "ODbL-1.0"}, "geometry": {"type": "Point", "coordinates": [121.4681351, 31.2053714]}}, {"type": "Feature", "properties": {"element_type": "node", "osm_id": 5042033125, "name": "上海市老年大学", "name:zh": "上海市老年大学", "service_group": "education", "amenity": "college", "healthcare": null, "social_facility": null, "public_transport": null, "highway": null, "railway": null, "operator": null, "access": null, "wheelchair": null, "source": "OpenStreetMap", "license": "ODbL-1.0"}, "geometry": {"type": "Point", "coordinates": [121.4721526, 31.2065877]}}, {"type": "Feature", "properties": {"element_type": "node", "osm_id": 5306402952, "name": "打浦桥", "name:zh": null, "service_group": "public_transport", "amenity": null, "healthcare": null, "social_facility": null, "public_transport": "station", "highway": null, "railway": "station", "operator": null, "access": null, "wheelchair": "yes", "source": "OpenStreetMap", "license": "ODbL-1.0"}, "geometry": {"type": "Point", "coordinates": [121.4640097, 31.2082336]}}, {"type": "Feature", "properties": {"element_type": "node", "osm_id": 5306402953, "name": "马当路", "name:zh": null, "service_group": "public_transport", "amenity": null, "healthcare": null, "social_facility": null, "public_transport": "stop_position", "highway": null, "railway": "stop", "operator": null, "access": null, "wheelchair": null, "source": "OpenStreetMap", "license": "ODbL-1.0"}, "geometry": {"type": "Point", "coordinates": [121.4720339, 31.2112622]}}, {"type": "Feature", "properties": {"element_type": "node", "osm_id": 5306402954, "name": "马当路", "name:zh": null, "service_group": "public_transport", "amenity": null, "healthcare": null, "social_facility": null, "public_transport": "stop_position", "highway": null, "railway": "stop", "operator": null, "access": null, "wheelchair": null, "source": "OpenStreetMap", "license": "ODbL-1.0"}, "geometry": {"type": "Point", "coordinates": [121.471776, 31.2116803]}}, {"type": "Feature", "properties": {"element_type": "node", "osm_id": 5306402955, "name": "马当路", "name:zh": null, "service_group": "public_transport", "amenity": null, "healthcare": null, "social_facility": null, "public_transport": "station", "highway": null, "railway": "station", "operator": null, "access": null, "wheelchair": "yes", "source": "OpenStreetMap", "license": "ODbL-1.0"}, "geometry": {"type": "Point", "coordinates": [121.4720292, 31.2112829]}}, {"type": "Feature", "properties": {"element_type": "node", "osm_id": 5314254695, "name": "马当路", "name:zh": null, "service_group": "public_transport", "amenity": null, "healthcare": null, "social_facility": null, "public_transport": "station", "highway": null, "railway": "station", "operator": null, "access": null, "wheelchair": null, "source": "OpenStreetMap", "license": "ODbL-1.0"}, "geometry": {"type": "Point", "coordinates": [121.4717526, 31.2116709]}}, {"type": "Feature", "properties": {"element_type": "node", "osm_id": 5554087321, "name": "斜土路打浦路", "name:zh": "斜土路打浦路", "service_group": "public_transport", "amenity": null, "healthcare": null, "social_facility": null, "public_transport": "platform", "highway": "bus_stop", "railway": null, "operator": null, "access": null, "wheelchair": null, "source": "OpenStreetMap", "license": "ODbL-1.0"}, "geometry": {"type": "Point", "coordinates": [121.4691024, 31.204626]}}, {"type": "Feature", "properties": {"element_type": "node", "osm_id": 6131161465, "name": "顺昌路徐家汇路", "name:zh": "顺昌路徐家汇路", "service_group": "public_transport", "amenity": null, "healthcare": null, "social_facility": null, "public_transport": "platform", "highway": "bus_stop", "railway": null, "operator": null, "access": null, "wheelchair": null, "source": "OpenStreetMap", "license": "ODbL-1.0"}, "geometry": {"type": "Point", "coordinates": [121.4751998, 31.2133038]}}, {"type": "Feature", "properties": {"element_type": "node", "osm_id": 6131161466, "name": "蒙自路丽园路", "name:zh": "蒙自路丽园路", "service_group": "public_transport", "amenity": null, "healthcare": null, "social_facility": null, "public_transport": "platform", "highway": "bus_stop", "railway": null, "operator": null, "access": null, "wheelchair": null, "source": "OpenStreetMap", "license": "ODbL-1.0"}, "geometry": {"type": "Point", "coordinates": [121.4727617, 31.2090244]}}, {"type": "Feature", "properties": {"element_type": "node", "osm_id": 6335416836, "name": "徐家汇路黄陂南路", "name:zh": "徐家汇路黄陂南路", "service_group": "public_transport", "amenity": null, "healthcare": null, "social_facility": null, "public_transport": "platform", "highway": "bus_stop", "railway": null, "operator": null, "access": null, "wheelchair": null, "source": "OpenStreetMap", "license": "ODbL-1.0"}, "geometry": {"type": "Point", "coordinates": [121.4730148, 31.2116379]}}, {"type": "Feature", "properties": {"element_type": "node", "osm_id": 6355914185, "name": "鲁班路斜土路", "name:zh": "鲁班路斜土路", "service_group": "public_transport", "amenity": null, "healthcare": null, "social_facility": null, "public_transport": "platform", "highway": "bus_stop", "railway": null, "operator": null, "access": null, "wheelchair": null, "source": "OpenStreetMap", "license": "ODbL-1.0"}, "geometry": {"type": "Point", "coordinates": [121.4702783, 31.2068131]}}, {"type": "Feature", "properties": {"element_type": "node", "osm_id": 6557265684, "name": null, "name:zh": null, "service_group": "market", "amenity": "marketplace", "healthcare": null, "social_facility": null, "public_transport": null, "highway": null, "railway": null, "operator": null, "access": null, "wheelchair": null, "source": "OpenStreetMap", "license": "ODbL-1.0"}, "geometry": {"type": "Point", "coordinates": [121.4644772, 31.2097967]}}, {"type": "Feature", "properties": {"element_type": "node", "osm_id": 7597767860, "name": "打浦桥社区卫生中心", "name:zh": null, "service_group": "healthcare", "amenity": "hospital", "healthcare": "hospital", "social_facility": null, "public_transport": null, "highway": null, "railway": null, "operator": null, "access": null, "wheelchair": null, "source": "OpenStreetMap", "license": "ODbL-1.0"}, "geometry": {"type": "Point", "coordinates": [121.4743614, 31.2086587]}}, {"type": "Feature", "properties": {"element_type": "node", "osm_id": 8955286863, "name": "打浦桥", "name:zh": "打浦桥", "service_group": "public_transport", "amenity": null, "healthcare": null, "social_facility": null, "public_transport": "stop_position", "highway": null, "railway": null, "operator": null, "access": null, "wheelchair": null, "source": "OpenStreetMap", "license": "ODbL-1.0"}, "geometry": {"type": "Point", "coordinates": [121.4621736, 31.2069105]}}, {"type": "Feature", "properties": {"element_type": "node", "osm_id": 9769673343, "name": "打浦桥", "name:zh": "打浦桥", "service_group": "public_transport", "amenity": null, "healthcare": null, "social_facility": null, "public_transport": "platform", "highway": "bus_stop", "railway": null, "operator": null, "access": null, "wheelchair": "limited", "source": "OpenStreetMap", "license": "ODbL-1.0"}, "geometry": {"type": "Point", "coordinates": [121.4643395, 31.2070677]}}, {"type": "Feature", "properties": {"element_type": "node", "osm_id": 9769673344, "name": "徐家汇路黄陂南路", "name:zh": "徐家汇路黄陂南路", "service_group": "public_transport", "amenity": null, "healthcare": null, "social_facility": null, "public_transport": "platform", "highway": "bus_stop", "railway": null, "operator": null, "access": null, "wheelchair": null, "source": "OpenStreetMap", "license": "ODbL-1.0"}, "geometry": {"type": "Point", "coordinates": [121.4735153, 31.2114434]}}, {"type": "Feature", "properties": {"element_type": "node", "osm_id": 9769702731, "name": "斜土路制造局路", "name:zh": "斜土路制造局路", "service_group": "public_transport", "amenity": null, "healthcare": null, "social_facility": null, "public_transport": "platform", "highway": "bus_stop", "railway": null, "operator": null, "access": null, "wheelchair": null, "source": "OpenStreetMap", "license": "ODbL-1.0"}, "geometry": {"type": "Point", "coordinates": [121.4786008, 31.208436]}}, {"type": "Feature", "properties": {"element_type": "node", "osm_id": 9776197072, "name": "打浦路斜土路", "name:zh": "打浦路斜土路", "service_group": "public_transport", "amenity": null, "healthcare": null, "social_facility": null, "public_transport": "stop_position", "highway": null, "railway": null, "operator": null, "access": null, "wheelchair": null, "source": "OpenStreetMap", "license": "ODbL-1.0"}, "geometry": {"type": "Point", "coordinates": [121.4658791, 31.2056349]}}, {"type": "Feature", "properties": {"element_type": "node", "osm_id": 9776197073, "name": "打浦路斜土路", "name:zh": "打浦路斜土路", "service_group": "public_transport", "amenity": null, "healthcare": null, "social_facility": null, "public_transport": "platform", "highway": "bus_stop", "railway": null, "operator": null, "access": null, "wheelchair": null, "source": "OpenStreetMap", "license": "ODbL-1.0"}, "geometry": {"type": "Point", "coordinates": [121.4657503, 31.205628]}}, {"type": "Feature", "properties": {"element_type": "node", "osm_id": 9776197075, "name": "打浦桥", "name:zh": "打浦桥", "service_group": "public_transport", "amenity": null, "healthcare": null, "social_facility": null, "public_transport": "stop_position", "highway": null, "railway": null, "operator": null, "access": null, "wheelchair": null, "source": "OpenStreetMap", "license": "ODbL-1.0"}, "geometry": {"type": "Point", "coordinates": [121.4643019, 31.2071673]}}, {"type": "Feature", "properties": {"element_type": "node", "osm_id": 9776213932, "name": "打浦桥", "name:zh": "打浦桥", "service_group": "public_transport", "amenity": null, "healthcare": null, "social_facility": null, "public_transport": "stop_position", "highway": null, "railway": null, "operator": null, "access": null, "wheelchair": null, "source": "OpenStreetMap", "license": "ODbL-1.0"}, "geometry": {"type": "Point", "coordinates": [121.4630118, 31.2049604]}}, {"type": "Feature", "properties": {"element_type": "node", "osm_id": 9776213933, "name": "打浦桥", "name:zh": "打浦桥", "service_group": "public_transport", "amenity": null, "healthcare": null, "social_facility": null, "public_transport": "platform", "highway": "bus_stop", "railway": null, "operator": null, "access": null, "wheelchair": "limited", "source": "OpenStreetMap", "license": "ODbL-1.0"}, "geometry": {"type": "Point", "coordinates": [121.4621093, 31.2069692]}}, {"type": "Feature", "properties": {"element_type": "node", "osm_id": 9776213935, "name": "斜土路打浦路", "name:zh": "斜土路打浦路", "service_group": "public_transport", "amenity": null, "healthcare": null, "social_facility": null, "public_transport": "stop_position", "highway": null, "railway": null, "operator": null, "access": null, "wheelchair": null, "source": "OpenStreetMap", "license": "ODbL-1.0"}, "geometry": {"type": "Point", "coordinates": [121.4654446, 31.2036619]}}, {"type": "Feature", "properties": {"element_type": "node", "osm_id": 9778289815, "name": "建国东路重庆南路", "name:zh": "建国东路重庆南路", "service_group": "public_transport", "amenity": null, "healthcare": null, "social_facility": null, "public_transport": "platform", "highway": "bus_stop", "railway": null, "operator": null, "access": null, "wheelchair": null, "source": "OpenStreetMap", "license": "ODbL-1.0"}, "geometry": {"type": "Point", "coordinates": [121.4694545, 31.2133015]}}, {"type": "Feature", "properties": {"element_type": "node", "osm_id": 9778457750, "name": "陕西南路建国西路", "name:zh": "陕西南路建国西路", "service_group": "public_transport", "amenity": null, "healthcare": null, "social_facility": null, "public_transport": "stop_position", "highway": null, "railway": null, "operator": null, "access": null, "wheelchair": null, "source": "OpenStreetMap", "license": "ODbL-1.0"}, "geometry": {"type": "Point", "coordinates": [121.4575669, 31.2074885]}}, {"type": "Feature", "properties": {"element_type": "node", "osm_id": 9805249279, "name": "建国东路肇周路", "name:zh": "建国东路肇周路", "service_group": "public_transport", "amenity": null, "healthcare": null, "social_facility": null, "public_transport": "platform", "highway": "bus_stop", "railway": null, "operator": null, "access": null, "wheelchair": null, "source": "OpenStreetMap", "license": "ODbL-1.0"}, "geometry": {"type": "Point", "coordinates": [121.4756075, 31.2154097]}}, {"type": "Feature", "properties": {"element_type": "node", "osm_id": 9805249280, "name": "建国东路肇周路", "name:zh": "建国东路肇周路", "service_group": "public_transport", "amenity": null, "healthcare": null, "social_facility": null, "public_transport": "stop_position", "highway": null, "railway": null, "operator": null, "access": null, "wheelchair": null, "source": "OpenStreetMap", "license": "ODbL-1.0"}, "geometry": {"type": "Point", "coordinates": [121.4755833, 31.2154532]}}, {"type": "Feature", "properties": {"element_type": "node", "osm_id": 9805249282, "name": "建国西路陕西南路", "name:zh": "建国西路陕西南路", "service_group": "public_transport", "amenity": null, "healthcare": null, "social_facility": null, "public_transport": "platform", "highway": "bus_stop", "railway": null, "operator": null, "access": null, "wheelchair": null, "source": "OpenStreetMap", "license": "ODbL-1.0"}, "geometry": {"type": "Point", "coordinates": [121.4588061, 31.2088753]}}, {"type": "Feature", "properties": {"element_type": "node", "osm_id": 9808098001, "name": "鲁班路斜土路", "name:zh": "鲁班路斜土路", "service_group": "public_transport", "amenity": null, "healthcare": null, "social_facility": null, "public_transport": "stop_position", "highway": null, "railway": null, "operator": null, "access": null, "wheelchair": null, "source": "OpenStreetMap", "license": "ODbL-1.0"}, "geometry": {"type": "Point", "coordinates": [121.4698729, 31.2065158]}}, {"type": "Feature", "properties": {"element_type": "node", "osm_id": 9808098002, "name": "鲁班路斜土路", "name:zh": "鲁班路斜土路", "service_group": "public_transport", "amenity": null, "healthcare": null, "social_facility": null, "public_transport": "platform", "highway": "bus_stop", "railway": null, "operator": null, "access": null, "wheelchair": null, "source": "OpenStreetMap", "license": "ODbL-1.0"}, "geometry": {"type": "Point", "coordinates": [121.4698032, 31.2064952]}}, {"type": "Feature", "properties": {"element_type": "node", "osm_id": 10158849371, "name": "斜土路蒙自路", "name:zh": "斜土路蒙自路", "service_group": "public_transport", "amenity": null, "healthcare": null, "social_facility": null, "public_transport": "platform", "highway": "bus_stop", "railway": null, "operator": null, "access": null, "wheelchair": null, "source": "OpenStreetMap", "license": "ODbL-1.0"}, "geometry": {"type": "Point", "coordinates": [121.4747961, 31.2068163]}}, {"type": "Feature", "properties": {"element_type": "node", "osm_id": 10158849373, "name": "斜土路鲁班路", "name:zh": "斜土路鲁班路", "service_group": "public_transport", "amenity": null, "healthcare": null, "social_facility": null, "public_transport": "stop_position", "highway": null, "railway": null, "operator": null, "access": null, "wheelchair": null, "source": "OpenStreetMap", "license": "ODbL-1.0"}, "geometry": {"type": "Point", "coordinates": [121.4722627, 31.2054238]}}, {"type": "Feature", "properties": {"element_type": "node", "osm_id": 10296345169, "name": "顺昌路徐家汇路", "name:zh": "顺昌路徐家汇路", "service_group": "public_transport", "amenity": null, "healthcare": null, "social_facility": null, "public_transport": "stop_position", "highway": null, "railway": null, "operator": null, "access": null, "wheelchair": null, "source": "OpenStreetMap", "license": "ODbL-1.0"}, "geometry": {"type": "Point", "coordinates": [121.4751434, 31.2132947]}}, {"type": "Feature", "properties": {"element_type": "node", "osm_id": 10296345170, "name": "蒙自路丽园路", "name:zh": "蒙自路丽园路", "service_group": "public_transport", "amenity": null, "healthcare": null, "social_facility": null, "public_transport": "stop_position", "highway": null, "railway": null, "operator": null, "access": null, "wheelchair": null, "source": "OpenStreetMap", "license": "ODbL-1.0"}, "geometry": {"type": "Point", "coordinates": [121.4726838, 31.2090141]}}, {"type": "Feature", "properties": {"element_type": "node", "osm_id": 10296349527, "name": "局门路斜土路", "name:zh": "局门路斜土路", "service_group": "public_transport", "amenity": null, "healthcare": null, "social_facility": null, "public_transport": "platform", "highway": "bus_stop", "railway": null, "operator": null, "access": null, "wheelchair": null, "source": "OpenStreetMap", "license": "ODbL-1.0"}, "geometry": {"type": "Point", "coordinates": [121.4762592, 31.208296]}}, {"type": "Feature", "properties": {"element_type": "node", "osm_id": 10296349528, "name": "局门路斜土路", "name:zh": "局门路斜土路", "service_group": "public_transport", "amenity": null, "healthcare": null, "social_facility": null, "public_transport": "stop_position", "highway": null, "railway": null, "operator": null, "access": null, "wheelchair": null, "source": "OpenStreetMap", "license": "ODbL-1.0"}, "geometry": {"type": "Point", "coordinates": [121.4763558, 31.208319]}}, {"type": "Feature", "properties": {"element_type": "node", "osm_id": 10296349529, "name": "黄陂南路徐家汇路", "name:zh": "黄陂南路徐家汇路", "service_group": "public_transport", "amenity": null, "healthcare": null, "social_facility": null, "public_transport": "platform", "highway": "bus_stop", "railway": null, "operator": null, "access": null, "wheelchair": null, "source": "OpenStreetMap", "license": "ODbL-1.0"}, "geometry": {"type": "Point", "coordinates": [121.4738238, 31.2127946]}}, {"type": "Feature", "properties": {"element_type": "node", "osm_id": 11224212181, "name": "青少年活动中心", "name:zh": null, "service_group": "social_service", "amenity": "community_centre", "healthcare": null, "social_facility": null, "public_transport": null, "highway": null, "railway": null, "operator": null, "access": null, "wheelchair": null, "source": "OpenStreetMap", "license": "ODbL-1.0"}, "geometry": {"type": "Point", "coordinates": [121.4588799, 31.2086928]}}, {"type": "Feature", "properties": {"element_type": "node", "osm_id": 11664726196, "name": "鲁班路徐家汇路", "name:zh": "鲁班路徐家汇路", "service_group": "public_transport", "amenity": null, "healthcare": null, "social_facility": null, "public_transport": "stop_position", "highway": null, "railway": null, "operator": null, "access": null, "wheelchair": null, "source": "OpenStreetMap", "license": "ODbL-1.0"}, "geometry": {"type": "Point", "coordinates": [121.469036, 31.2088007]}}, {"type": "Feature", "properties": {"element_type": "node", "osm_id": 11664726197, "name": "鲁班路徐家汇路", "name:zh": "鲁班路徐家汇路", "service_group": "public_transport", "amenity": null, "healthcare": null, "social_facility": null, "public_transport": "platform", "highway": "bus_stop", "railway": null, "operator": null, "access": null, "wheelchair": null, "source": "OpenStreetMap", "license": "ODbL-1.0"}, "geometry": {"type": "Point", "coordinates": [121.46891, 31.2087548]}}, {"type": "Feature", "properties": {"element_type": "node", "osm_id": 13814151053, "name": "上海药房", "name:zh": null, "service_group": "healthcare", "amenity": "pharmacy", "healthcare": "pharmacy", "social_facility": null, "public_transport": null, "highway": null, "railway": null, "operator": null, "access": null, "wheelchair": null, "source": "OpenStreetMap", "license": "ODbL-1.0"}, "geometry": {"type": "Point", "coordinates": [121.4764075, 31.2091308]}}, {"type": "Feature", "properties": {"element_type": "node", "osm_id": 13814190888, "name": "上海市黄浦区顺昌医院", "name:zh": null, "service_group": "healthcare", "amenity": "hospital", "healthcare": "hospital", "social_facility": null, "public_transport": null, "highway": null, "railway": null, "operator": null, "access": null, "wheelchair": null, "source": "OpenStreetMap", "license": "ODbL-1.0"}, "geometry": {"type": "Point", "coordinates": [121.4775963, 31.2098007]}}, {"type": "Feature", "properties": {"element_type": "node", "osm_id": 13816433415, "name": null, "name:zh": null, "service_group": "social_service", "amenity": "community_centre", "healthcare": null, "social_facility": null, "public_transport": null, "highway": null, "railway": null, "operator": null, "access": null, "wheelchair": null, "source": "OpenStreetMap", "license": "ODbL-1.0"}, "geometry": {"type": "Point", "coordinates": [121.4779149, 31.2118242]}}, {"type": "Feature", "properties": {"element_type": "way", "osm_id": 305412689, "name": "上师大附属卢湾实验小学", "name:zh": null, "service_group": "education", "amenity": "school", "healthcare": null, "social_facility": null, "public_transport": null, "highway": null, "railway": null, "operator": null, "access": null, "wheelchair": null, "source": "OpenStreetMap", "license": "ODbL-1.0"}, "geometry": {"type": "Point", "coordinates": [121.4775385, 31.2106944]}}, {"type": "Feature", "properties": {"element_type": "way", "osm_id": 305412733, "name": "上海音乐学院附属黄浦比乐中学", "name:zh": null, "service_group": "education", "amenity": "school", "healthcare": null, "social_facility": null, "public_transport": null, "highway": null, "railway": null, "operator": null, "access": null, "wheelchair": "limited", "source": "OpenStreetMap", "license": "ODbL-1.0"}, "geometry": {"type": "Point", "coordinates": [121.476656, 31.2137592]}}, {"type": "Feature", "properties": {"element_type": "way", "osm_id": 787373843, "name": "海华小学", "name:zh": null, "service_group": "education", "amenity": "school", "healthcare": null, "social_facility": null, "public_transport": null, "highway": null, "railway": null, "operator": null, "access": null, "wheelchair": null, "source": "OpenStreetMap", "license": "ODbL-1.0"}, "geometry": {"type": "Point", "coordinates": [121.4635272, 31.2045637]}}, {"type": "Feature", "properties": {"element_type": "way", "osm_id": 1169368826, "name": "上海市卢湾高级中学", "name:zh": null, "service_group": "education", "amenity": "school", "healthcare": null, "social_facility": null, "public_transport": null, "highway": null, "railway": null, "operator": null, "access": null, "wheelchair": null, "source": "OpenStreetMap", "license": "ODbL-1.0"}, "geometry": {"type": "Point", "coordinates": [121.4643987, 31.2043562]}}, {"type": "Feature", "properties": {"element_type": "way", "osm_id": 1209934028, "name": "打浦桥", "name:zh": null, "service_group": "public_transport", "amenity": null, "healthcare": null, "social_facility": null, "public_transport": "station", "highway": null, "railway": "station", "operator": null, "access": null, "wheelchair": null, "source": "OpenStreetMap", "license": "ODbL-1.0"}, "geometry": {"type": "Point", "coordinates": [121.4638284, 31.2084205]}}, {"type": "Feature", "properties": {"element_type": "way", "osm_id": 1330875992, "name": "上海市卢湾中学", "name:zh": null, "service_group": "education", "amenity": "school", "healthcare": null, "social_facility": null, "public_transport": null, "highway": null, "railway": null, "operator": null, "access": null, "wheelchair": null, "source": "OpenStreetMap", "license": "ODbL-1.0"}, "geometry": {"type": "Point", "coordinates": [121.4658303, 31.2040991]}}, {"type": "Feature", "properties": {"element_type": "way", "osm_id": 1435642930, "name": "小骑士幼儿园", "name:zh": null, "service_group": "education", "amenity": "kindergarten", "healthcare": null, "social_facility": null, "public_transport": null, "highway": null, "railway": null, "operator": null, "access": null, "wheelchair": null, "source": "OpenStreetMap", "license": "ODbL-1.0"}, "geometry": {"type": "Point", "coordinates": [121.4644943, 31.2059546]}}, {"type": "Feature", "properties": {"element_type": "way", "osm_id": 1467537296, "name": "海华小学（分部）", "name:zh": null, "service_group": "education", "amenity": "school", "healthcare": null, "social_facility": null, "public_transport": null, "highway": null, "railway": null, "operator": null, "access": null, "wheelchair": null, "source": "OpenStreetMap", "license": "ODbL-1.0"}, "geometry": {"type": "Point", "coordinates": [121.4624903, 31.2102901]}}, {"type": "Feature", "properties": {"element_type": "relation", "osm_id": 7849582, "name": "打浦桥", "name:zh": "打浦桥", "service_group": "public_transport", "amenity": null, "healthcare": null, "social_facility": null, "public_transport": "stop_area", "highway": null, "railway": null, "operator": null, "access": null, "wheelchair": null, "source": "OpenStreetMap", "license": "ODbL-1.0"}, "geometry": {"type": "Point", "coordinates": [121.4638671, 31.2083007]}}, {"type": "Feature", "properties": {"element_type": "relation", "osm_id": 7849583, "name": "马当路", "name:zh": "马当路", "service_group": "public_transport", "amenity": null, "healthcare": null, "social_facility": null, "public_transport": "stop_area", "highway": null, "railway": null, "operator": null, "access": null, "wheelchair": null, "source": "OpenStreetMap", "license": "ODbL-1.0"}, "geometry": {"type": "Point", "coordinates": [121.4728532, 31.2114666]}}, {"type": "Feature", "properties": {"element_type": "relation", "osm_id": 7858141, "name": "马当路", "name:zh": "马当路", "service_group": "public_transport", "amenity": null, "healthcare": null, "social_facility": null, "public_transport": "stop_area", "highway": null, "railway": null, "operator": null, "access": null, "wheelchair": null, "source": "OpenStreetMap", "license": "ODbL-1.0"}, "geometry": {"type": "Point", "coordinates": [121.4716279, 31.2122419]}}, {"type": "Feature", "properties": {"element_type": "relation", "osm_id": 14191144, "name": "打浦路斜土路", "name:zh": "打浦路斜土路", "service_group": "public_transport", "amenity": null, "healthcare": null, "social_facility": null, "public_transport": "stop_area", "highway": null, "railway": null, "operator": null, "access": null, "wheelchair": null, "source": "OpenStreetMap", "license": "ODbL-1.0"}, "geometry": {"type": "Point", "coordinates": [121.466268, 31.2042755]}}, {"type": "Feature", "properties": {"element_type": "relation", "osm_id": 14191146, "name": "打浦桥", "name:zh": "打浦桥", "service_group": "public_transport", "amenity": null, "healthcare": null, "social_facility": null, "public_transport": "stop_area", "highway": null, "railway": null, "operator": null, "access": null, "wheelchair": null, "source": "OpenStreetMap", "license": "ODbL-1.0"}, "geometry": {"type": "Point", "coordinates": [121.4632244, 31.2062186]}}, {"type": "Feature", "properties": {"element_type": "relation", "osm_id": 14193525, "name": "建国东路重庆南路", "name:zh": "建国东路重庆南路", "service_group": "public_transport", "amenity": null, "healthcare": null, "social_facility": null, "public_transport": "stop_area", "highway": null, "railway": null, "operator": null, "access": null, "wheelchair": null, "source": "OpenStreetMap", "license": "ODbL-1.0"}, "geometry": {"type": "Point", "coordinates": [121.4694488, 31.2133241]}}, {"type": "Feature", "properties": {"element_type": "relation", "osm_id": 14233994, "name": "建国东路肇周路", "name:zh": "建国东路肇周路", "service_group": "public_transport", "amenity": null, "healthcare": null, "social_facility": null, "public_transport": "stop_area", "highway": null, "railway": null, "operator": null, "access": null, "wheelchair": null, "source": "OpenStreetMap", "license": "ODbL-1.0"}, "geometry": {"type": "Point", "coordinates": [121.4755954, 31.2154314]}}, {"type": "Feature", "properties": {"element_type": "relation", "osm_id": 14233996, "name": "建国西路陕西南路", "name:zh": "建国西路陕西南路", "service_group": "public_transport", "amenity": null, "healthcare": null, "social_facility": null, "public_transport": "stop_area", "highway": null, "railway": null, "operator": null, "access": null, "wheelchair": null, "source": "OpenStreetMap", "license": "ODbL-1.0"}, "geometry": {"type": "Point", "coordinates": [121.4587913, 31.2089023]}}, {"type": "Feature", "properties": {"element_type": "relation", "osm_id": 14237688, "name": "鲁班路斜土路", "name:zh": "鲁班路斜土路", "service_group": "public_transport", "amenity": null, "healthcare": null, "social_facility": null, "public_transport": "stop_area", "highway": null, "railway": null, "operator": null, "access": null, "wheelchair": null, "source": "OpenStreetMap", "license": "ODbL-1.0"}, "geometry": {"type": "Point", "coordinates": [121.4700408, 31.2066542]}}, {"type": "Feature", "properties": {"element_type": "relation", "osm_id": 14243923, "name": "徐家汇路黄陂南路", "name:zh": "徐家汇路黄陂南路", "service_group": "public_transport", "amenity": null, "healthcare": null, "social_facility": null, "public_transport": "stop_area", "highway": null, "railway": null, "operator": null, "access": null, "wheelchair": null, "source": "OpenStreetMap", "license": "ODbL-1.0"}, "geometry": {"type": "Point", "coordinates": [121.4732651, 31.2115406]}}, {"type": "Feature", "properties": {"element_type": "relation", "osm_id": 15068596, "name": "顺昌路徐家汇路", "name:zh": "顺昌路徐家汇路", "service_group": "public_transport", "amenity": null, "healthcare": null, "social_facility": null, "public_transport": "stop_area", "highway": null, "railway": null, "operator": null, "access": null, "wheelchair": null, "source": "OpenStreetMap", "license": "ODbL-1.0"}, "geometry": {"type": "Point", "coordinates": [121.4751716, 31.2132993]}}, {"type": "Feature", "properties": {"element_type": "relation", "osm_id": 15068597, "name": "蒙自路丽园路", "name:zh": "蒙自路丽园路", "service_group": "public_transport", "amenity": null, "healthcare": null, "social_facility": null, "public_transport": "stop_area", "highway": null, "railway": null, "operator": null, "access": null, "wheelchair": null, "source": "OpenStreetMap", "license": "ODbL-1.0"}, "geometry": {"type": "Point", "coordinates": [121.4727228, 31.2090193]}}, {"type": "Feature", "properties": {"element_type": "relation", "osm_id": 15068601, "name": "局门路斜土路", "name:zh": "局门路斜土路", "service_group": "public_transport", "amenity": null, "healthcare": null, "social_facility": null, "public_transport": "stop_area", "highway": null, "railway": null, "operator": null, "access": null, "wheelchair": null, "source": "OpenStreetMap", "license": "ODbL-1.0"}, "geometry": {"type": "Point", "coordinates": [121.4763075, 31.2083075]}}, {"type": "Feature", "properties": {"element_type": "relation", "osm_id": 15068602, "name": "黄陂南路徐家汇路", "name:zh": "黄陂南路徐家汇路", "service_group": "public_transport", "amenity": null, "healthcare": null, "social_facility": null, "public_transport": "stop_area", "highway": null, "railway": null, "operator": null, "access": null, "wheelchair": null, "source": "OpenStreetMap", "license": "ODbL-1.0"}, "geometry": {"type": "Point", "coordinates": [121.4738502, 31.2128045]}}, {"type": "Feature", "properties": {"element_type": "relation", "osm_id": 17269920, "name": "鲁班路徐家汇路", "name:zh": "鲁班路徐家汇路", "service_group": "public_transport", "amenity": null, "healthcare": null, "social_facility": null, "public_transport": "stop_area", "highway": null, "railway": null, "operator": null, "access": null, "wheelchair": null, "source": "OpenStreetMap", "license": "ODbL-1.0"}, "geometry": {"type": "Point", "coordinates": [121.468973, 31.2087777]}}]}