{"type": "FeatureCollection", "features": [{"type": "Feature", "properties": {"element_type": "way", "osm_id": 1209934031, "osm_version": 1, "osm_last_updated": "2023-09-22T03:08:43Z", "name": "白玉兰广场", "name:zh": null, "leisure": null, "place": "square", "landuse": null, "access": null, "opening_hours": null, "operator": null, "research_status": "candidate_unverified_excluded", "verification_date": "2026-09-28", "verification_method": "OSM tag plus AMap nearby-POI cross-check", "verification_sources": "https://www.openstreetmap.org/way/1209934031", "amap_match": false, "amap_poi_id": null, "address_verified": null, "official_reported_area_m2": null, "official_reported_green_area_m2": null, "official_area_reference_year": null, "public_access_evidence": "not_verified", "official_opening_hours_last_published": null, "official_opening_hours_reference_year": null, "opening_hours_status": null, "ownership_status": "not_verified", "geometry_status": "osm_polygon_research_geometry", "legal_boundary": false, "osm_geometry_area_m2": 8104.04, "include_in_public_space_context": false, "include_in_objective": false, "verification_note": "No same-name AMap public-space POI was returned near this coordinate; multiple unrelated Shanghai places share the name. Keep frozen and excluded.", "source": "OpenStreetMap", "license": "ODbL-1.0"}, "geometry": {"type": "Polygon", "coordinates": [[[121.4664475, 31.2074631], [121.4666529, 31.2071892], [121.4667724, 31.2068077], [121.4668498, 31.2065311], [121.4661571, 31.2062964], [121.4661241, 31.2063987], [121.4657517, 31.2071564], [121.4664475, 31.2074631]]]}}, {"type": "Feature", "properties": {"element_type": "way", "osm_id": 72083112, "osm_version": 5, "osm_last_updated": "2025-10-04T12:06:33Z", "name": "丽园公园", "name:zh": null, "leisure": "park", "place": null, "landuse": null, "access": null, "opening_hours": null, "operator": null, "research_status": "verified_public_park_context", "verification_date": "2026-09-28", "verification_method": "OSM tag, AMap POI, Huangpu statistical yearbook and Shanghai park-management evidence", "verification_sources": "https://www.openstreetmap.org/way/72083112 | https://www.shhuangpu.gov.cn/uploadfile/de2d24bb-b3a2-4ac8-a4f5-5e15bc8fa8bf/2014%E5%B9%B4%E9%BB%84%E6%B5%A6%E7%BB%9F%E8%AE%A1%E5%B9%B4%E9%89%B4.pdf | https://lhsr.sh.gov.cn/cmsres/99/99d8041e933d40259d86d3a556daeb12/051e89e66f8b0d8cfa9e00e63822dbfc.pdf | https://lhsr.sh.gov.cn/ywdt/20250915/c44b20ec-3822-4053-a336-65f2cd27a29b.html", "amap_match": true, "amap_poi_id": "B00155HQDA", "address_verified": "上海市黄浦区丽园路565号", "official_reported_area_m2": 17460, "official_reported_green_area_m2": 11131, "official_area_reference_year": 2013, "public_access_evidence": "official_park_listing_and_public_opening_program", "official_opening_hours_last_published": "05:00-21:00", "official_opening_hours_reference_year": 2021.0, "opening_hours_status": "historical_official_schedule; current_hours_not_reverified", "ownership_status": "not_verified", "geometry_status": "osm_polygon_research_geometry", "legal_boundary": false, "osm_geometry_area_m2": 17654.66, "include_in_public_space_context": true, "include_in_objective": false, "verification_note": "Official sources support public-park identity and a 2021 published schedule. The OSM polygon is research geometry only; historical area and OSM geometry are not a current surveyed or legal boundary, and current hours remain unverified.", "source": "OpenStreetMap", "license": "ODbL-1.0"}, "geometry": {"type": "Polygon", "coordinates": [[[121.4727687, 31.209259], [121.4737586, 31.2095545], [121.4743127, 31.2096792], [121.4744357, 31.2096705], [121.4746606, 31.2096092], [121.4750071, 31.2096384], [121.4755986, 31.2097813], [121.4758566, 31.209248], [121.475638, 31.2091838], [121.4731108, 31.2088727], [121.4728059, 31.208876], [121.4727045, 31.2091639], [121.4727687, 31.209259]]]}}]}