{"type": "FeatureCollection", "features": [{"type": "Feature", "properties": {"name": "打浦桥街道", "element_type": "relation", "osm_id": 12235958, "display_name": "打浦桥街道, 上海市, 黄浦区, 上海市, 200025, 中国", "source": "OpenStreetMap", "license": "ODbL-1.0"}, "geometry": {"type": "Polygon", "coordinates": [[[121.4574087, 31.2084406], [121.4575951, 31.2068806], [121.4576098, 31.2066443], [121.457642, 31.2054995], [121.4576809, 31.2051554], [121.4577278, 31.2049076], [121.4585164, 31.2050768], [121.4597918, 31.2053688], [121.4603524, 31.2055494], [121.4620838, 31.2063896], [121.4622098, 31.2064298], [121.4622462, 31.206336], [121.4627629, 31.2053086], [121.4633154, 31.2036798], [121.4634564, 31.2030929], [121.4666153, 31.2039636], [121.4706776, 31.2049856], [121.4722279, 31.2053802], [121.472885, 31.2056808], [121.4735904, 31.2061671], [121.4740276, 31.2064332], [121.4753982, 31.2070343], [121.4761922, 31.2074598], [121.476514, 31.2076514], [121.4773442, 31.2079336], [121.4791225, 31.2085358], [121.480193, 31.2088443], [121.4802155, 31.2088451], [121.4800559, 31.209084], [121.4799459, 31.2093719], [121.4799499, 31.2095555], [121.4799406, 31.209661], [121.4798748, 31.2098663], [121.4797153, 31.2100051], [121.4792633, 31.2103412], [121.478604, 31.2109925], [121.4781468, 31.2116874], [121.4778498, 31.2122555], [121.4774957, 31.2130871], [121.4774226, 31.2132734], [121.4774059, 31.2133273], [121.476569, 31.2158231], [121.4765281, 31.2158082], [121.4744407, 31.2150862], [121.4696684, 31.213399], [121.4674993, 31.2126787], [121.4622366, 31.2104387], [121.4610162, 31.2098422], [121.4582375, 31.2086723], [121.4574087, 31.2084406]]]}}]}